{"type":"FeatureCollection","name":"zctas_11","features":[{"type":"Feature","id":"20418","properties":{"zip":"20418","pop":null,"city":"Washington","county":"District of Columbia","state":"District of Columbia","area":0.01,"lat":38.8928,"lon":-77.04776},"geometry":{"type":"Polygon","coordinates":[[[-77.04886,38.8935],[-77.04667,38.8935],[-77.04668,38.8921],[-77.04885,38.8921],[-77.04886,38.8935]]]}},{"type":"Feature","id":"20551","properties":{"zip":"20551","pop":null,"city":"Washington","county":"District of Columbia","state":"District of Columbia","area":0.01,"lat":38.8928,"lon":-77.0458},"geometry":{"type":"Polygon","coordinates":[[[-77.04667,38.8935],[-77.04492,38.89351],[-77.04494,38.8921],[-77.04668,38.8921],[-77.04667,38.8935]]]}},{"type":"Feature","id":"20006","properties":{"zip":"20006","pop":null,"city":"Washington","county":"District of Columbia","state":"District of Columbia","area":0.27,"lat":38.89845,"lon":-77.04102},"geometry":{"type":"Polygon","coordinates":[[[-77.04885,38.89736],[-77.04666,38.89692],[-77.04665,38.90374],[-77.03459,38.90134],[-77.03502,38.89544],[-77.03946,38.8954],[-77.03948,38.8921],[-77.04348,38.8921],[-77.04173,38.8954],[-77.04347,38.8954],[-77.04347,38.89735],[-77.04491,38.89735],[-77.04521,38.89453],[-77.04885,38.89736]],[[-77.04491,38.89832],[-77.04347,38.89832],[-77.04346,38.89957],[-77.0449,38.89958],[-77.04491,38.89832]]]}},{"type":"Feature","id":"20052","properties":{"zip":"20052","pop":null,"city":"Washington","county":"District of Columbia","state":"District of Columbia","area":0.03,"lat":38.89896,"lon":-77.04758},"geometry":{"type":"MultiPolygon","coordinates":[[[[-77.04491,38.89735],[-77.04347,38.89735],[-77.04347,38.89598],[-77.04492,38.89599],[-77.04491,38.89735]]],[[[-77.05013,38.89833],[-77.05013,38.9007],[-77.04665,38.90069],[-77.04666,38.89832],[-77.05013,38.89833]]]]}},{"type":"Feature","id":"20057","properties":{"zip":"20057","pop":null,"city":"Washington","county":"District of Columbia","state":"District of Columbia","area":0.13,"lat":38.90903,"lon":-77.07541},"geometry":{"type":"Polygon","coordinates":[[[-77.07902,38.91268],[-77.0731,38.91259],[-77.0715,38.90511],[-77.07831,38.90604],[-77.07902,38.91268]]]}},{"type":"Feature","id":"20515","properties":{"zip":"20515","pop":null,"city":"Washington","county":"District of Columbia","state":"District of Columbia","area":0.03,"lat":38.88681,"lon":-77.00901},"geometry":{"type":"Polygon","coordinates":[[[-77.01215,38.88756],[-77.0059,38.88761],[-77.00589,38.88604],[-77.01214,38.88603],[-77.01215,38.88756]]]}},{"type":"Feature","id":"20408","properties":{"zip":"20408","pop":null,"city":"Washington","county":"District of Columbia","state":"District of Columbia","area":0.01,"lat":38.89284,"lon":-77.02301},"geometry":{"type":"Polygon","coordinates":[[[-77.02397,38.89388],[-77.02192,38.8933],[-77.0219,38.89208],[-77.02396,38.89208],[-77.02397,38.89388]]]}},{"type":"Feature","id":"20415","properties":{"zip":"20415","pop":null,"city":"Washington","county":"District of Columbia","state":"District of Columbia","area":0.01,"lat":38.89481,"lon":-77.04415},"geometry":{"type":"Polygon","coordinates":[[[-77.04492,38.89543],[-77.04347,38.89598],[-77.04347,38.89351],[-77.04521,38.89453],[-77.04492,38.89543]]]}},{"type":"Feature","id":"20591","properties":{"zip":"20591","pop":null,"city":"Washington","county":"District of Columbia","state":"District of Columbia","area":0.01,"lat":38.88695,"lon":-77.02297},"geometry":{"type":"Polygon","coordinates":[[[-77.02402,38.88757],[-77.02192,38.88756],[-77.02191,38.88632],[-77.02403,38.88633],[-77.02402,38.88757]]]}},{"type":"Feature","id":"20004","properties":{"zip":"20004","pop":null,"city":"Washington","county":"District of Columbia","state":"District of Columbia","area":0.16,"lat":38.89524,"lon":-77.02672},"geometry":{"type":"Polygon","coordinates":[[[-77.03365,38.89735],[-77.03196,38.8961],[-77.02703,38.89832],[-77.0199,38.89734],[-77.0199,38.89276],[-77.02599,38.89613],[-77.02599,38.89208],[-77.03196,38.89209],[-77.03365,38.89735]]]}},{"type":"Feature","id":"20064","properties":{"zip":"20064","pop":null,"city":"Washington","county":"District of Columbia","state":"District of Columbia","area":0.15,"lat":38.93641,"lon":-76.99919},"geometry":{"type":"Polygon","coordinates":[[[-77.00298,38.94074],[-76.99764,38.94073],[-76.99484,38.93375],[-77.00098,38.93122],[-77.00298,38.94074]]]}},{"type":"Feature","id":"20245","properties":{"zip":"20245","pop":null,"city":"Washington","county":"District of Columbia","state":"District of Columbia","area":0.01,"lat":38.89364,"lon":-77.04514},"geometry":{"type":"Polygon","coordinates":[[[-77.04668,38.89532],[-77.04347,38.89351],[-77.04348,38.8921],[-77.04667,38.8935],[-77.04668,38.89532]]]}},{"type":"Feature","id":"20390","properties":{"zip":"20390","pop":null,"city":"Washington","county":"District of Columbia","state":"District of Columbia","area":0.0,"lat":38.87901,"lon":-76.99375},"geometry":{"type":"Polygon","coordinates":[[[-76.99497,38.87928],[-76.99289,38.87928],[-76.99265,38.87859],[-76.99497,38.87894],[-76.99497,38.87928]]]}},{"type":"Feature","id":"20010","properties":{"zip":"20010","pop":null,"city":"Washington","county":"District of Columbia","state":"District of Columbia","area":0.76,"lat":38.93257,"lon":-77.03124},"geometry":{"type":"Polygon","coordinates":[[[-77.0505,38.93322],[-77.03645,38.93823],[-77.02971,38.93684],[-77.01899,38.93777],[-77.01828,38.93056],[-77.01215,38.93118],[-77.01214,38.92628],[-77.01781,38.92794],[-77.01805,38.92961],[-77.03446,38.92793],[-77.04421,38.92956],[-77.04453,38.92812],[-77.0505,38.93322]]]}},{"type":"Feature","id":"20250","properties":{"zip":"20250","pop":null,"city":"Washington","county":"District of Columbia","state":"District of Columbia","area":0.02,"lat":38.88564,"lon":-77.03289},"geometry":{"type":"Polygon","coordinates":[[[-77.03345,38.88777],[-77.03199,38.88758],[-77.03259,38.88279],[-77.03371,38.88435],[-77.03345,38.88777]]]}},{"type":"Feature","id":"20240","properties":{"zip":"20240","pop":null,"city":"Washington","county":"District of Columbia","state":"District of Columbia","area":0.01,"lat":38.89452,"lon":-77.04259},"geometry":{"type":"Polygon","coordinates":[[[-77.0435,38.89376],[-77.04347,38.8954],[-77.04173,38.8954],[-77.04174,38.89353],[-77.0435,38.89376]]]}},{"type":"Feature","id":"20530","properties":{"zip":"20530","pop":null,"city":"Washington","county":"District of Columbia","state":"District of Columbia","area":0.01,"lat":38.89313,"lon":-77.02503},"geometry":{"type":"Polygon","coordinates":[[[-77.026,38.89444],[-77.02397,38.89388],[-77.02396,38.89208],[-77.02599,38.89208],[-77.026,38.89444]]]}},{"type":"Feature","id":"20540","properties":{"zip":"20540","pop":null,"city":"Washington","county":"District of Columbia","state":"District of Columbia","area":0.03,"lat":38.88793,"lon":-77.00471},"geometry":{"type":"Polygon","coordinates":[[[-77.00592,38.88981],[-77.00351,38.88981],[-77.00351,38.88604],[-77.00589,38.88604],[-77.00592,38.88981]]]}},{"type":"Feature","id":"20565","properties":{"zip":"20565","pop":null,"city":"Washington","county":"District of Columbia","state":"District of Columbia","area":0.11,"lat":38.89039,"lon":-77.01936},"geometry":{"type":"Polygon","coordinates":[[[-77.02396,38.89208],[-77.02192,38.8933],[-77.01523,38.89209],[-77.01517,38.88819],[-77.02192,38.88756],[-77.02396,38.89208]]]}},{"type":"Feature","id":"20204","properties":{"zip":"20204","pop":null,"city":"Washington","county":"District of Columbia","state":"District of Columbia","area":0.0,"lat":38.88556,"lon":-77.01443},"geometry":{"type":"Polygon","coordinates":[[[-77.0152,38.88605],[-77.01365,38.88605],[-77.01366,38.88506],[-77.0152,38.88507],[-77.0152,38.88605]]]}},{"type":"Feature","id":"20542","properties":{"zip":"20542","pop":null,"city":"Washington","county":"District of Columbia","state":"District of Columbia","area":0.01,"lat":38.94151,"lon":-77.02746},"geometry":{"type":"Polygon","coordinates":[[[-77.0297,38.94186],[-77.02594,38.94187],[-77.02672,38.9408],[-77.0297,38.94186]]]}},{"type":"Feature","id":"20422","properties":{"zip":"20422","pop":null,"city":"Washington","county":"District of Columbia","state":"District of Columbia","area":0.11,"lat":38.92714,"lon":-77.01002},"geometry":{"type":"Polygon","coordinates":[[[-77.01215,38.93118],[-77.00698,38.93121],[-77.00897,38.92237],[-77.01215,38.92238],[-77.01215,38.93118]]]}},{"type":"Feature","id":"20510","properties":{"zip":"20510","pop":null,"city":"Washington","county":"District of Columbia","state":"District of Columbia","area":0.01,"lat":38.89278,"lon":-77.00689},"geometry":{"type":"Polygon","coordinates":[[[-77.00758,38.89363],[-77.00589,38.89363],[-77.0059,38.89201],[-77.00817,38.89203],[-77.00758,38.89363]]]}},{"type":"Feature","id":"20319","properties":{"zip":"20319","pop":null,"city":"Washington","county":"District of Columbia","state":"District of Columbia","area":0.11,"lat":38.8673,"lon":-77.01677},"geometry":{"type":"Polygon","coordinates":[[[-77.01921,38.87193],[-77.01434,38.87203],[-77.01535,38.8621],[-77.01803,38.86115],[-77.01921,38.87193]]]}},{"type":"Feature","id":"20431","properties":{"zip":"20431","pop":null,"city":"Washington","county":"District of Columbia","state":"District of Columbia","area":0.01,"lat":38.89895,"lon":-77.04419},"geometry":{"type":"Polygon","coordinates":[[[-77.0449,38.89958],[-77.04346,38.89957],[-77.04347,38.89832],[-77.04491,38.89832],[-77.0449,38.89958]]]}},{"type":"Feature","id":"20007","properties":{"zip":"20007","pop":null,"city":"Washington","county":"District of Columbia","state":"District of Columbia","area":2.96,"lat":38.91272,"lon":-77.07747},"geometry":{"type":"Polygon","coordinates":[[[-77.1054,38.91719],[-77.09858,38.92115],[-77.0965,38.92582],[-77.09372,38.9273],[-77.08262,38.92786],[-77.08,38.92597],[-77.07705,38.928],[-77.06638,38.92753],[-77.06635,38.92432],[-77.07089,38.92362],[-77.07012,38.92019],[-77.06088,38.91641],[-77.05908,38.91831],[-77.0588,38.91583],[-77.05008,38.90964],[-77.05339,38.90856],[-77.05856,38.90147],[-77.05592,38.893],[-77.06466,38.89184],[-77.0682,38.89981],[-77.0902,38.90421],[-77.1034,38.91291],[-77.1054,38.91719]],[[-77.0777,38.90969],[-77.07831,38.90604],[-77.0715,38.90511],[-77.0731,38.91259],[-77.07902,38.91268],[-77.0777,38.90969]]]}},{"type":"Feature","id":"20388","properties":{"zip":"20388","pop":null,"city":"Washington","county":"District of Columbia","state":"District of Columbia","area":0.05,"lat":38.87201,"lon":-76.99537},"geometry":{"type":"Polygon","coordinates":[[[-76.99898,38.87275],[-76.99378,38.87376],[-76.9901,38.87135],[-76.99954,38.87049],[-76.99898,38.87275]]]}},{"type":"Feature","id":"20017","properties":{"zip":"20017","pop":null,"city":"Washington","county":"District of Columbia","state":"District of Columbia","area":1.76,"lat":38.93816,"lon":-76.9929},"geometry":{"type":"Polygon","coordinates":[[[-77.00868,38.92824],[-77.00608,38.93427],[-77.00803,38.94238],[-77.00438,38.94074],[-77.00438,38.94286],[-77.00143,38.9429],[-76.99967,38.94074],[-77.00298,38.94074],[-77.00098,38.93122],[-76.99484,38.93375],[-77.00245,38.95216],[-76.98827,38.95441],[-76.97783,38.94634],[-76.98002,38.94472],[-76.98002,38.93831],[-76.98206,38.93834],[-76.98232,38.92802],[-76.98588,38.92677],[-76.98562,38.92462],[-76.99448,38.92558],[-76.99603,38.92138],[-77.00057,38.91976],[-77.00057,38.92559],[-77.00894,38.92668],[-77.00868,38.92824]]]}},{"type":"Feature","id":"20032","properties":{"zip":"20032","pop":null,"city":"Washington","county":"District of Columbia","state":"District of Columbia","area":6.44,"lat":38.83135,"lon":-77.01507},"geometry":{"type":"Polygon","coordinates":[[[-77.045,38.83851],[-77.0442,38.84021],[-77.03454,38.84047],[-77.03183,38.8509],[-77.02016,38.85733],[-77.01897,38.85043],[-77.00816,38.85012],[-77.00345,38.86069],[-76.98505,38.84896],[-76.98909,38.84459],[-76.98058,38.84721],[-76.97891,38.84219],[-76.97294,38.84307],[-77.03901,38.79165],[-77.0381,38.82861],[-77.0392,38.83221],[-77.0449,38.83471],[-77.045,38.83851]]]}},{"type":"Feature","id":"20535","properties":{"zip":"20535","pop":null,"city":"Washington","county":"District of Columbia","state":"District of Columbia","area":0.01,"lat":38.89514,"lon":-77.02493},"geometry":{"type":"Polygon","coordinates":[[[-77.02599,38.89613],[-77.02397,38.89613],[-77.02397,38.89388],[-77.026,38.89444],[-77.02599,38.89613]]]}},{"type":"Feature","id":"20317","properties":{"zip":"20317","pop":null,"city":"Washington","county":"District of Columbia","state":"District of Columbia","area":0.29,"lat":38.93638,"lon":-77.01261},"geometry":{"type":"Polygon","coordinates":[[[-77.01923,38.9369],[-77.01625,38.93888],[-77.01297,38.93803],[-77.01332,38.94213],[-77.01093,38.94461],[-77.00803,38.94238],[-77.00608,38.93427],[-77.00698,38.93121],[-77.01828,38.93056],[-77.01923,38.9369]],[[-77.0129,38.93256],[-77.00697,38.93336],[-77.00728,38.93648],[-77.01184,38.93671],[-77.0129,38.93256]]]}},{"type":"Feature","id":"20024","properties":{"zip":"20024","pop":null,"city":"Washington","county":"District of Columbia","state":"District of Columbia","area":3.28,"lat":38.87502,"lon":-77.02963},"geometry":{"type":"Polygon","coordinates":[[[-77.05849,38.88625],[-77.05119,38.88888],[-77.04797,38.8921],[-77.03365,38.89209],[-77.03303,38.89013],[-77.02805,38.89047],[-77.02807,38.88757],[-77.02191,38.88632],[-77.01517,38.88819],[-77.01523,38.89209],[-77.01217,38.89209],[-77.01246,38.88336],[-77.01402,38.88236],[-77.00911,38.88144],[-77.00908,38.87203],[-77.01065,38.87203],[-77.01066,38.87009],[-77.00546,38.86871],[-77.00912,38.8636],[-77.03183,38.8509],[-77.0393,38.86431],[-77.0406,38.87121],[-77.05849,38.88625]],[[-77.03371,38.88435],[-77.03259,38.88279],[-77.03199,38.88758],[-77.03345,38.88777],[-77.03371,38.88435]],[[-77.02606,38.88225],[-77.02399,38.88226],[-77.02402,38.88484],[-77.02606,38.88485],[-77.02606,38.88225]],[[-77.01867,38.87015],[-77.01858,38.86147],[-77.01803,38.86115],[-77.01535,38.8621],[-77.01434,38.87203],[-77.01921,38.87193],[-77.01867,38.87015]],[[-77.0152,38.88507],[-77.01366,38.88506],[-77.01365,38.88605],[-77.0152,38.88605],[-77.0152,38.88507]]]}},{"type":"Feature","id":"20003","properties":{"zip":"20003","pop":null,"city":"Washington","county":"District of Columbia","state":"District of Columbia","area":1.97,"lat":38.88174,"lon":-76.99047},"geometry":{"type":"Polygon","coordinates":[[[-77.01402,38.88236],[-77.01246,38.88336],[-77.01299,38.88667],[-77.00351,38.88604],[-77.00351,38.88981],[-77.00204,38.89004],[-76.98076,38.8898],[-76.98076,38.89201],[-76.97726,38.892],[-76.97726,38.8898],[-76.97401,38.89028],[-76.97515,38.8933],[-76.96924,38.89003],[-76.96337,38.88987],[-76.9733,38.87839],[-76.9901,38.87135],[-76.99378,38.87376],[-76.99898,38.87275],[-76.99954,38.87049],[-77.00342,38.87088],[-77.00546,38.86871],[-77.01066,38.87009],[-77.01065,38.87203],[-77.00908,38.87203],[-77.00911,38.88144],[-77.01402,38.88236]],[[-76.99497,38.87894],[-76.99265,38.87859],[-76.99289,38.87928],[-76.99497,38.87894]]]}},{"type":"Feature","id":"20560","properties":{"zip":"20560","pop":null,"city":"Washington","county":"District of Columbia","state":"District of Columbia","area":0.09,"lat":38.89012,"lon":-77.02702},"geometry":{"type":"Polygon","coordinates":[[[-77.03365,38.89209],[-77.02396,38.89208],[-77.02192,38.88756],[-77.02807,38.88757],[-77.02805,38.89047],[-77.03303,38.89013],[-77.03365,38.89209]]]}},{"type":"Feature","id":"20008","properties":{"zip":"20008","pop":null,"city":"Washington","county":"District of Columbia","state":"District of Columbia","area":2.42,"lat":38.93544,"lon":-77.05933},"geometry":{"type":"Polygon","coordinates":[[[-77.07411,38.95659],[-77.06948,38.95797],[-77.06823,38.95673],[-77.06604,38.95862],[-77.05901,38.95747],[-77.05318,38.95161],[-77.04966,38.94378],[-77.05198,38.93771],[-77.04788,38.93697],[-77.05085,38.93283],[-77.04453,38.92812],[-77.04616,38.92596],[-77.04951,38.92813],[-77.04854,38.92277],[-77.05018,38.92124],[-77.04612,38.91774],[-77.04714,38.9101],[-77.05008,38.90964],[-77.0588,38.91583],[-77.05908,38.91831],[-77.06088,38.91641],[-77.07012,38.92019],[-77.07089,38.92362],[-77.06635,38.92432],[-77.06639,38.93733],[-77.0668,38.93908],[-77.07242,38.93816],[-77.07152,38.9521],[-77.07411,38.95659]]]}},{"type":"Feature","id":"20018","properties":{"zip":"20018","pop":null,"city":"Washington","county":"District of Columbia","state":"District of Columbia","area":2.39,"lat":38.92574,"lon":-76.97278},"geometry":{"type":"Polygon","coordinates":[[[-76.99893,38.91557],[-76.99448,38.92558],[-76.98811,38.92558],[-76.988,38.92387],[-76.98232,38.92802],[-76.98206,38.93834],[-76.98002,38.93831],[-76.98002,38.94472],[-76.97783,38.94634],[-76.94192,38.91859],[-76.94362,38.91701],[-76.9783,38.9181],[-77.00173,38.90998],[-76.99893,38.91557]]]}},{"type":"Feature","id":"20059","properties":{"zip":"20059","pop":null,"city":"Washington","county":"District of Columbia","state":"District of Columbia","area":0.08,"lat":38.92271,"lon":-77.02022},"geometry":{"type":"Polygon","coordinates":[[[-77.02261,38.92481],[-77.02045,38.92753],[-77.01682,38.92048],[-77.0219,38.91899],[-77.02261,38.92481]]]}},{"type":"Feature","id":"20373","properties":{"zip":"20373","pop":null,"city":"Washington","county":"District of Columbia","state":"District of Columbia","area":0.55,"lat":38.85779,"lon":-77.01055},"geometry":{"type":"Polygon","coordinates":[[[-77.02016,38.85733],[-77.00912,38.8636],[-77.00546,38.86871],[-77.00227,38.86739],[-77.00208,38.86275],[-77.00816,38.85012],[-77.01897,38.85043],[-77.02016,38.85733]]]}},{"type":"Feature","id":"20045","properties":{"zip":"20045","pop":null,"city":"Washington","county":"District of Columbia","state":"District of Columbia","area":0.01,"lat":38.89673,"lon":-77.0308},"geometry":{"type":"Polygon","coordinates":[[[-77.03196,38.89735],[-77.02962,38.89734],[-77.02964,38.89613],[-77.03196,38.8961],[-77.03196,38.89735]]]}},{"type":"Feature","id":"20011","properties":{"zip":"20011","pop":null,"city":"Washington","county":"District of Columbia","state":"District of Columbia","area":4.1,"lat":38.95299,"lon":-77.0233},"geometry":{"type":"MultiPolygon","coordinates":[[[[-77.0125,38.93459],[-77.01184,38.93671],[-77.00728,38.93648],[-77.00697,38.93336],[-77.0129,38.93256],[-77.0125,38.93459]]],[[[-77.05154,38.93967],[-77.04966,38.94378],[-77.04404,38.94822],[-77.04706,38.94965],[-77.04219,38.95459],[-77.0405,38.95959],[-77.04754,38.96463],[-77.04671,38.96775],[-77.04441,38.971],[-77.03989,38.97283],[-77.03637,38.97227],[-77.03838,38.97017],[-77.03643,38.96686],[-77.0199,38.96729],[-77.0199,38.96992],[-77.01617,38.96992],[-77.01617,38.96729],[-77.01368,38.96729],[-77.01477,38.96994],[-77.01314,38.9673],[-77.00498,38.96742],[-76.98827,38.95441],[-77.00245,38.95216],[-76.99764,38.94073],[-77.00143,38.9429],[-77.00438,38.94286],[-77.00438,38.94074],[-77.01093,38.94461],[-77.01332,38.94213],[-77.01333,38.93781],[-77.01625,38.93888],[-77.02971,38.93684],[-77.03645,38.93823],[-77.0483,38.9348],[-77.04788,38.93697],[-77.05198,38.93771],[-77.05154,38.93967]],[[-77.0297,38.9408],[-77.02672,38.9408],[-77.02594,38.94187],[-77.0297,38.94186],[-77.0297,38.9408]]]]}},{"type":"Feature","id":"20012","properties":{"zip":"20012","pop":null,"city":"Washington","county":"District of Columbia","state":"District of Columbia","area":1.58,"lat":38.97838,"lon":-77.03081},"geometry":{"type":"Polygon","coordinates":[[[-77.05166,38.98709],[-77.041,38.99511],[-77.00498,38.96742],[-77.01314,38.9673],[-77.01477,38.96994],[-77.01368,38.96729],[-77.01617,38.96729],[-77.01617,38.96992],[-77.0199,38.96992],[-77.0199,38.96729],[-77.03643,38.96686],[-77.03838,38.97017],[-77.03637,38.97227],[-77.03989,38.97283],[-77.03986,38.97638],[-77.0446,38.97998],[-77.03986,38.98216],[-77.05166,38.98709]]]}},{"type":"Feature","id":"20002","properties":{"zip":"20002","pop":null,"city":"Washington","county":"District of Columbia","state":"District of Columbia","area":4.12,"lat":38.90489,"lon":-76.98482},"geometry":{"type":"Polygon","coordinates":[[[-77.01217,38.89209],[-77.0059,38.89201],[-77.00718,38.89479],[-77.0095,38.89479],[-77.00907,38.90373],[-77.01101,38.90564],[-77.0093,38.90724],[-77.00894,38.92668],[-77.00057,38.92559],[-77.00057,38.91976],[-76.99603,38.92138],[-77.00173,38.90998],[-76.9783,38.9181],[-76.94362,38.91701],[-76.95357,38.91438],[-76.96222,38.8995],[-76.96337,38.88987],[-76.96924,38.89003],[-76.97515,38.8933],[-76.97401,38.89028],[-76.97726,38.8898],[-76.97726,38.892],[-76.98076,38.89201],[-76.98076,38.8898],[-77.00592,38.88981],[-77.0059,38.88761],[-77.01215,38.88756],[-77.01217,38.89209]]]}},{"type":"Feature","id":"20005","properties":{"zip":"20005","pop":null,"city":"Washington","county":"District of Columbia","state":"District of Columbia","area":0.33,"lat":38.90418,"lon":-77.03137},"geometry":{"type":"Polygon","coordinates":[[[-77.03654,38.90252],[-77.03542,38.91073],[-77.02704,38.91061],[-77.02703,38.89735],[-77.03365,38.89735],[-77.03654,38.90252]]]}},{"type":"Feature","id":"20009","properties":{"zip":"20009","pop":null,"city":"Washington","county":"District of Columbia","state":"District of Columbia","area":1.01,"lat":38.91999,"lon":-77.03763},"geometry":{"type":"Polygon","coordinates":[[[-77.05018,38.92124],[-77.04854,38.92277],[-77.04951,38.92813],[-77.04616,38.92596],[-77.04337,38.92797],[-77.04421,38.92956],[-77.02778,38.92819],[-77.02756,38.9109],[-77.04663,38.91113],[-77.04612,38.91774],[-77.05018,38.92124]]]}},{"type":"Feature","id":"20015","properties":{"zip":"20015","pop":null,"city":"Washington","county":"District of Columbia","state":"District of Columbia","area":2.71,"lat":38.96663,"lon":-77.05833},"geometry":{"type":"Polygon","coordinates":[[[-77.08856,38.95877],[-77.05166,38.98709],[-77.03986,38.98216],[-77.0446,38.97998],[-77.03986,38.97638],[-77.03989,38.97283],[-77.04441,38.971],[-77.04754,38.96463],[-77.0405,38.95959],[-77.04219,38.95459],[-77.04706,38.94965],[-77.04404,38.94822],[-77.04966,38.94378],[-77.05318,38.95161],[-77.05901,38.95747],[-77.06604,38.95862],[-77.06823,38.95673],[-77.06948,38.95797],[-77.07167,38.95656],[-77.09063,38.95718],[-77.08856,38.95877]]]}},{"type":"Feature","id":"20019","properties":{"zip":"20019","pop":null,"city":"Washington","county":"District of Columbia","state":"District of Columbia","area":4.98,"lat":38.89217,"lon":-76.94215},"geometry":{"type":"Polygon","coordinates":[[[-76.97072,38.88144],[-76.96337,38.88987],[-76.96222,38.8995],[-76.95357,38.91438],[-76.94595,38.91525],[-76.94192,38.91859],[-76.9094,38.89281],[-76.94187,38.86744],[-76.94082,38.86944],[-76.94864,38.87227],[-76.96903,38.87431],[-76.96452,38.8812],[-76.97176,38.88022],[-76.97072,38.88144]]]}},{"type":"Feature","id":"20230","properties":{"zip":"20230","pop":null,"city":"Washington","county":"District of Columbia","state":"District of Columbia","area":0.07,"lat":38.89377,"lon":-77.0357},"geometry":{"type":"Polygon","coordinates":[[[-77.03946,38.8954],[-77.03195,38.8955],[-77.03196,38.89209],[-77.03948,38.8921],[-77.03946,38.8954]]]}},{"type":"Feature","id":"20260","properties":{"zip":"20260","pop":null,"city":"Washington","county":"District of Columbia","state":"District of Columbia","area":0.02,"lat":38.88355,"lon":-77.02504},"geometry":{"type":"Polygon","coordinates":[[[-77.02606,38.88485],[-77.02402,38.88484],[-77.02399,38.88226],[-77.02606,38.88225],[-77.02606,38.88485]]]}},{"type":"Feature","id":"20427","properties":{"zip":"20427","pop":null,"city":"Washington","county":"District of Columbia","state":"District of Columbia","area":0.01,"lat":38.90207,"lon":-77.04755},"geometry":{"type":"Polygon","coordinates":[[[-77.04883,38.90247],[-77.04665,38.90253],[-77.04665,38.90132],[-77.04883,38.90209],[-77.04883,38.90247]]]}},{"type":"Feature","id":"20520","properties":{"zip":"20520","pop":null,"city":"Washington","county":"District of Columbia","state":"District of Columbia","area":0.02,"lat":38.89459,"lon":-77.0485},"geometry":{"type":"Polygon","coordinates":[[[-77.05012,38.89602],[-77.04668,38.89532],[-77.04667,38.8935],[-77.05014,38.8935],[-77.05012,38.89602]]]}},{"type":"Feature","id":"20001","properties":{"zip":"20001","pop":null,"city":"Washington","county":"District of Columbia","state":"District of Columbia","area":1.68,"lat":38.91037,"lon":-77.01824},"geometry":{"type":"Polygon","coordinates":[[[-77.02758,38.90964],[-77.02751,38.92871],[-77.01805,38.92961],[-77.01781,38.92794],[-77.01214,38.92628],[-77.01215,38.92238],[-77.00897,38.92237],[-77.0093,38.90724],[-77.01101,38.90564],[-77.00907,38.90373],[-77.0095,38.89479],[-77.00718,38.89479],[-77.00817,38.89203],[-77.0199,38.89276],[-77.0199,38.89734],[-77.02808,38.89831],[-77.02758,38.90964]],[[-77.02252,38.92418],[-77.0219,38.91899],[-77.01682,38.92048],[-77.02045,38.92753],[-77.02252,38.92418]]]}},{"type":"Feature","id":"20220","properties":{"zip":"20220","pop":null,"city":"Washington","county":"District of Columbia","state":"District of Columbia","area":0.01,"lat":38.89713,"lon":-77.03436},"geometry":{"type":"Polygon","coordinates":[[[-77.03512,38.89876],[-77.03364,38.89878],[-77.03365,38.89548],[-77.03502,38.89544],[-77.03512,38.89876]]]}},{"type":"Feature","id":"20016","properties":{"zip":"20016","pop":null,"city":"Washington","county":"District of Columbia","state":"District of Columbia","area":3.56,"lat":38.93838,"lon":-77.09128},"geometry":{"type":"Polygon","coordinates":[[[-77.11976,38.93434],[-77.09063,38.95718],[-77.07459,38.95702],[-77.07152,38.9521],[-77.07242,38.93816],[-77.0668,38.93908],[-77.06638,38.92753],[-77.07705,38.928],[-77.08,38.92597],[-77.08262,38.92786],[-77.09372,38.9273],[-77.0965,38.92582],[-77.09858,38.92115],[-77.1054,38.91719],[-77.11976,38.93434]]]}},{"type":"Feature","id":"20037","properties":{"zip":"20037","pop":null,"city":"Washington","county":"District of Columbia","state":"District of Columbia","area":0.77,"lat":38.89214,"lon":-77.0536},"geometry":{"type":"MultiPolygon","coordinates":[[[[-77.04884,38.89833],[-77.04666,38.89832],[-77.04666,38.89692],[-77.04885,38.89736],[-77.04884,38.89833]]],[[[-77.06466,38.89184],[-77.05322,38.89408],[-77.05314,38.89868],[-77.05601,38.89761],[-77.05789,38.90228],[-77.05339,38.90856],[-77.04714,38.9101],[-77.04664,38.90725],[-77.04881,38.90527],[-77.04665,38.90563],[-77.04665,38.90253],[-77.04883,38.90209],[-77.04665,38.90069],[-77.05013,38.9007],[-77.05014,38.89736],[-77.04802,38.89602],[-77.05012,38.89602],[-77.05014,38.8935],[-77.04797,38.8921],[-77.05119,38.88888],[-77.05849,38.88625],[-77.04659,38.87619],[-77.0463,38.87131],[-77.0491,38.87071],[-77.0541,38.87911],[-77.05825,38.88007],[-77.06466,38.89184]]]]}},{"type":"Feature","id":"20020","properties":{"zip":"20020","pop":null,"city":"Washington","county":"District of Columbia","state":"District of Columbia","area":3.66,"lat":38.86242,"lon":-76.9747},"geometry":{"type":"Polygon","coordinates":[[[-77.00342,38.87088],[-76.99246,38.87013],[-76.96771,38.88148],[-76.96452,38.8812],[-76.96903,38.87431],[-76.96104,38.8746],[-76.94082,38.86944],[-76.97294,38.84307],[-76.9779,38.84179],[-76.98058,38.84721],[-76.98909,38.84459],[-76.98505,38.84896],[-77.00298,38.86012],[-77.00227,38.86739],[-77.00546,38.86871],[-77.00342,38.87088]]]}},{"type":"Feature","id":"20036","properties":{"zip":"20036","pop":null,"city":"Washington","county":"District of Columbia","state":"District of Columbia","area":0.24,"lat":38.90713,"lon":-77.0413},"geometry":{"type":"Polygon","coordinates":[[[-77.04881,38.90527],[-77.04664,38.90725],[-77.04663,38.91113],[-77.03542,38.91073],[-77.03654,38.90252],[-77.04346,38.90374],[-77.0449,38.90252],[-77.04665,38.90563],[-77.04881,38.90527]]]}},{"type":"Feature","id":"20566","properties":{"zip":"20566","pop":null,"city":"Washington","county":"District of Columbia","state":"District of Columbia","area":0.05,"lat":38.89629,"lon":-77.05507},"geometry":{"type":"Polygon","coordinates":[[[-77.05789,38.90228],[-77.05601,38.89761],[-77.05314,38.89868],[-77.05322,38.89408],[-77.05592,38.893],[-77.05789,38.90228]]]}}]}