{"type":"FeatureCollection","name":"zctas_44","features":[{"type":"Feature","id":"02876","properties":{"zip":"02876","pop":null,"city":"","county":"Providence","state":"Rhode Island","area":0.16,"lat":41.9979,"lon":-71.58374},"geometry":{"type":"Polygon","coordinates":[[[-71.59526,41.99442],[-71.5947,41.99529],[-71.59062,41.99577],[-71.5902,41.99813],[-71.59208,41.99951],[-71.5886,42.00144],[-71.58811,41.99723],[-71.58096,42.00043],[-71.57335,42.00017],[-71.57452,42.00162],[-71.5684,41.99887],[-71.57895,41.99914],[-71.57762,41.99579],[-71.58095,41.9981],[-71.57978,41.99929],[-71.58533,41.99481],[-71.59526,41.99442]]]}},{"type":"Feature","id":"02823","properties":{"zip":"02823","pop":null,"city":"Cranston","county":"Providence","state":"Rhode Island","area":0.15,"lat":41.73366,"lon":-71.54479},"geometry":{"type":"Polygon","coordinates":[[[-71.55306,41.73495],[-71.54797,41.73387],[-71.54868,41.73632],[-71.54327,41.7388],[-71.54196,41.73358],[-71.53932,41.73405],[-71.53782,41.73159],[-71.54972,41.72999],[-71.5491,41.73369],[-71.55306,41.73495]]]}},{"type":"Feature","id":"02863","properties":{"zip":"02863","pop":null,"city":"Central Falls","county":"Providence","state":"Rhode Island","area":0.94,"lat":41.88995,"lon":-71.39345},"geometry":{"type":"Polygon","coordinates":[[[-71.40705,41.89191],[-71.40469,41.89478],[-71.38635,41.89964],[-71.3817,41.89706],[-71.38309,41.88987],[-71.38022,41.88793],[-71.38101,41.88407],[-71.40371,41.88106],[-71.40705,41.89191]]]}},{"type":"Feature","id":"02916","properties":{"zip":"02916","pop":null,"city":"East Providence","county":"Providence","state":"Rhode Island","area":2.35,"lat":41.84422,"lon":-71.35255},"geometry":{"type":"Polygon","coordinates":[[[-71.37225,41.84334],[-71.36366,41.85335],[-71.3658,41.85834],[-71.33449,41.86124],[-71.3422,41.8448],[-71.3352,41.8355],[-71.34589,41.82589],[-71.35015,41.82589],[-71.35107,41.83085],[-71.35239,41.82894],[-71.35601,41.82991],[-71.35762,41.8273],[-71.36204,41.83083],[-71.36796,41.83168],[-71.36224,41.8355],[-71.36514,41.83864],[-71.373,41.83807],[-71.37225,41.84334]]]}},{"type":"Feature","id":"02858","properties":{"zip":"02858","pop":null,"city":"","county":"Providence","state":"Rhode Island","area":0.5,"lat":41.96349,"lon":-71.64924},"geometry":{"type":"Polygon","coordinates":[[[-71.66406,41.96881],[-71.65932,41.96978],[-71.65925,41.96671],[-71.65248,41.96779],[-71.64863,41.96486],[-71.64738,41.96605],[-71.65227,41.96941],[-71.64831,41.97235],[-71.64418,41.96325],[-71.63223,41.96867],[-71.64137,41.95994],[-71.64421,41.95426],[-71.64572,41.95532],[-71.64711,41.95331],[-71.65251,41.96274],[-71.65886,41.96285],[-71.6647,41.96692],[-71.66406,41.96881]]]}},{"type":"Feature","id":"02815","properties":{"zip":"02815","pop":null,"city":"Clayville","county":"Providence","state":"Rhode Island","area":2.1,"lat":41.77722,"lon":-71.66186},"geometry":{"type":"Polygon","coordinates":[[[-71.67975,41.7926],[-71.67327,41.79316],[-71.66511,41.78992],[-71.65705,41.79074],[-71.65281,41.7884],[-71.65309,41.78674],[-71.66238,41.78573],[-71.6453,41.77962],[-71.64027,41.78182],[-71.63712,41.77724],[-71.63953,41.77673],[-71.63284,41.77003],[-71.64508,41.7711],[-71.66502,41.7656],[-71.6679,41.75762],[-71.67177,41.75786],[-71.67163,41.75424],[-71.67335,41.7549],[-71.67196,41.76826],[-71.67589,41.77036],[-71.67975,41.7926]]]}},{"type":"Feature","id":"02824","properties":{"zip":"02824","pop":null,"city":"","county":"Providence","state":"Rhode Island","area":0.14,"lat":41.99932,"lon":-71.56325},"geometry":{"type":"Polygon","coordinates":[[[-71.5684,41.99887],[-71.56588,42.00386],[-71.56001,42.00107],[-71.55703,41.99665],[-71.56526,41.99615],[-71.5684,41.99887]]]}},{"type":"Feature","id":"02841","properties":{"zip":"02841","pop":null,"city":"Newport","county":"Newport","state":"Rhode Island","area":0.29,"lat":41.51293,"lon":-71.32529},"geometry":{"type":"Polygon","coordinates":[[[-71.32931,41.51383],[-71.32604,41.51431],[-71.32545,41.51728],[-71.32803,41.51885],[-71.32713,41.52159],[-71.32399,41.52241],[-71.3209,41.51949],[-71.31745,41.51966],[-71.32185,41.51779],[-71.31947,41.51316],[-71.32452,41.51194],[-71.32526,41.50654],[-71.32321,41.50572],[-71.32205,41.49949],[-71.32313,41.50309],[-71.3278,41.50426],[-71.33069,41.5077],[-71.32931,41.51383]]]}},{"type":"Feature","id":"02918","properties":{"zip":"02918","pop":null,"city":"Providence","county":"Providence","state":"Rhode Island","area":0.11,"lat":41.84376,"lon":-71.43493},"geometry":{"type":"Polygon","coordinates":[[[-71.43971,41.84573],[-71.43264,41.84679],[-71.43304,41.84446],[-71.42928,41.84416],[-71.42972,41.84112],[-71.43858,41.84212],[-71.4405,41.84309],[-71.43971,41.84573]]]}},{"type":"Feature","id":"02829","properties":{"zip":"02829","pop":null,"city":"Harmony","county":"Providence","state":"Rhode Island","area":0.45,"lat":41.89393,"lon":-71.59141},"geometry":{"type":"Polygon","coordinates":[[[-71.59926,41.89794],[-71.59418,41.90199],[-71.58189,41.89467],[-71.58475,41.89178],[-71.58217,41.88359],[-71.5876,41.88946],[-71.59151,41.88711],[-71.59428,41.88778],[-71.60162,41.89706],[-71.59926,41.89794]]]}},{"type":"Feature","id":"02906","properties":{"zip":"02906","pop":null,"city":"Providence","county":"Providence","state":"Rhode Island","area":2.82,"lat":41.8397,"lon":-71.38963},"geometry":{"type":"Polygon","coordinates":[[[-71.40981,41.83509],[-71.40439,41.83703],[-71.40953,41.83834],[-71.40303,41.84998],[-71.4008,41.84994],[-71.40267,41.85057],[-71.39946,41.85679],[-71.37502,41.85745],[-71.37233,41.85055],[-71.37359,41.83249],[-71.38557,41.819],[-71.3919,41.82096],[-71.4011,41.81977],[-71.40628,41.82525],[-71.40619,41.82603],[-71.40401,41.82374],[-71.3992,41.82302],[-71.39723,41.82758],[-71.40054,41.82728],[-71.401,41.83084],[-71.40326,41.83071],[-71.40318,41.82786],[-71.40668,41.8276],[-71.40981,41.83509]],[[-71.39781,41.82949],[-71.39471,41.83049],[-71.39431,41.82895],[-71.39217,41.82937],[-71.3943,41.83349],[-71.39975,41.83155],[-71.39781,41.82949]],[[-71.39702,41.82319],[-71.39531,41.8234],[-71.39636,41.82506],[-71.39726,41.82505],[-71.39702,41.82319]]]}},{"type":"Feature","id":"02842","properties":{"zip":"02842","pop":null,"city":"Newport East","county":"Newport","state":"Rhode Island","area":9.77,"lat":41.5175,"lon":-71.27639},"geometry":{"type":"Polygon","coordinates":[[[-71.31275,41.53238],[-71.30735,41.54305],[-71.3104,41.54716],[-71.30161,41.56203],[-71.26566,41.53827],[-71.23345,41.51407],[-71.24074,41.50555],[-71.24074,41.5017],[-71.24799,41.49029],[-71.24426,41.48574],[-71.23744,41.48571],[-71.24043,41.47615],[-71.24737,41.473],[-71.24586,41.48164],[-71.25208,41.48592],[-71.26479,41.4889],[-71.26764,41.48821],[-71.26886,41.4847],[-71.27486,41.47985],[-71.27664,41.48004],[-71.28231,41.48829],[-71.28567,41.48897],[-71.30996,41.51768],[-71.31178,41.5177],[-71.3127,41.5214],[-71.31021,41.52661],[-71.31275,41.53238]]]}},{"type":"Feature","id":"02864","properties":{"zip":"02864","pop":null,"city":"Valley Falls","county":"Providence","state":"Rhode Island","area":20.96,"lat":41.97029,"lon":-71.41979},"geometry":{"type":"Polygon","coordinates":[[[-71.48736,41.97908],[-71.45989,42.00757],[-71.45822,42.01621],[-71.45412,42.01782],[-71.3814,42.0188],[-71.3817,41.89706],[-71.38827,41.89981],[-71.3943,41.89765],[-71.40067,41.90184],[-71.39716,41.91036],[-71.39876,41.91197],[-71.40539,41.911],[-71.4217,41.92215],[-71.42833,41.92354],[-71.43094,41.92699],[-71.43095,41.93464],[-71.44289,41.94766],[-71.45058,41.94957],[-71.45522,41.95563],[-71.46178,41.95741],[-71.4649,41.9691],[-71.47414,41.97262],[-71.47877,41.97718],[-71.48736,41.97908]]]}},{"type":"Feature","id":"02806","properties":{"zip":"02806","pop":null,"city":"","county":"Bristol","state":"Rhode Island","area":7.71,"lat":41.74437,"lon":-71.31459},"geometry":{"type":"Polygon","coordinates":[[[-71.3539,41.7513],[-71.31792,41.77616],[-71.2844,41.76201],[-71.28659,41.7424],[-71.2898,41.73381],[-71.28729,41.7285],[-71.28929,41.716],[-71.29534,41.70721],[-71.2988,41.71101],[-71.30145,41.70644],[-71.3038,41.70657],[-71.30798,41.71276],[-71.30576,41.71866],[-71.30713,41.72165],[-71.32419,41.72538],[-71.33946,41.72484],[-71.34112,41.73477],[-71.34445,41.73619],[-71.35229,41.74506],[-71.35582,41.74506],[-71.3539,41.7513]]]}},{"type":"Feature","id":"02888","properties":{"zip":"02888","pop":null,"city":"Warwick","county":"Kent","state":"Rhode Island","area":4.62,"lat":41.74896,"lon":-71.41161},"geometry":{"type":"Polygon","coordinates":[[[-71.44654,41.74889],[-71.44062,41.75215],[-71.44116,41.75471],[-71.43912,41.75639],[-71.44057,41.75791],[-71.43377,41.76144],[-71.43297,41.75934],[-71.4198,41.76479],[-71.41908,41.76188],[-71.41438,41.76295],[-71.4107,41.76655],[-71.40139,41.76655],[-71.39958,41.76832],[-71.39412,41.76404],[-71.38852,41.76378],[-71.38566,41.75842],[-71.38105,41.7557],[-71.38057,41.74595],[-71.37606,41.74417],[-71.38081,41.73885],[-71.38069,41.73618],[-71.38255,41.73591],[-71.38423,41.73949],[-71.39003,41.73739],[-71.38921,41.73392],[-71.41373,41.7353],[-71.41586,41.73726],[-71.42735,41.73362],[-71.42715,41.73591],[-71.43095,41.7361],[-71.43228,41.73339],[-71.4366,41.73226],[-71.44112,41.73396],[-71.4399,41.73732],[-71.44316,41.73743],[-71.44654,41.74889]]]}},{"type":"Feature","id":"02836","properties":{"zip":"02836","pop":null,"city":"","county":"Washington","state":"Rhode Island","area":0.2,"lat":41.45109,"lon":-71.62059},"geometry":{"type":"Polygon","coordinates":[[[-71.62701,41.44669],[-71.62381,41.44955],[-71.62472,41.45285],[-71.61901,41.45446],[-71.62015,41.46167],[-71.61847,41.46219],[-71.61734,41.45264],[-71.61619,41.45029],[-71.61413,41.45071],[-71.61838,41.44667],[-71.62687,41.44523],[-71.62701,41.44669]]]}},{"type":"Feature","id":"02889","properties":{"zip":"02889","pop":null,"city":"Warwick","county":"Kent","state":"Rhode Island","area":6.99,"lat":41.70599,"lon":-71.39089},"geometry":{"type":"MultiPolygon","coordinates":[[[[-71.42671,41.70439],[-71.41762,41.70559],[-71.4193,41.70799],[-71.41789,41.71184],[-71.41313,41.71299],[-71.41723,41.72237],[-71.42098,41.72457],[-71.42024,41.72752],[-71.41473,41.72899],[-71.41658,41.73315],[-71.41373,41.7353],[-71.38921,41.73392],[-71.39003,41.73739],[-71.38423,41.73949],[-71.38255,41.73591],[-71.38069,41.73618],[-71.38105,41.72732],[-71.37653,41.72165],[-71.36988,41.71828],[-71.35728,41.71819],[-71.35728,41.71659],[-71.36572,41.71162],[-71.36441,41.7047],[-71.3656,41.6937],[-71.36275,41.69193],[-71.36489,41.68838],[-71.37154,41.68536],[-71.37299,41.67258],[-71.37791,41.66665],[-71.38988,41.6719],[-71.39078,41.68063],[-71.38943,41.68342],[-71.40131,41.68353],[-71.40715,41.69449],[-71.4165,41.6996],[-71.42237,41.69783],[-71.42417,41.69921],[-71.4243,41.70324],[-71.42671,41.70439]]],[[[-71.42909,41.70018],[-71.42963,41.7024],[-71.42629,41.70294],[-71.42516,41.69924],[-71.42909,41.70018]]]]}},{"type":"Feature","id":"02818","properties":{"zip":"02818","pop":null,"city":"Warwick","county":"Kent","state":"Rhode Island","area":16.39,"lat":41.64211,"lon":-71.49313},"geometry":{"type":"Polygon","coordinates":[[[-71.54711,41.66185],[-71.49922,41.66295],[-71.5,41.67739],[-71.4917,41.67679],[-71.49248,41.67978],[-71.48426,41.67966],[-71.48076,41.68394],[-71.48208,41.68175],[-71.47877,41.67686],[-71.47875,41.67116],[-71.47556,41.6699],[-71.46994,41.67007],[-71.46935,41.67318],[-71.46783,41.67121],[-71.45802,41.67043],[-71.45895,41.67809],[-71.44829,41.67943],[-71.44427,41.67365],[-71.44702,41.67122],[-71.44625,41.66631],[-71.44354,41.66302],[-71.44015,41.66684],[-71.43475,41.66626],[-71.42609,41.67048],[-71.41765,41.6653],[-71.40862,41.66317],[-71.40888,41.65384],[-71.42388,41.65389],[-71.44251,41.64582],[-71.44199,41.64328],[-71.44929,41.63673],[-71.44889,41.63253],[-71.45137,41.62946],[-71.45912,41.63795],[-71.46235,41.63838],[-71.46973,41.6345],[-71.47253,41.63208],[-71.47132,41.62908],[-71.48248,41.62358],[-71.48744,41.61691],[-71.48443,41.60259],[-71.54481,41.60199],[-71.54711,41.66185]]]}},{"type":"Feature","id":"02861","properties":{"zip":"02861","pop":null,"city":"Pawtucket","county":"Providence","state":"Rhode Island","area":2.77,"lat":41.87886,"lon":-71.35263},"geometry":{"type":"Polygon","coordinates":[[[-71.37376,41.8944],[-71.35483,41.89781],[-71.35454,41.89652],[-71.3387,41.8984],[-71.3408,41.8816],[-71.33449,41.86124],[-71.36374,41.85854],[-71.36491,41.88049],[-71.37376,41.8944]]]}},{"type":"Feature","id":"02912","properties":{"zip":"02912","pop":null,"city":"Providence","county":"Providence","state":"Rhode Island","area":0.14,"lat":41.82805,"lon":-71.3993},"geometry":{"type":"MultiPolygon","coordinates":[[[[-71.39726,41.82505],[-71.39542,41.82429],[-71.39531,41.8234],[-71.39702,41.82319],[-71.39726,41.82505]]],[[[-71.39975,41.83155],[-71.3943,41.83349],[-71.39217,41.82937],[-71.39781,41.82949],[-71.39975,41.83155]]],[[[-71.40683,41.826],[-71.40318,41.82786],[-71.40326,41.83071],[-71.401,41.83084],[-71.40054,41.82728],[-71.39723,41.82758],[-71.3992,41.82302],[-71.40683,41.826]]]]}},{"type":"Feature","id":"02830","properties":{"zip":"02830","pop":null,"city":"Harrisville","county":"Providence","state":"Rhode Island","area":15.47,"lat":41.98028,"lon":-71.64844},"geometry":{"type":"Polygon","coordinates":[[[-71.72494,42.01069],[-71.60673,42.01341],[-71.59366,41.95084],[-71.59082,41.94949],[-71.58384,41.95062],[-71.58518,41.94855],[-71.5819,41.93956],[-71.58248,41.93573],[-71.59031,41.93366],[-71.61356,41.9329],[-71.61283,41.94018],[-71.61612,41.94606],[-71.619,41.94585],[-71.61818,41.94963],[-71.62582,41.95147],[-71.62607,41.95393],[-71.6427,41.95102],[-71.64711,41.95331],[-71.64572,41.95532],[-71.64421,41.95426],[-71.64137,41.95994],[-71.63223,41.96867],[-71.62233,41.9709],[-71.62158,41.9726],[-71.62448,41.97391],[-71.615,41.97827],[-71.61869,41.98302],[-71.62539,41.98621],[-71.62828,41.98146],[-71.62911,41.98419],[-71.6388,41.98239],[-71.64098,41.98365],[-71.64255,41.98998],[-71.65962,41.99325],[-71.66629,42.00217],[-71.67658,41.99106],[-71.67068,41.99227],[-71.66518,41.98637],[-71.666,41.98114],[-71.66401,41.98239],[-71.66607,41.97824],[-71.66088,41.98088],[-71.64517,41.98173],[-71.64185,41.97962],[-71.64564,41.9761],[-71.6407,41.97081],[-71.64484,41.96599],[-71.64831,41.97235],[-71.65227,41.96941],[-71.64738,41.96605],[-71.64863,41.96486],[-71.65248,41.96779],[-71.65925,41.96671],[-71.65932,41.96978],[-71.66406,41.96881],[-71.6647,41.96692],[-71.65886,41.96285],[-71.65251,41.96274],[-71.65007,41.96034],[-71.65108,41.95846],[-71.65367,41.96037],[-71.66059,41.9582],[-71.66503,41.96182],[-71.6689,41.96211],[-71.66507,41.95697],[-71.66681,41.95172],[-71.67061,41.94964],[-71.67356,41.94372],[-71.68,41.94738],[-71.68535,41.94791],[-71.68922,41.95046],[-71.688,41.95557],[-71.68931,41.96115],[-71.6932,41.96332],[-71.691,41.96509],[-71.69955,41.96797],[-71.69724,41.96869],[-71.69715,41.97344],[-71.70503,41.99168],[-71.71218,41.99954],[-71.7187,41.99353],[-71.72494,42.01069]]]}},{"type":"Feature","id":"02909","properties":{"zip":"02909","pop":null,"city":"Providence","county":"Providence","state":"Rhode Island","area":2.34,"lat":41.8181,"lon":-71.45059},"geometry":{"type":"Polygon","coordinates":[[[-71.47172,41.83617],[-71.466,41.837],[-71.4645,41.84091],[-71.4615,41.83402],[-71.4565,41.83211],[-71.45363,41.83582],[-71.4522,41.82524],[-71.43831,41.82451],[-71.43849,41.82503],[-71.4318,41.82806],[-71.4286,41.82856],[-71.43372,41.82716],[-71.43309,41.82504],[-71.42796,41.82703],[-71.42588,41.82589],[-71.4286,41.82556],[-71.43364,41.82422],[-71.42989,41.8238],[-71.4266,41.81932],[-71.42625,41.81713],[-71.42841,41.81692],[-71.42722,41.81446],[-71.43994,41.80342],[-71.44222,41.8072],[-71.46009,41.8044],[-71.46492,41.80587],[-71.46917,41.80486],[-71.4668,41.8078],[-71.4687,41.8106],[-71.46655,41.81074],[-71.46935,41.81812],[-71.47072,41.81791],[-71.47088,41.82194],[-71.45947,41.82264],[-71.46242,41.82469],[-71.46477,41.83105],[-71.47243,41.83418],[-71.47172,41.83617]]]}},{"type":"Feature","id":"02826","properties":{"zip":"02826","pop":null,"city":"","county":"Providence","state":"Rhode Island","area":1.93,"lat":41.9823,"lon":-71.64485},"geometry":{"type":"Polygon","coordinates":[[[-71.67693,41.99178],[-71.66629,42.00217],[-71.65962,41.99325],[-71.64255,41.98998],[-71.64098,41.98365],[-71.6388,41.98239],[-71.62911,41.98419],[-71.62828,41.98146],[-71.62539,41.98621],[-71.61869,41.98302],[-71.615,41.97827],[-71.62448,41.97391],[-71.62158,41.9726],[-71.62233,41.9709],[-71.63569,41.96767],[-71.64418,41.96325],[-71.64555,41.96525],[-71.6407,41.97081],[-71.64564,41.9761],[-71.64185,41.97962],[-71.64721,41.98234],[-71.65275,41.98033],[-71.66088,41.98088],[-71.66607,41.97824],[-71.66401,41.98239],[-71.666,41.98114],[-71.66518,41.98637],[-71.67068,41.99227],[-71.67693,41.99178]]]}},{"type":"Feature","id":"02812","properties":{"zip":"02812","pop":null,"city":"Carolina","county":"Washington","state":"Rhode Island","area":3.0,"lat":41.47636,"lon":-71.66112},"geometry":{"type":"Polygon","coordinates":[[[-71.69028,41.46846],[-71.68604,41.4739],[-71.68472,41.47982],[-71.6819,41.48179],[-71.67587,41.47791],[-71.66688,41.49149],[-71.66425,41.49307],[-71.65633,41.49244],[-71.65774,41.4936],[-71.65498,41.50064],[-71.65243,41.50118],[-71.64758,41.49514],[-71.64906,41.49119],[-71.64205,41.48387],[-71.6452,41.46545],[-71.65132,41.45526],[-71.65523,41.45914],[-71.66434,41.45842],[-71.66948,41.46078],[-71.66862,41.46599],[-71.67677,41.46965],[-71.68327,41.46679],[-71.69013,41.46641],[-71.69028,41.46846]]]}},{"type":"Feature","id":"02874","properties":{"zip":"02874","pop":null,"city":"","county":"Washington","state":"Rhode Island","area":12.14,"lat":41.51546,"lon":-71.46942},"geometry":{"type":"Polygon","coordinates":[[[-71.51975,41.52439],[-71.51844,41.52766],[-71.51949,41.54442],[-71.49803,41.53861],[-71.49733,41.54177],[-71.49319,41.54564],[-71.49168,41.54484],[-71.49284,41.53891],[-71.4897,41.53956],[-71.48927,41.54215],[-71.48453,41.53802],[-71.47424,41.53485],[-71.47587,41.52884],[-71.47329,41.52983],[-71.47035,41.52753],[-71.47303,41.52807],[-71.47371,41.52592],[-71.47797,41.52514],[-71.47349,41.52079],[-71.46512,41.52257],[-71.46599,41.53006],[-71.45564,41.53098],[-71.44576,41.52911],[-71.44417,41.53252],[-71.44549,41.53653],[-71.43863,41.53556],[-71.43877,41.53876],[-71.43632,41.53729],[-71.43768,41.53906],[-71.43425,41.54554],[-71.43208,41.54566],[-71.43249,41.54755],[-71.4374,41.5492],[-71.43866,41.55098],[-71.43183,41.54773],[-71.42951,41.54564],[-71.42478,41.54943],[-71.42336,41.54818],[-71.42667,41.54356],[-71.42312,41.53875],[-71.41765,41.53626],[-71.41813,41.53217],[-71.41551,41.52986],[-71.41494,41.5163],[-71.42124,41.49543],[-71.43057,41.49521],[-71.43032,41.49236],[-71.43805,41.49205],[-71.43772,41.49512],[-71.44769,41.49486],[-71.44705,41.48833],[-71.45547,41.48775],[-71.45415,41.49193],[-71.45642,41.49477],[-71.49164,41.49051],[-71.50048,41.49469],[-71.50393,41.49032],[-71.50606,41.48247],[-71.50812,41.48218],[-71.50984,41.48405],[-71.51213,41.50081],[-71.5178,41.50183],[-71.51786,41.5091],[-71.52645,41.51108],[-71.51975,41.52439]]]}},{"type":"Feature","id":"02886","properties":{"zip":"02886","pop":null,"city":"Warwick","county":"Kent","state":"Rhode Island","area":12.3,"lat":41.70506,"lon":-71.45909},"geometry":{"type":"Polygon","coordinates":[[[-71.51891,41.6959],[-71.51263,41.70679],[-71.50488,41.71139],[-71.49712,41.71317],[-71.49289,41.71783],[-71.49054,41.71752],[-71.49028,41.72123],[-71.4858,41.72613],[-71.48391,41.7316],[-71.45534,41.73237],[-71.45285,41.73434],[-71.45374,41.73743],[-71.45128,41.7397],[-71.44468,41.74016],[-71.44325,41.74198],[-71.44316,41.73743],[-71.4399,41.73732],[-71.44112,41.73396],[-71.43945,41.73284],[-71.43228,41.73339],[-71.43095,41.7361],[-71.42715,41.73591],[-71.42735,41.73362],[-71.42085,41.73465],[-71.42067,41.73689],[-71.41586,41.73726],[-71.41354,41.73508],[-71.41658,41.73315],[-71.41473,41.72899],[-71.42024,41.72752],[-71.42098,41.72457],[-71.41723,41.72237],[-71.41313,41.71299],[-71.41789,41.71184],[-71.4193,41.70799],[-71.41762,41.70559],[-71.42671,41.70439],[-71.4243,41.70324],[-71.42417,41.69921],[-71.42237,41.69783],[-71.4165,41.6996],[-71.40715,41.69449],[-71.40131,41.68353],[-71.44134,41.68645],[-71.44308,41.6883],[-71.4419,41.69002],[-71.44592,41.69114],[-71.4502,41.68646],[-71.449,41.67853],[-71.45895,41.67809],[-71.45802,41.67043],[-71.46783,41.67121],[-71.46935,41.67318],[-71.46994,41.67007],[-71.47556,41.6699],[-71.47875,41.67116],[-71.47877,41.67686],[-71.48208,41.68175],[-71.48076,41.68394],[-71.48426,41.67966],[-71.49248,41.67978],[-71.4917,41.67679],[-71.49799,41.67674],[-71.5,41.67739],[-71.50168,41.69647],[-71.51891,41.6959]],[[-71.42995,41.70007],[-71.4255,41.69851],[-71.42516,41.69924],[-71.42629,41.70294],[-71.42963,41.7024],[-71.42995,41.70007]]]}},{"type":"Feature","id":"02903","properties":{"zip":"02903","pop":null,"city":"Providence","county":"Providence","state":"Rhode Island","area":1.57,"lat":41.81912,"lon":-71.40992},"geometry":{"type":"Polygon","coordinates":[[[-71.43372,41.82716],[-71.42439,41.8291],[-71.41822,41.82774],[-71.41745,41.83201],[-71.41063,41.83153],[-71.40481,41.82772],[-71.40683,41.826],[-71.4011,41.81977],[-71.3919,41.82096],[-71.38557,41.819],[-71.38708,41.81637],[-71.39288,41.81512],[-71.39526,41.81167],[-71.3935,41.8071],[-71.40185,41.80404],[-71.40339,41.80749],[-71.40724,41.80655],[-71.40718,41.81082],[-71.41121,41.81023],[-71.41232,41.81328],[-71.4221,41.8156],[-71.4259,41.81454],[-71.42233,41.81741],[-71.42625,41.81713],[-71.42989,41.8238],[-71.43364,41.82422],[-71.42593,41.82668],[-71.43309,41.82504],[-71.43372,41.82716]]]}},{"type":"Feature","id":"02921","properties":{"zip":"02921","pop":null,"city":"Cranston","county":"Providence","state":"Rhode Island","area":9.8,"lat":41.76303,"lon":-71.51574},"geometry":{"type":"Polygon","coordinates":[[[-71.55929,41.78934],[-71.53503,41.7933],[-71.51384,41.78842],[-71.49501,41.79126],[-71.49669,41.79022],[-71.49658,41.78673],[-71.49197,41.78321],[-71.48688,41.78278],[-71.47852,41.78547],[-71.47956,41.78074],[-71.47533,41.78007],[-71.48079,41.77821],[-71.48204,41.76753],[-71.47912,41.76709],[-71.47953,41.75885],[-71.47703,41.75693],[-71.48026,41.75557],[-71.48854,41.74087],[-71.48903,41.73496],[-71.49375,41.7313],[-71.5408,41.73013],[-71.53558,41.73492],[-71.53467,41.74025],[-71.5383,41.74061],[-71.54012,41.74434],[-71.54076,41.751],[-71.5374,41.75288],[-71.53836,41.75663],[-71.5496,41.756],[-71.5473,41.76266],[-71.53775,41.76487],[-71.53881,41.76727],[-71.54326,41.76738],[-71.54844,41.7703],[-71.55239,41.77672],[-71.55672,41.77504],[-71.55929,41.78934]]]}},{"type":"Feature","id":"02908","properties":{"zip":"02908","pop":null,"city":"Providence","county":"Providence","state":"Rhode Island","area":2.57,"lat":41.83852,"lon":-71.43924},"geometry":{"type":"Polygon","coordinates":[[[-71.46695,41.84048],[-71.4586,41.84518],[-71.45591,41.8479],[-71.45614,41.85073],[-71.44842,41.85226],[-71.4499,41.8501],[-71.44239,41.85105],[-71.43916,41.8541],[-71.43381,41.85023],[-71.42883,41.85368],[-71.42065,41.84528],[-71.41229,41.83147],[-71.41745,41.83201],[-71.41822,41.82774],[-71.4265,41.82896],[-71.43831,41.82451],[-71.4522,41.82524],[-71.45363,41.83582],[-71.4565,41.83211],[-71.45951,41.83315],[-71.46385,41.83714],[-71.4645,41.84091],[-71.46609,41.83887],[-71.46695,41.84048]],[[-71.4405,41.84309],[-71.42972,41.84112],[-71.42928,41.84416],[-71.43304,41.84446],[-71.43264,41.84679],[-71.43858,41.84681],[-71.4405,41.84309]]]}},{"type":"Feature","id":"02904","properties":{"zip":"02904","pop":null,"city":"Providence","county":"Providence","state":"Rhode Island","area":3.94,"lat":41.86045,"lon":-71.43538},"geometry":{"type":"Polygon","coordinates":[[[-71.47483,41.87173],[-71.4219,41.8787],[-71.41742,41.85967],[-71.41106,41.85891],[-71.4108,41.85672],[-71.40653,41.85555],[-71.39946,41.85679],[-71.40267,41.85057],[-71.4008,41.84994],[-71.40303,41.84998],[-71.40953,41.83834],[-71.40439,41.83703],[-71.40981,41.83509],[-71.4083,41.83038],[-71.41229,41.83147],[-71.42663,41.85308],[-71.42883,41.85368],[-71.43381,41.85023],[-71.43916,41.8541],[-71.44239,41.85105],[-71.4499,41.8501],[-71.44842,41.85226],[-71.45065,41.85301],[-71.45165,41.85631],[-71.45866,41.85601],[-71.46556,41.86079],[-71.47096,41.85888],[-71.47263,41.861],[-71.4735,41.8596],[-71.47405,41.86265],[-71.47086,41.86659],[-71.47483,41.87173]]]}},{"type":"Feature","id":"02809","properties":{"zip":"02809","pop":null,"city":"","county":"Bristol","state":"Rhode Island","area":7.83,"lat":41.68317,"lon":-71.26935},"geometry":{"type":"Polygon","coordinates":[[[-71.30609,41.67258],[-71.30263,41.68175],[-71.29894,41.68152],[-71.29312,41.68835],[-71.29122,41.70267],[-71.29534,41.70721],[-71.29404,41.71028],[-71.25153,41.71541],[-71.24443,41.70121],[-71.24369,41.69839],[-71.24581,41.69716],[-71.24248,41.68793],[-71.23464,41.67746],[-71.23844,41.66557],[-71.24438,41.66912],[-71.25033,41.66503],[-71.25956,41.6426],[-71.26705,41.64494],[-71.27008,41.65244],[-71.26768,41.6574],[-71.27766,41.66627],[-71.28037,41.67258],[-71.27885,41.67835],[-71.2855,41.68243],[-71.28907,41.67959],[-71.28764,41.67246],[-71.29055,41.66239],[-71.29786,41.65828],[-71.29916,41.64953],[-71.3014,41.64998],[-71.30375,41.65479],[-71.30609,41.67258]]]}},{"type":"Feature","id":"02837","properties":{"zip":"02837","pop":null,"city":"","county":"Newport","state":"Rhode Island","area":16.89,"lat":41.5152,"lon":-71.16471},"geometry":{"type":"Polygon","coordinates":[[[-71.21172,41.54545],[-71.12762,41.56323],[-71.12057,41.49745],[-71.13687,41.49394],[-71.14109,41.48994],[-71.13909,41.48345],[-71.14575,41.48118],[-71.14646,41.4785],[-71.15086,41.47582],[-71.15927,41.47599],[-71.1631,41.47174],[-71.16734,41.4714],[-71.17023,41.46838],[-71.16865,41.46145],[-71.18628,41.46028],[-71.19398,41.4564],[-71.19686,41.46112],[-71.19661,41.46476],[-71.19235,41.46656],[-71.19017,41.48428],[-71.19939,41.49177],[-71.19969,41.49551],[-71.20226,41.49838],[-71.20638,41.49921],[-71.20079,41.51437],[-71.20477,41.5191],[-71.2048,41.52334],[-71.20826,41.52888],[-71.20493,41.5408],[-71.21172,41.54545]]]}},{"type":"Feature","id":"02882","properties":{"zip":"02882","pop":null,"city":"Narragansett Pier","county":"Washington","state":"Rhode Island","area":11.35,"lat":41.42525,"lon":-71.46817},"geometry":{"type":"Polygon","coordinates":[[[-71.51731,41.38214],[-71.51464,41.38479],[-71.50483,41.40751],[-71.5032,41.4176],[-71.4971,41.4175],[-71.4958,41.4226],[-71.49265,41.42243],[-71.49389,41.42754],[-71.48548,41.42523],[-71.48465,41.42762],[-71.48855,41.43019],[-71.48507,41.43153],[-71.48999,41.43171],[-71.46602,41.44256],[-71.45162,41.45316],[-71.45114,41.4616],[-71.4484,41.46873],[-71.4496,41.4724],[-71.44666,41.48908],[-71.44769,41.49486],[-71.43772,41.49512],[-71.43805,41.49205],[-71.43032,41.49236],[-71.43057,41.49521],[-71.42124,41.49543],[-71.42128,41.49723],[-71.42086,41.49321],[-71.4186,41.49213],[-71.42076,41.48998],[-71.42027,41.48358],[-71.41796,41.48207],[-71.4184,41.47265],[-71.42116,41.46989],[-71.42299,41.47268],[-71.43074,41.47064],[-71.43001,41.46114],[-71.42582,41.456],[-71.43026,41.45304],[-71.43209,41.44939],[-71.43114,41.4473],[-71.43813,41.44165],[-71.43833,41.43959],[-71.4406,41.43837],[-71.44279,41.4414],[-71.45584,41.43299],[-71.45482,41.42182],[-71.45264,41.41778],[-71.45297,41.40968],[-71.45621,41.40512],[-71.46233,41.40128],[-71.46374,41.39575],[-71.46898,41.39362],[-71.4842,41.37184],[-71.48087,41.36025],[-71.48922,41.36237],[-71.48896,41.36435],[-71.50293,41.3742],[-71.51425,41.3754],[-71.51731,41.38214]]]}},{"type":"Feature","id":"02860","properties":{"zip":"02860","pop":null,"city":"Pawtucket","county":"Providence","state":"Rhode Island","area":4.18,"lat":41.87019,"lon":-71.38881},"geometry":{"type":"Polygon","coordinates":[[[-71.4219,41.8787],[-71.38101,41.88407],[-71.38022,41.88793],[-71.38309,41.88987],[-71.38153,41.89323],[-71.37376,41.8944],[-71.36491,41.88049],[-71.36374,41.85854],[-71.3658,41.85834],[-71.36366,41.85335],[-71.37226,41.84416],[-71.37233,41.85055],[-71.37502,41.85745],[-71.40653,41.85555],[-71.4108,41.85672],[-71.41106,41.85891],[-71.41742,41.85967],[-71.4219,41.8787]]]}},{"type":"Feature","id":"02920","properties":{"zip":"02920","pop":null,"city":"Cranston","county":"Providence","state":"Rhode Island","area":6.86,"lat":41.76721,"lon":-71.4654},"geometry":{"type":"Polygon","coordinates":[[[-71.49669,41.79022],[-71.49017,41.79139],[-71.48135,41.7965],[-71.46758,41.79811],[-71.46603,41.80375],[-71.46367,41.80505],[-71.44222,41.8072],[-71.44025,41.80371],[-71.44057,41.79375],[-71.44836,41.79326],[-71.45606,41.78715],[-71.45726,41.78397],[-71.45159,41.7766],[-71.45411,41.77393],[-71.45378,41.77072],[-71.44991,41.76872],[-71.43912,41.75639],[-71.44116,41.75471],[-71.44062,41.75215],[-71.44654,41.74889],[-71.44404,41.74335],[-71.44468,41.74016],[-71.45128,41.7397],[-71.45374,41.73743],[-71.45285,41.73434],[-71.45534,41.73237],[-71.49375,41.7313],[-71.48903,41.73496],[-71.48937,41.73896],[-71.48026,41.75557],[-71.4772,41.75639],[-71.47953,41.75885],[-71.47912,41.76709],[-71.48204,41.76753],[-71.48208,41.76929],[-71.48079,41.77821],[-71.47533,41.78007],[-71.47956,41.78074],[-71.47852,41.78547],[-71.48688,41.78278],[-71.49445,41.78412],[-71.49669,41.79022]]]}},{"type":"Feature","id":"02896","properties":{"zip":"02896","pop":null,"city":"","county":"Providence","state":"Rhode Island","area":17.71,"lat":41.97313,"lon":-71.55046},"geometry":{"type":"Polygon","coordinates":[[[-71.60673,42.01341],[-71.52912,42.01497],[-71.52966,42.00983],[-71.53985,42.00987],[-71.53175,41.98957],[-71.51807,41.9837],[-71.48736,41.97908],[-71.4891,41.97474],[-71.48668,41.96949],[-71.48826,41.96835],[-71.48644,41.96591],[-71.48729,41.95846],[-71.4852,41.95631],[-71.48813,41.95487],[-71.48744,41.94711],[-71.48433,41.9456],[-71.4853,41.94251],[-71.48823,41.94439],[-71.58503,41.93415],[-71.58248,41.93573],[-71.5819,41.93956],[-71.58439,41.94323],[-71.58384,41.95062],[-71.59082,41.94949],[-71.59366,41.95084],[-71.60673,42.01341]],[[-71.59507,41.9944],[-71.58533,41.99481],[-71.57978,41.99929],[-71.58095,41.9981],[-71.57762,41.99579],[-71.57895,41.99914],[-71.56952,41.99915],[-71.56526,41.99615],[-71.55703,41.99665],[-71.56001,42.00107],[-71.56588,42.00386],[-71.5684,41.99887],[-71.5732,42.00013],[-71.57132,42.00125],[-71.57452,42.00162],[-71.57335,42.00017],[-71.58096,42.00043],[-71.58811,41.99723],[-71.5886,42.00144],[-71.59208,41.99951],[-71.5902,41.99813],[-71.59062,41.99577],[-71.59507,41.9944]]]}},{"type":"Feature","id":"02878","properties":{"zip":"02878","pop":null,"city":"Tiverton","county":"Newport","state":"Rhode Island","area":23.16,"lat":41.60917,"lon":-71.17407},"geometry":{"type":"Polygon","coordinates":[[[-71.221,41.56088],[-71.21871,41.56268],[-71.20982,41.55871],[-71.20835,41.58117],[-71.21444,41.58366],[-71.21467,41.58597],[-71.20945,41.59059],[-71.20921,41.59397],[-71.20374,41.5961],[-71.21266,41.61007],[-71.21184,41.62353],[-71.21674,41.62559],[-71.21393,41.6391],[-71.21182,41.6391],[-71.20802,41.65313],[-71.19564,41.67509],[-71.17599,41.6714],[-71.17609,41.6681],[-71.13289,41.6601],[-71.13569,41.6284],[-71.14047,41.62389],[-71.14151,41.61608],[-71.14059,41.6051],[-71.13162,41.59392],[-71.12762,41.56323],[-71.21172,41.54545],[-71.216,41.54718],[-71.21378,41.5568],[-71.221,41.56088]]]}},{"type":"Feature","id":"02914","properties":{"zip":"02914","pop":null,"city":"East Providence","county":"Providence","state":"Rhode Island","area":3.97,"lat":41.81309,"lon":-71.36596},"geometry":{"type":"Polygon","coordinates":[[[-71.39526,41.81167],[-71.39288,41.81512],[-71.38708,41.81637],[-71.37359,41.83249],[-71.373,41.83807],[-71.36514,41.83864],[-71.36207,41.83492],[-71.36796,41.83168],[-71.36204,41.83083],[-71.35762,41.8273],[-71.35601,41.82991],[-71.35239,41.82894],[-71.35107,41.83085],[-71.35015,41.82589],[-71.34589,41.82589],[-71.3472,41.8231],[-71.3389,41.8083],[-71.34076,41.79956],[-71.34482,41.8012],[-71.34547,41.79898],[-71.35146,41.80324],[-71.35198,41.79557],[-71.36834,41.79876],[-71.36966,41.79616],[-71.36714,41.79396],[-71.37323,41.79027],[-71.3852,41.8021],[-71.3935,41.8071],[-71.39526,41.81167]]]}},{"type":"Feature","id":"02852","properties":{"zip":"02852","pop":null,"city":"","county":"Washington","state":"Rhode Island","area":24.26,"lat":41.58817,"lon":-71.46127},"geometry":{"type":"Polygon","coordinates":[[[-71.52243,41.60257],[-71.48443,41.60259],[-71.48744,41.61691],[-71.48248,41.62358],[-71.47132,41.62908],[-71.47253,41.63208],[-71.46973,41.6345],[-71.46235,41.63838],[-71.45912,41.63795],[-71.45137,41.62946],[-71.44889,41.63253],[-71.44929,41.63673],[-71.44199,41.64328],[-71.44251,41.64582],[-71.43998,41.6476],[-71.4328,41.65132],[-71.42894,41.65057],[-71.42388,41.65389],[-71.40888,41.65384],[-71.40753,41.63333],[-71.40315,41.62747],[-71.40339,41.62551],[-71.40862,41.62196],[-71.40244,41.61556],[-71.40434,41.61183],[-71.41195,41.61112],[-71.41694,41.6049],[-71.41433,41.60259],[-71.40361,41.60296],[-71.40377,41.58932],[-71.43025,41.58339],[-71.43952,41.57735],[-71.43881,41.58144],[-71.44094,41.58499],[-71.44641,41.58322],[-71.44427,41.57895],[-71.44705,41.57843],[-71.44641,41.5745],[-71.43809,41.57059],[-71.44409,41.56804],[-71.44383,41.56607],[-71.44216,41.56382],[-71.43437,41.56163],[-71.43478,41.5581],[-71.42841,41.55709],[-71.43104,41.5501],[-71.42865,41.54699],[-71.42685,41.54812],[-71.42951,41.54564],[-71.43183,41.54773],[-71.43866,41.55098],[-71.43249,41.54755],[-71.43208,41.54566],[-71.43425,41.54554],[-71.43768,41.53906],[-71.43632,41.53729],[-71.43877,41.53876],[-71.43863,41.53556],[-71.44549,41.53653],[-71.44417,41.53252],[-71.44576,41.52911],[-71.45564,41.53098],[-71.46599,41.53006],[-71.46512,41.52257],[-71.47349,41.52079],[-71.47797,41.52514],[-71.47371,41.52592],[-71.47303,41.52807],[-71.47035,41.52753],[-71.47329,41.52983],[-71.47587,41.52884],[-71.47424,41.53485],[-71.48453,41.53802],[-71.48927,41.54215],[-71.4897,41.53956],[-71.49284,41.53891],[-71.49168,41.54484],[-71.49319,41.54564],[-71.49733,41.54177],[-71.49803,41.53861],[-71.51949,41.54442],[-71.51812,41.59221],[-71.52243,41.60257]]]}},{"type":"Feature","id":"02838","properties":{"zip":"02838","pop":null,"city":"","county":"Providence","state":"Rhode Island","area":1.09,"lat":41.96565,"lon":-71.47627},"geometry":{"type":"Polygon","coordinates":[[[-71.4888,41.97705],[-71.48736,41.97908],[-71.47877,41.97718],[-71.47414,41.97262],[-71.4649,41.9691],[-71.46197,41.95772],[-71.46872,41.95702],[-71.46895,41.95867],[-71.4723,41.95899],[-71.46828,41.94809],[-71.47954,41.95801],[-71.48722,41.96154],[-71.48644,41.96591],[-71.48826,41.96835],[-71.48668,41.96949],[-71.4888,41.97705]]]}},{"type":"Feature","id":"02919","properties":{"zip":"02919","pop":null,"city":"","county":"Providence","state":"Rhode Island","area":18.15,"lat":41.82741,"lon":-71.51979},"geometry":{"type":"Polygon","coordinates":[[[-71.57464,41.85875],[-71.55687,41.86097],[-71.55536,41.85877],[-71.555,41.86121],[-71.55042,41.86176],[-71.54887,41.86077],[-71.54983,41.8599],[-71.54963,41.85807],[-71.54853,41.85897],[-71.54855,41.86104],[-71.54939,41.86194],[-71.49555,41.86898],[-71.48821,41.86192],[-71.48564,41.85352],[-71.48097,41.85082],[-71.47722,41.83791],[-71.47331,41.83898],[-71.47243,41.83418],[-71.46477,41.83105],[-71.46242,41.82469],[-71.45947,41.82264],[-71.47088,41.82194],[-71.47072,41.81791],[-71.46935,41.81812],[-71.46655,41.81074],[-71.4687,41.8106],[-71.4668,41.8078],[-71.46917,41.80486],[-71.46367,41.80505],[-71.46603,41.80375],[-71.46758,41.79811],[-71.48135,41.7965],[-71.49017,41.79139],[-71.50307,41.78914],[-71.51894,41.78888],[-71.53503,41.7933],[-71.55929,41.78934],[-71.57464,41.85875]]]}},{"type":"Feature","id":"02835","properties":{"zip":"02835","pop":null,"city":"","county":"Newport","state":"Rhode Island","area":7.22,"lat":41.51483,"lon":-71.37732},"geometry":{"type":"MultiPolygon","coordinates":[[[[-71.40056,41.46094],[-71.39442,41.46722],[-71.39758,41.47376],[-71.39665,41.47892],[-71.39751,41.48698],[-71.40055,41.49033],[-71.39943,41.49298],[-71.39237,41.49186],[-71.38401,41.49381],[-71.38345,41.50105],[-71.37891,41.50495],[-71.39101,41.51458],[-71.39214,41.52447],[-71.38568,41.53904],[-71.38661,41.54583],[-71.38448,41.55674],[-71.38141,41.55879],[-71.37902,41.56777],[-71.37362,41.57321],[-71.37019,41.57396],[-71.36356,41.57086],[-71.35987,41.55631],[-71.36041,41.54779],[-71.36468,41.5414],[-71.36134,41.52638],[-71.36561,41.51399],[-71.36338,41.5101],[-71.35985,41.51065],[-71.35762,41.5087],[-71.35892,41.50328],[-71.36598,41.49882],[-71.36654,41.49479],[-71.35948,41.48309],[-71.35409,41.48045],[-71.35431,41.47889],[-71.36424,41.47648],[-71.37175,41.47752],[-71.37509,41.47376],[-71.38066,41.4888],[-71.38624,41.48769],[-71.38159,41.46805],[-71.38451,41.46411],[-71.38903,41.46555],[-71.39028,41.45504],[-71.39957,41.4486],[-71.40056,41.46094]]],[[[-71.4051,41.49821],[-71.40363,41.50457],[-71.39739,41.5062],[-71.39628,41.5037],[-71.40324,41.49758],[-71.4051,41.49821]]]]}},{"type":"Feature","id":"02827","properties":{"zip":"02827","pop":null,"city":"Greene","county":"Kent","state":"Rhode Island","area":16.36,"lat":41.69791,"lon":-71.73837},"geometry":{"type":"Polygon","coordinates":[[[-71.78969,41.7252],[-71.6717,41.72733],[-71.6693,41.72006],[-71.66482,41.71908],[-71.66904,41.71888],[-71.67477,41.71082],[-71.68145,41.70807],[-71.68332,41.70461],[-71.68056,41.70421],[-71.67975,41.70153],[-71.67004,41.70271],[-71.66824,41.69944],[-71.67149,41.6942],[-71.6703,41.69266],[-71.67422,41.69098],[-71.67774,41.68597],[-71.68953,41.68411],[-71.69412,41.68122],[-71.69332,41.69103],[-71.71778,41.68807],[-71.72749,41.68263],[-71.71962,41.67884],[-71.7269,41.67647],[-71.74337,41.67697],[-71.73843,41.66602],[-71.73962,41.65735],[-71.787,41.65612],[-71.78969,41.7252]]]}},{"type":"Feature","id":"02804","properties":{"zip":"02804","pop":null,"city":"Ashaway","county":"Washington","state":"Rhode Island","area":8.9,"lat":41.43544,"lon":-71.77204},"geometry":{"type":"Polygon","coordinates":[[[-71.80348,41.40407],[-71.79598,41.40729],[-71.79837,41.40892],[-71.79611,41.41447],[-71.79767,41.41691],[-71.79454,41.48473],[-71.79188,41.48439],[-71.79221,41.47512],[-71.78858,41.47517],[-71.78673,41.47176],[-71.78173,41.47178],[-71.78686,41.46664],[-71.78238,41.46453],[-71.78287,41.46169],[-71.77798,41.46145],[-71.7782,41.45439],[-71.76005,41.46947],[-71.75631,41.46651],[-71.75625,41.46083],[-71.74871,41.46018],[-71.74732,41.46254],[-71.73776,41.46413],[-71.7283,41.45578],[-71.73928,41.45066],[-71.73793,41.44624],[-71.7275,41.44363],[-71.72426,41.4404],[-71.7237,41.43764],[-71.72695,41.43476],[-71.75388,41.43426],[-71.75482,41.42786],[-71.76055,41.42767],[-71.76005,41.43117],[-71.76445,41.43156],[-71.76687,41.43052],[-71.76553,41.42918],[-71.76874,41.42423],[-71.77186,41.42456],[-71.77341,41.42255],[-71.77232,41.41874],[-71.76517,41.41801],[-71.76921,41.41431],[-71.76591,41.41418],[-71.76313,41.40692],[-71.76714,41.40262],[-71.76718,41.39921],[-71.7711,41.40139],[-71.77267,41.4004],[-71.77153,41.39706],[-71.77623,41.39352],[-71.78078,41.39349],[-71.77922,41.38728],[-71.78204,41.38858],[-71.78394,41.38661],[-71.79003,41.39262],[-71.79699,41.39302],[-71.79807,41.39669],[-71.79471,41.39793],[-71.79976,41.39859],[-71.80348,41.40407]]]}},{"type":"Feature","id":"02905","properties":{"zip":"02905","pop":null,"city":"Providence","county":"Providence","state":"Rhode Island","area":3.57,"lat":41.78749,"lon":-71.39892},"geometry":{"type":"Polygon","coordinates":[[[-71.42006,41.78703],[-71.40945,41.794],[-71.41813,41.80114],[-71.41926,41.80411],[-71.41481,41.80556],[-71.41758,41.80781],[-71.4158,41.8093],[-71.4153,41.8145],[-71.41232,41.81328],[-71.41121,41.81023],[-71.40718,41.81082],[-71.40724,41.80655],[-71.40339,41.80749],[-71.40185,41.80404],[-71.3935,41.8071],[-71.3852,41.8021],[-71.3808,41.7963],[-71.37335,41.79099],[-71.37318,41.78863],[-71.37233,41.79018],[-71.36969,41.78306],[-71.38129,41.7853],[-71.39056,41.78371],[-71.39175,41.78105],[-71.3855,41.76866],[-71.38473,41.7576],[-71.38852,41.76378],[-71.39412,41.76404],[-71.39958,41.76832],[-71.40139,41.76655],[-71.4052,41.76761],[-71.41218,41.76506],[-71.41489,41.78027],[-71.41954,41.78168],[-71.41747,41.78632],[-71.42006,41.78703]]]}},{"type":"Feature","id":"02911","properties":{"zip":"02911","pop":null,"city":"Providence","county":"Providence","state":"Rhode Island","area":1.9,"lat":41.85471,"lon":-71.47311},"geometry":{"type":"Polygon","coordinates":[[[-71.49555,41.86898],[-71.47553,41.87157],[-71.4736,41.87082],[-71.47397,41.86891],[-71.47157,41.86919],[-71.47086,41.86659],[-71.47405,41.86265],[-71.4735,41.8596],[-71.47263,41.861],[-71.47096,41.85888],[-71.46556,41.86079],[-71.45866,41.85601],[-71.45165,41.85631],[-71.44911,41.85286],[-71.45614,41.85073],[-71.45591,41.8479],[-71.4586,41.84518],[-71.46695,41.84048],[-71.466,41.837],[-71.47172,41.83617],[-71.47331,41.83898],[-71.47722,41.83791],[-71.48097,41.85082],[-71.48564,41.85352],[-71.48821,41.86192],[-71.49555,41.86898]]]}},{"type":"Feature","id":"02832","properties":{"zip":"02832","pop":null,"city":"Hope Valley","county":"Washington","state":"Rhode Island","area":19.07,"lat":41.50462,"lon":-71.7279},"geometry":{"type":"Polygon","coordinates":[[[-71.7867,41.50527],[-71.78339,41.50854],[-71.77579,41.50911],[-71.76313,41.5162],[-71.75254,41.51606],[-71.75333,41.51881],[-71.75035,41.51956],[-71.75141,41.5245],[-71.75595,41.52423],[-71.77056,41.54053],[-71.76662,41.54328],[-71.77133,41.54839],[-71.68429,41.55737],[-71.68723,41.52423],[-71.69006,41.52214],[-71.6985,41.52096],[-71.69924,41.51879],[-71.70278,41.51968],[-71.70579,41.51759],[-71.7037,41.51589],[-71.70547,41.5146],[-71.70322,41.51415],[-71.71247,41.50782],[-71.7119,41.50477],[-71.70752,41.50254],[-71.70461,41.4979],[-71.70096,41.49881],[-71.69767,41.49275],[-71.69127,41.49486],[-71.69052,41.48554],[-71.68514,41.48321],[-71.687,41.47997],[-71.68426,41.47887],[-71.69013,41.46641],[-71.69965,41.46241],[-71.69624,41.45221],[-71.70392,41.45269],[-71.70359,41.45047],[-71.71591,41.45094],[-71.7164,41.44387],[-71.727,41.44741],[-71.7275,41.44363],[-71.73793,41.44624],[-71.73928,41.45066],[-71.7283,41.45578],[-71.73776,41.46413],[-71.74732,41.46254],[-71.74871,41.46018],[-71.75625,41.46083],[-71.75631,41.46651],[-71.75913,41.46918],[-71.76479,41.47007],[-71.7655,41.47546],[-71.76377,41.4806],[-71.76022,41.48442],[-71.75773,41.48443],[-71.76107,41.4894],[-71.77149,41.49502],[-71.77252,41.5004],[-71.78421,41.49898],[-71.78366,41.50174],[-71.7867,41.50527]]]}},{"type":"Feature","id":"02873","properties":{"zip":"02873","pop":null,"city":"","county":"Washington","state":"Rhode Island","area":3.26,"lat":41.52569,"lon":-71.7776},"geometry":{"type":"Polygon","coordinates":[[[-71.79357,41.50575],[-71.7917,41.54611],[-71.77133,41.54839],[-71.76662,41.54328],[-71.77056,41.54053],[-71.75595,41.52423],[-71.75141,41.5245],[-71.75035,41.51956],[-71.75333,41.51881],[-71.75254,41.51606],[-71.76313,41.5162],[-71.77579,41.50911],[-71.78339,41.50854],[-71.7869,41.50404],[-71.78365,41.50076],[-71.79388,41.499],[-71.79357,41.50575]]]}},{"type":"Feature","id":"02891","properties":{"zip":"02891","pop":null,"city":"Westerly","county":"Washington","state":"Rhode Island","area":21.52,"lat":41.36012,"lon":-71.79434},"geometry":{"type":"Polygon","coordinates":[[[-71.86267,41.31086],[-71.86051,41.32025],[-71.85192,41.32466],[-71.84771,41.3296],[-71.83616,41.33601],[-71.82938,41.34241],[-71.8313,41.3513],[-71.8357,41.35357],[-71.83787,41.36015],[-71.83763,41.3655],[-71.83161,41.3709],[-71.83267,41.37562],[-71.83064,41.37877],[-71.83353,41.38237],[-71.83266,41.38716],[-71.84213,41.39536],[-71.84115,41.39923],[-71.84347,41.40583],[-71.84256,41.40986],[-71.83965,41.41212],[-71.83411,41.41158],[-71.8169,41.41993],[-71.80144,41.41555],[-71.79767,41.41691],[-71.79611,41.41447],[-71.79837,41.40892],[-71.79598,41.40729],[-71.80348,41.40407],[-71.79976,41.39859],[-71.79471,41.39793],[-71.79807,41.39669],[-71.79699,41.39302],[-71.79003,41.39262],[-71.78394,41.38661],[-71.78046,41.38871],[-71.78042,41.38708],[-71.77617,41.38548],[-71.771,41.38673],[-71.75295,41.39858],[-71.75267,41.39424],[-71.75878,41.39047],[-71.76201,41.38357],[-71.76654,41.37964],[-71.75898,41.37846],[-71.75874,41.37997],[-71.75514,41.37923],[-71.7512,41.38295],[-71.74831,41.38322],[-71.74514,41.37096],[-71.74019,41.37283],[-71.73766,41.37747],[-71.73055,41.37868],[-71.72988,41.3317],[-71.74676,41.32809],[-71.75166,41.3254],[-71.7664,41.32886],[-71.81534,41.32024],[-71.84529,41.31187],[-71.85743,41.30632],[-71.86267,41.31086]]]}},{"type":"Feature","id":"02816","properties":{"zip":"02816","pop":null,"city":"","county":"Kent","state":"Rhode Island","area":29.71,"lat":41.69053,"lon":-71.61941},"geometry":{"type":"Polygon","coordinates":[[[-71.74337,41.67697],[-71.7269,41.67647],[-71.71962,41.67884],[-71.72749,41.68263],[-71.71044,41.69003],[-71.69332,41.69103],[-71.69412,41.68122],[-71.68953,41.68411],[-71.67638,41.68679],[-71.67422,41.69098],[-71.6703,41.69266],[-71.67149,41.6942],[-71.66824,41.69944],[-71.67004,41.70271],[-71.67975,41.70153],[-71.68056,41.70421],[-71.68332,41.70461],[-71.68145,41.70807],[-71.67477,41.71082],[-71.66904,41.71888],[-71.66482,41.71908],[-71.6693,41.72006],[-71.6717,41.72733],[-71.63849,41.72791],[-71.63762,41.72468],[-71.61396,41.72211],[-71.61585,41.72153],[-71.61623,41.71609],[-71.60658,41.72439],[-71.60469,41.72408],[-71.6048,41.72667],[-71.59822,41.72882],[-71.55513,41.73107],[-71.53429,41.73017],[-71.53338,41.66216],[-71.73962,41.65735],[-71.73843,41.66602],[-71.74337,41.67697]]]}},{"type":"Feature","id":"02828","properties":{"zip":"02828","pop":null,"city":"Greenville","county":"Providence","state":"Rhode Island","area":3.39,"lat":41.87687,"lon":-71.56082},"geometry":{"type":"MultiPolygon","coordinates":[[[[-71.53219,41.87381],[-71.52656,41.8764],[-71.52594,41.87378],[-71.53131,41.87256],[-71.53219,41.87381]]],[[[-71.58189,41.89467],[-71.57708,41.89936],[-71.56976,41.90241],[-71.56963,41.9007],[-71.56615,41.90031],[-71.56391,41.89722],[-71.56517,41.89105],[-71.56221,41.89305],[-71.55585,41.88934],[-71.55435,41.88464],[-71.55589,41.8826],[-71.55105,41.88238],[-71.54858,41.87998],[-71.54931,41.87754],[-71.54127,41.88496],[-71.54112,41.8775],[-71.53483,41.87551],[-71.53545,41.87019],[-71.53072,41.87018],[-71.53146,41.86427],[-71.54939,41.86194],[-71.54855,41.86104],[-71.54853,41.85897],[-71.54963,41.85807],[-71.54887,41.86077],[-71.55042,41.86176],[-71.555,41.86121],[-71.55536,41.85877],[-71.55687,41.86097],[-71.57464,41.85875],[-71.57652,41.86777],[-71.58005,41.86702],[-71.5777,41.87154],[-71.57936,41.8731],[-71.57805,41.87509],[-71.58189,41.89467]]],[[[-71.58443,41.87612],[-71.58117,41.87664],[-71.58051,41.87342],[-71.58384,41.87407],[-71.58443,41.87612]]]]}},{"type":"Feature","id":"02833","properties":{"zip":"02833","pop":null,"city":"Hopkinton","county":"Washington","state":"Rhode Island","area":2.71,"lat":41.48129,"lon":-71.77762},"geometry":{"type":"Polygon","coordinates":[[[-71.79388,41.499],[-71.78762,41.50084],[-71.78365,41.50076],[-71.78421,41.49898],[-71.77252,41.5004],[-71.77149,41.49502],[-71.76107,41.4894],[-71.75773,41.48443],[-71.76281,41.48235],[-71.7655,41.47546],[-71.76479,41.47007],[-71.76005,41.46947],[-71.7782,41.45439],[-71.77798,41.46145],[-71.78287,41.46169],[-71.78238,41.46453],[-71.78686,41.46664],[-71.78173,41.47178],[-71.78673,41.47176],[-71.78858,41.47517],[-71.79221,41.47512],[-71.79188,41.48439],[-71.79454,41.48473],[-71.79388,41.499]]]}},{"type":"Feature","id":"02894","properties":{"zip":"02894","pop":null,"city":"","county":"Washington","state":"Rhode Island","area":3.19,"lat":41.44761,"lon":-71.69753},"geometry":{"type":"Polygon","coordinates":[[[-71.73097,41.43461],[-71.72695,41.43476],[-71.7237,41.43764],[-71.7275,41.44363],[-71.727,41.44741],[-71.7164,41.44387],[-71.71591,41.45094],[-71.70359,41.45047],[-71.70392,41.45269],[-71.69624,41.45221],[-71.69965,41.46241],[-71.69192,41.46634],[-71.68327,41.46679],[-71.67677,41.46965],[-71.66862,41.46599],[-71.66885,41.46087],[-71.67168,41.46112],[-71.67444,41.45797],[-71.67694,41.44884],[-71.68113,41.44605],[-71.68129,41.44298],[-71.68647,41.43697],[-71.68534,41.43474],[-71.69706,41.43295],[-71.69992,41.43036],[-71.70751,41.43539],[-71.71682,41.43413],[-71.71688,41.43042],[-71.71901,41.42832],[-71.72572,41.42697],[-71.73097,41.43461]]]}},{"type":"Feature","id":"02813","properties":{"zip":"02813","pop":null,"city":"Charlestown","county":"Washington","state":"Rhode Island","area":31.31,"lat":41.39705,"lon":-71.67006},"geometry":{"type":"Polygon","coordinates":[[[-71.73125,41.39851],[-71.72748,41.39702],[-71.72746,41.4017],[-71.72356,41.40436],[-71.72331,41.40763],[-71.73003,41.41452],[-71.72595,41.42236],[-71.72619,41.42742],[-71.71901,41.42832],[-71.71688,41.43042],[-71.71682,41.43413],[-71.70751,41.43539],[-71.69992,41.43036],[-71.69706,41.43295],[-71.68534,41.43474],[-71.68647,41.43697],[-71.68129,41.44298],[-71.68113,41.44605],[-71.67694,41.44884],[-71.67444,41.45797],[-71.67168,41.46112],[-71.66434,41.45842],[-71.65523,41.45914],[-71.65011,41.45352],[-71.64938,41.44888],[-71.63921,41.44606],[-71.63252,41.4488],[-71.63197,41.44721],[-71.62883,41.448],[-71.62687,41.44523],[-71.62128,41.44599],[-71.60973,41.45238],[-71.60367,41.44962],[-71.59824,41.44962],[-71.59514,41.44622],[-71.62296,41.36827],[-71.6218,41.36984],[-71.61988,41.36782],[-71.622,41.36856],[-71.6244,41.36425],[-71.61836,41.36405],[-71.61203,41.36679],[-71.6125,41.36532],[-71.60844,41.36579],[-71.60649,41.36394],[-71.62416,41.36121],[-71.63832,41.35543],[-71.64285,41.35566],[-71.69669,41.34098],[-71.70517,41.33429],[-71.71604,41.33109],[-71.72988,41.3317],[-71.73125,41.39851]]]}},{"type":"Feature","id":"02822","properties":{"zip":"02822","pop":null,"city":"","county":"Washington","state":"Rhode Island","area":41.42,"lat":41.56736,"lon":-71.63341},"geometry":{"type":"Polygon","coordinates":[[[-71.79051,41.57197],[-71.78936,41.59685],[-71.52243,41.60257],[-71.51812,41.59221],[-71.51844,41.52766],[-71.53053,41.50375],[-71.60338,41.52271],[-71.60253,41.5237],[-71.60578,41.52712],[-71.6063,41.53913],[-71.60971,41.54632],[-71.6028,41.54808],[-71.60555,41.55687],[-71.60466,41.55906],[-71.61005,41.5568],[-71.61274,41.56066],[-71.62072,41.56423],[-71.62589,41.57849],[-71.64397,41.56176],[-71.7917,41.54611],[-71.79051,41.57197]]]}},{"type":"Feature","id":"02802","properties":{"zip":"02802","pop":null,"city":"","county":"Providence","state":"Rhode Island","area":0.13,"lat":41.9518,"lon":-71.45566},"geometry":{"type":"Polygon","coordinates":[[[-71.46197,41.95772],[-71.45522,41.95563],[-71.45086,41.94936],[-71.44854,41.94874],[-71.44908,41.94702],[-71.45195,41.94832],[-71.4507,41.94397],[-71.45489,41.95075],[-71.46191,41.95062],[-71.46236,41.95216],[-71.45724,41.95399],[-71.46197,41.95772]]]}},{"type":"Feature","id":"02808","properties":{"zip":"02808","pop":null,"city":"Bradford","county":"Washington","state":"Rhode Island","area":5.83,"lat":41.40607,"lon":-71.74801},"geometry":{"type":"Polygon","coordinates":[[[-71.77901,41.39455],[-71.77623,41.39352],[-71.77153,41.39706],[-71.77267,41.4004],[-71.7711,41.40139],[-71.76718,41.39921],[-71.76714,41.40262],[-71.76371,41.40518],[-71.76424,41.41205],[-71.76591,41.41418],[-71.76921,41.41431],[-71.76517,41.41801],[-71.77232,41.41874],[-71.77341,41.42255],[-71.77186,41.42456],[-71.76874,41.42423],[-71.76553,41.42918],[-71.76687,41.43052],[-71.76139,41.43172],[-71.76005,41.43117],[-71.76055,41.42767],[-71.75482,41.42786],[-71.75388,41.43426],[-71.73097,41.43461],[-71.72677,41.43021],[-71.72595,41.42236],[-71.73003,41.41452],[-71.72331,41.40763],[-71.72356,41.40436],[-71.72746,41.4017],[-71.72748,41.39702],[-71.73125,41.39851],[-71.73055,41.37868],[-71.73766,41.37747],[-71.74019,41.37283],[-71.74514,41.37096],[-71.74831,41.38322],[-71.7512,41.38295],[-71.75514,41.37923],[-71.75874,41.37997],[-71.75898,41.37846],[-71.76654,41.37964],[-71.76201,41.38357],[-71.75878,41.39047],[-71.75267,41.39424],[-71.75295,41.39858],[-71.771,41.38673],[-71.77617,41.38548],[-71.77922,41.38728],[-71.78078,41.39349],[-71.77901,41.39455]]]}},{"type":"Feature","id":"02898","properties":{"zip":"02898","pop":null,"city":"Wyoming","county":"Washington","state":"Rhode Island","area":8.99,"lat":41.52182,"lon":-71.67175},"geometry":{"type":"Polygon","coordinates":[[[-71.71247,41.50782],[-71.70322,41.51415],[-71.70547,41.5146],[-71.7037,41.51589],[-71.70579,41.51759],[-71.70278,41.51968],[-71.69924,41.51879],[-71.6985,41.52096],[-71.69006,41.52214],[-71.68723,41.52423],[-71.68429,41.55737],[-71.64397,41.56176],[-71.64611,41.55978],[-71.64401,41.55245],[-71.64617,41.54796],[-71.64247,41.5413],[-71.64753,41.54018],[-71.65228,41.53603],[-71.65173,41.53465],[-71.64115,41.53863],[-71.63908,41.53598],[-71.64093,41.52045],[-71.6444,41.51267],[-71.66032,41.5143],[-71.65954,41.50042],[-71.65268,41.50225],[-71.64428,41.50099],[-71.64493,41.49983],[-71.65043,41.49877],[-71.65243,41.50118],[-71.65498,41.50064],[-71.65774,41.4936],[-71.65633,41.49244],[-71.66425,41.49307],[-71.66688,41.49149],[-71.67587,41.47791],[-71.6819,41.48179],[-71.68426,41.47887],[-71.687,41.47997],[-71.68514,41.48321],[-71.69052,41.48554],[-71.69127,41.49486],[-71.69767,41.49275],[-71.70096,41.49881],[-71.70461,41.4979],[-71.70752,41.50254],[-71.7119,41.50477],[-71.71247,41.50782]]]}},{"type":"Feature","id":"02907","properties":{"zip":"02907","pop":null,"city":"Providence","county":"Providence","state":"Rhode Island","area":1.74,"lat":41.7984,"lon":-71.4258},"geometry":{"type":"Polygon","coordinates":[[[-71.44121,41.7969],[-71.44025,41.80371],[-71.42722,41.81446],[-71.42841,41.81692],[-71.42233,41.81741],[-71.4259,41.81454],[-71.4153,41.8145],[-71.4158,41.8093],[-71.41758,41.80781],[-71.41481,41.80556],[-71.41926,41.80411],[-71.41813,41.80114],[-71.40945,41.794],[-71.42006,41.78703],[-71.41747,41.78632],[-71.41954,41.78168],[-71.4167,41.77876],[-71.41897,41.77582],[-71.42381,41.77727],[-71.42285,41.786],[-71.43405,41.78631],[-71.43691,41.7897],[-71.43419,41.79036],[-71.43512,41.79402],[-71.44057,41.79375],[-71.44121,41.7969]]]}},{"type":"Feature","id":"02917","properties":{"zip":"02917","pop":null,"city":"Greenville","county":"Providence","state":"Rhode Island","area":16.87,"lat":41.90616,"lon":-71.52373},"geometry":{"type":"Polygon","coordinates":[[[-71.59031,41.93366],[-71.49079,41.94324],[-71.4827,41.919],[-71.47925,41.91537],[-71.48109,41.91477],[-71.46676,41.87277],[-71.53146,41.86427],[-71.53072,41.87018],[-71.53545,41.87019],[-71.53483,41.87551],[-71.54112,41.8775],[-71.54127,41.88496],[-71.54931,41.87754],[-71.54858,41.87998],[-71.55105,41.88238],[-71.55589,41.8826],[-71.55435,41.88464],[-71.55585,41.88934],[-71.56221,41.89305],[-71.56517,41.89105],[-71.5649,41.89916],[-71.56963,41.9007],[-71.56976,41.90241],[-71.57291,41.90121],[-71.57625,41.90508],[-71.57898,41.91427],[-71.5877,41.92149],[-71.59031,41.93366]],[[-71.53189,41.87352],[-71.52594,41.87378],[-71.52656,41.8764],[-71.5308,41.8755],[-71.53189,41.87352]]]}},{"type":"Feature","id":"02857","properties":{"zip":"02857","pop":null,"city":"","county":"Providence","state":"Rhode Island","area":37.17,"lat":41.82691,"lon":-71.6307},"geometry":{"type":"Polygon","coordinates":[[[-71.72435,41.85589],[-71.7249,41.85726],[-71.7199,41.8599],[-71.71968,41.86189],[-71.72292,41.86689],[-71.72149,41.86855],[-71.72242,41.87416],[-71.71411,41.87227],[-71.71354,41.87383],[-71.71668,41.87709],[-71.70814,41.88066],[-71.70659,41.87889],[-71.70268,41.87976],[-71.69969,41.87373],[-71.6929,41.87266],[-71.69271,41.86943],[-71.68224,41.87262],[-71.684,41.87735],[-71.6795,41.87677],[-71.67589,41.87357],[-71.66722,41.87614],[-71.66825,41.88348],[-71.66024,41.88461],[-71.65866,41.88169],[-71.65254,41.8831],[-71.65025,41.87912],[-71.64558,41.88035],[-71.64267,41.87909],[-71.64521,41.87754],[-71.64157,41.87038],[-71.63541,41.86705],[-71.63366,41.87038],[-71.63471,41.87392],[-71.64001,41.87897],[-71.62982,41.87967],[-71.62763,41.88482],[-71.62251,41.88023],[-71.62119,41.88656],[-71.62334,41.88865],[-71.61193,41.89224],[-71.60901,41.88856],[-71.60016,41.88466],[-71.60799,41.88271],[-71.6029,41.87844],[-71.60278,41.87374],[-71.59763,41.87824],[-71.59411,41.87718],[-71.58751,41.88006],[-71.58739,41.87788],[-71.59243,41.8769],[-71.58857,41.87232],[-71.58693,41.87498],[-71.5777,41.87154],[-71.58005,41.86702],[-71.57652,41.86777],[-71.5578,41.78039],[-71.56678,41.78152],[-71.5696,41.77927],[-71.56781,41.77094],[-71.57047,41.76037],[-71.58942,41.75043],[-71.59197,41.75497],[-71.59629,41.75481],[-71.59898,41.75122],[-71.60232,41.75137],[-71.6097,41.74619],[-71.60613,41.75747],[-71.60278,41.75957],[-71.60369,41.76203],[-71.61108,41.76251],[-71.60955,41.76497],[-71.6112,41.77129],[-71.61294,41.77265],[-71.6221,41.76681],[-71.62737,41.77025],[-71.63325,41.76811],[-71.63302,41.77174],[-71.63953,41.77673],[-71.63712,41.77724],[-71.64027,41.78182],[-71.6453,41.77962],[-71.66238,41.78573],[-71.65309,41.78674],[-71.65281,41.7884],[-71.65705,41.79074],[-71.66511,41.78992],[-71.67327,41.79316],[-71.67975,41.7926],[-71.68625,41.82817],[-71.69291,41.83225],[-71.69442,41.83812],[-71.69719,41.8357],[-71.69626,41.83208],[-71.69905,41.82749],[-71.70287,41.83119],[-71.70671,41.83131],[-71.70865,41.8343],[-71.71168,41.83414],[-71.71658,41.83733],[-71.72114,41.84499],[-71.71992,41.84809],[-71.72141,41.85213],[-71.72621,41.856],[-71.72435,41.85589]]]}},{"type":"Feature","id":"02871","properties":{"zip":"02871","pop":null,"city":"Melville","county":"Newport","state":"Rhode Island","area":13.8,"lat":41.58369,"lon":-71.25654},"geometry":{"type":"MultiPolygon","coordinates":[[[[-71.28802,41.64558],[-71.28647,41.64757],[-71.27817,41.64731],[-71.27635,41.64053],[-71.27213,41.63706],[-71.28535,41.63685],[-71.28802,41.64558]]],[[[-71.30151,41.58566],[-71.29856,41.58492],[-71.29716,41.57977],[-71.30081,41.58061],[-71.30151,41.58566]]],[[[-71.30119,41.56246],[-71.29436,41.57142],[-71.28838,41.57327],[-71.28514,41.57713],[-71.28408,41.57939],[-71.28574,41.58277],[-71.28907,41.58271],[-71.28526,41.59237],[-71.28065,41.59285],[-71.27344,41.60699],[-71.27241,41.61504],[-71.27523,41.61944],[-71.27186,41.62399],[-71.26102,41.62738],[-71.25888,41.63323],[-71.25108,41.63878],[-71.23654,41.63839],[-71.23323,41.64023],[-71.23226,41.64337],[-71.22537,41.6471],[-71.22033,41.65557],[-71.21658,41.6391],[-71.21393,41.6391],[-71.21674,41.62559],[-71.24071,41.61923],[-71.2436,41.58751],[-71.23779,41.5776],[-71.23488,41.57655],[-71.2382,41.55877],[-71.23702,41.55485],[-71.23369,41.55236],[-71.23652,41.54489],[-71.23488,41.54169],[-71.23664,41.53585],[-71.23477,41.53254],[-71.22799,41.5283],[-71.23345,41.51407],[-71.30119,41.56246]]]]}},{"type":"Feature","id":"02807","properties":{"zip":"02807","pop":null,"city":"","county":"Washington","state":"Rhode Island","area":8.08,"lat":41.17765,"lon":-71.57859},"geometry":{"type":"Polygon","coordinates":[[[-71.61313,41.16028],[-71.61053,41.16264],[-71.61057,41.16837],[-71.60556,41.18214],[-71.59746,41.18519],[-71.59499,41.18839],[-71.59294,41.19891],[-71.58955,41.19656],[-71.58063,41.20337],[-71.57692,41.21102],[-71.57769,41.23123],[-71.5703,41.22534],[-71.56255,41.22422],[-71.55407,41.21296],[-71.56412,41.19537],[-71.56634,41.18428],[-71.5613,41.17576],[-71.55791,41.17302],[-71.55463,41.17342],[-71.55023,41.16679],[-71.54445,41.16491],[-71.54559,41.16345],[-71.54387,41.16132],[-71.54705,41.15368],[-71.56589,41.14901],[-71.59999,41.14693],[-71.61157,41.15391],[-71.61313,41.16028]]]}},{"type":"Feature","id":"02839","properties":{"zip":"02839","pop":null,"city":"","county":"Providence","state":"Rhode Island","area":3.36,"lat":41.94334,"lon":-71.64574},"geometry":{"type":"Polygon","coordinates":[[[-71.67344,41.93416],[-71.67356,41.94372],[-71.67061,41.94964],[-71.66681,41.95172],[-71.66507,41.95697],[-71.6689,41.96211],[-71.66503,41.96182],[-71.66059,41.9582],[-71.65367,41.96037],[-71.65108,41.95846],[-71.65007,41.96034],[-71.64847,41.95453],[-71.6427,41.95102],[-71.62607,41.95393],[-71.62582,41.95147],[-71.61818,41.94963],[-71.619,41.94585],[-71.61612,41.94606],[-71.61283,41.94018],[-71.61356,41.9329],[-71.67473,41.93163],[-71.67344,41.93416]]]}},{"type":"Feature","id":"02859","properties":{"zip":"02859","pop":null,"city":"Pascoag","county":"Providence","state":"Rhode Island","area":21.51,"lat":41.96649,"lon":-71.74631},"geometry":{"type":"Polygon","coordinates":[[[-71.79924,42.00807],[-71.72494,42.01069],[-71.7187,41.99353],[-71.71218,41.99954],[-71.70503,41.99168],[-71.69715,41.97344],[-71.69724,41.96869],[-71.69912,41.96708],[-71.691,41.96509],[-71.6932,41.96332],[-71.68931,41.96115],[-71.688,41.95557],[-71.68922,41.95046],[-71.67356,41.94372],[-71.67344,41.93416],[-71.67546,41.92962],[-71.67626,41.93159],[-71.79765,41.92865],[-71.79924,42.00807]]]}},{"type":"Feature","id":"02879","properties":{"zip":"02879","pop":null,"city":"Wakefield-Peace Dale","county":"Washington","state":"Rhode Island","area":33.97,"lat":41.42873,"lon":-71.5383},"geometry":{"type":"Polygon","coordinates":[[[-71.62385,41.3658],[-71.622,41.36856],[-71.61988,41.36782],[-71.6218,41.36984],[-71.62296,41.36827],[-71.59514,41.44622],[-71.59824,41.44962],[-71.60367,41.44962],[-71.60138,41.45131],[-71.59559,41.44874],[-71.59953,41.45268],[-71.58062,41.4667],[-71.5656,41.46594],[-71.56431,41.464],[-71.55996,41.46447],[-71.55664,41.46252],[-71.54892,41.46701],[-71.54504,41.4604],[-71.54235,41.46157],[-71.54239,41.46348],[-71.53964,41.46328],[-71.53878,41.46648],[-71.53325,41.46814],[-71.52047,41.46924],[-71.52048,41.47133],[-71.51264,41.4732],[-71.51361,41.46982],[-71.50972,41.46979],[-71.51066,41.47101],[-71.50726,41.47373],[-71.50936,41.47402],[-71.50951,41.47614],[-71.51387,41.47558],[-71.51382,41.47839],[-71.51773,41.47839],[-71.51839,41.48057],[-71.50606,41.48239],[-71.50393,41.49032],[-71.50048,41.49469],[-71.49164,41.49051],[-71.45642,41.49477],[-71.45415,41.49193],[-71.45547,41.48775],[-71.44705,41.48833],[-71.45162,41.45316],[-71.46602,41.44256],[-71.48999,41.43171],[-71.48507,41.43153],[-71.48855,41.43019],[-71.48465,41.42762],[-71.48548,41.42523],[-71.49389,41.42754],[-71.49265,41.42243],[-71.4958,41.4226],[-71.4971,41.4175],[-71.5032,41.4176],[-71.50483,41.40751],[-71.51464,41.38479],[-71.51731,41.38214],[-71.51425,41.3754],[-71.52643,41.37692],[-71.53155,41.37649],[-71.53724,41.37333],[-71.55157,41.37442],[-71.60649,41.36394],[-71.60844,41.36579],[-71.6125,41.36532],[-71.61203,41.36679],[-71.61836,41.36405],[-71.6244,41.36425],[-71.62385,41.3658]]]}},{"type":"Feature","id":"02875","properties":{"zip":"02875","pop":null,"city":"Carolina","county":"Washington","state":"Rhode Island","area":1.41,"lat":41.46055,"lon":-71.63862},"geometry":{"type":"Polygon","coordinates":[[[-71.65132,41.45526],[-71.6452,41.46545],[-71.64205,41.48387],[-71.63959,41.47863],[-71.63517,41.47879],[-71.6359,41.46956],[-71.62856,41.46778],[-71.62613,41.45927],[-71.6289,41.45453],[-71.62797,41.45275],[-71.63204,41.44771],[-71.63921,41.44606],[-71.64938,41.44888],[-71.65132,41.45526]]]}},{"type":"Feature","id":"02831","properties":{"zip":"02831","pop":null,"city":"Cranston","county":"Providence","state":"Rhode Island","area":8.11,"lat":41.74468,"lon":-71.58457},"geometry":{"type":"Polygon","coordinates":[[[-71.64663,41.72923],[-71.64354,41.73434],[-71.64294,41.74034],[-71.63319,41.74326],[-71.62849,41.74133],[-71.6222,41.74424],[-71.62619,41.75015],[-71.62196,41.75368],[-71.60723,41.75116],[-71.6097,41.74619],[-71.60232,41.75137],[-71.59898,41.75122],[-71.59629,41.75481],[-71.59197,41.75497],[-71.58942,41.75043],[-71.57047,41.76037],[-71.56781,41.77094],[-71.5696,41.77927],[-71.56678,41.78152],[-71.5578,41.78039],[-71.55672,41.77504],[-71.55239,41.77672],[-71.54844,41.7703],[-71.54326,41.76738],[-71.53881,41.76727],[-71.53775,41.76487],[-71.5473,41.76266],[-71.5496,41.756],[-71.53836,41.75663],[-71.5374,41.75288],[-71.54076,41.751],[-71.54012,41.74434],[-71.5383,41.74061],[-71.53467,41.74025],[-71.53782,41.73159],[-71.53932,41.73405],[-71.54196,41.73358],[-71.54327,41.7388],[-71.54868,41.73632],[-71.54797,41.73387],[-71.55306,41.73495],[-71.5491,41.73369],[-71.54972,41.72999],[-71.55513,41.73107],[-71.59822,41.72882],[-71.6048,41.72667],[-71.60469,41.72408],[-71.60658,41.72439],[-71.61623,41.71609],[-71.61585,41.72153],[-71.61396,41.72211],[-71.63762,41.72468],[-71.63849,41.72791],[-71.64663,41.72923]]]}},{"type":"Feature","id":"02910","properties":{"zip":"02910","pop":null,"city":"Cranston","county":"Providence","state":"Rhode Island","area":2.7,"lat":41.77557,"lon":-71.4359},"geometry":{"type":"Polygon","coordinates":[[[-71.45726,41.78397],[-71.45606,41.78715],[-71.44836,41.79326],[-71.43512,41.79402],[-71.43419,41.79036],[-71.43691,41.7897],[-71.43405,41.78631],[-71.42285,41.786],[-71.42317,41.7765],[-71.41897,41.77582],[-71.41691,41.7803],[-71.41489,41.78027],[-71.41218,41.76506],[-71.42009,41.76175],[-71.41872,41.76408],[-71.42199,41.76458],[-71.42622,41.76102],[-71.43297,41.75934],[-71.43377,41.76144],[-71.43883,41.75783],[-71.44204,41.75834],[-71.44991,41.76872],[-71.45378,41.77072],[-71.45411,41.77393],[-71.45159,41.7766],[-71.45726,41.78397]]]}},{"type":"Feature","id":"02915","properties":{"zip":"02915","pop":null,"city":"East Providence","county":"Providence","state":"Rhode Island","area":4.27,"lat":41.77719,"lon":-71.34914},"geometry":{"type":"Polygon","coordinates":[[[-71.37323,41.79027],[-71.36714,41.79396],[-71.36966,41.79616],[-71.36834,41.79876],[-71.35198,41.79557],[-71.3507,41.80308],[-71.34547,41.79898],[-71.34482,41.8012],[-71.34076,41.79956],[-71.3393,41.7963],[-71.3339,41.7945],[-71.3279,41.7805],[-71.31792,41.77616],[-71.3539,41.7513],[-71.35582,41.74506],[-71.3599,41.74506],[-71.36013,41.74949],[-71.36235,41.75089],[-71.36085,41.75517],[-71.3618,41.76066],[-71.36465,41.76474],[-71.36964,41.76456],[-71.36608,41.77112],[-71.36513,41.7775],[-71.36798,41.7807],[-71.37058,41.78087],[-71.37054,41.7875],[-71.37323,41.79027]]]}},{"type":"Feature","id":"02814","properties":{"zip":"02814","pop":null,"city":"Chepachet","county":"Providence","state":"Rhode Island","area":34.16,"lat":41.89962,"lon":-71.6989},"geometry":{"type":"Polygon","coordinates":[[[-71.79765,41.92865],[-71.67626,41.93159],[-71.67546,41.92962],[-71.67473,41.93163],[-71.59031,41.93366],[-71.5877,41.92149],[-71.58072,41.9165],[-71.57625,41.90508],[-71.57258,41.90246],[-71.58189,41.89467],[-71.59418,41.90199],[-71.60162,41.89706],[-71.59428,41.88778],[-71.59151,41.88711],[-71.5876,41.88946],[-71.58217,41.88359],[-71.58475,41.89178],[-71.58184,41.89437],[-71.57805,41.87509],[-71.57936,41.8731],[-71.58218,41.8738],[-71.58051,41.87342],[-71.58017,41.87588],[-71.5832,41.87694],[-71.58384,41.87407],[-71.58693,41.87498],[-71.58857,41.87232],[-71.59243,41.8769],[-71.58739,41.87788],[-71.58695,41.87953],[-71.58751,41.88006],[-71.59411,41.87718],[-71.59763,41.87824],[-71.60278,41.87374],[-71.6029,41.87844],[-71.60799,41.88271],[-71.60016,41.88466],[-71.60901,41.88856],[-71.61193,41.89224],[-71.61479,41.89229],[-71.62334,41.88865],[-71.62119,41.88656],[-71.62251,41.88023],[-71.62763,41.88482],[-71.62982,41.87967],[-71.64001,41.87897],[-71.63471,41.87392],[-71.63366,41.87038],[-71.63541,41.86705],[-71.64157,41.87038],[-71.64521,41.87754],[-71.64267,41.87909],[-71.64558,41.88035],[-71.65025,41.87912],[-71.65254,41.8831],[-71.65866,41.88169],[-71.66024,41.88461],[-71.66825,41.88348],[-71.66722,41.87614],[-71.67589,41.87357],[-71.6795,41.87677],[-71.684,41.87735],[-71.68224,41.87262],[-71.69271,41.86943],[-71.6929,41.87266],[-71.69969,41.87373],[-71.70382,41.88029],[-71.70659,41.87889],[-71.70739,41.88083],[-71.71561,41.87802],[-71.71668,41.87709],[-71.71354,41.87383],[-71.71411,41.87227],[-71.72242,41.87416],[-71.72149,41.86855],[-71.72292,41.86689],[-71.71968,41.86189],[-71.7199,41.8599],[-71.7249,41.85726],[-71.72435,41.85589],[-71.79469,41.85441],[-71.79765,41.92865]]]}},{"type":"Feature","id":"02881","properties":{"zip":"02881","pop":null,"city":"Kingston","county":"Washington","state":"Rhode Island","area":2.53,"lat":41.4825,"lon":-71.52719},"geometry":{"type":"Polygon","coordinates":[[[-71.54892,41.46701],[-71.53834,41.4795],[-71.54293,41.48017],[-71.541,41.48955],[-71.53617,41.49173],[-71.53311,41.50017],[-71.52055,41.49841],[-71.51951,41.50212],[-71.51213,41.50081],[-71.50984,41.48405],[-71.50606,41.48239],[-71.51839,41.48057],[-71.51773,41.47839],[-71.51382,41.47839],[-71.51387,41.47558],[-71.50951,41.47614],[-71.50936,41.47402],[-71.50726,41.47373],[-71.51066,41.47101],[-71.50972,41.46979],[-71.51361,41.46982],[-71.51264,41.4732],[-71.52048,41.47133],[-71.52047,41.46924],[-71.53325,41.46814],[-71.53878,41.46648],[-71.53964,41.46328],[-71.54239,41.46348],[-71.54235,41.46157],[-71.54504,41.4604],[-71.54892,41.46701]]]}},{"type":"Feature","id":"02825","properties":{"zip":"02825","pop":null,"city":"Foster Center","county":"Providence","state":"Rhode Island","area":41.89,"lat":41.78214,"lon":-71.72612},"geometry":{"type":"Polygon","coordinates":[[[-71.79469,41.85441],[-71.72621,41.856],[-71.72141,41.85213],[-71.71964,41.84045],[-71.71168,41.83414],[-71.707,41.83325],[-71.70671,41.83131],[-71.70287,41.83119],[-71.69905,41.82749],[-71.69626,41.83208],[-71.69719,41.8357],[-71.69442,41.83812],[-71.69291,41.83225],[-71.68603,41.8278],[-71.67589,41.77036],[-71.67196,41.76826],[-71.67335,41.7549],[-71.67163,41.75424],[-71.67177,41.75786],[-71.6679,41.75762],[-71.66593,41.76508],[-71.64508,41.7711],[-71.63284,41.77003],[-71.63325,41.76811],[-71.62953,41.77016],[-71.62472,41.76976],[-71.6221,41.76681],[-71.61294,41.77265],[-71.61015,41.76827],[-71.61108,41.76251],[-71.60369,41.76203],[-71.60278,41.75957],[-71.60613,41.75747],[-71.60723,41.75116],[-71.62196,41.75368],[-71.62619,41.75015],[-71.6222,41.74424],[-71.62849,41.74133],[-71.63319,41.74326],[-71.64294,41.74034],[-71.64354,41.73434],[-71.64663,41.72923],[-71.64491,41.72779],[-71.78969,41.7252],[-71.79469,41.85441]]]}},{"type":"Feature","id":"02865","properties":{"zip":"02865","pop":null,"city":"","county":"Providence","state":"Rhode Island","area":12.86,"lat":41.91248,"lon":-71.44818},"geometry":{"type":"Polygon","coordinates":[[[-71.49079,41.94324],[-71.48823,41.94439],[-71.4853,41.94251],[-71.48433,41.9456],[-71.48744,41.94711],[-71.48813,41.95487],[-71.4852,41.95631],[-71.48729,41.95846],[-71.48699,41.96123],[-71.47954,41.95801],[-71.46828,41.94809],[-71.47155,41.95565],[-71.47151,41.95996],[-71.46872,41.95702],[-71.46298,41.9571],[-71.45724,41.95399],[-71.46236,41.95216],[-71.46191,41.95062],[-71.45489,41.95075],[-71.45148,41.9435],[-71.45195,41.94832],[-71.44908,41.94702],[-71.44854,41.94874],[-71.45086,41.94936],[-71.45229,41.95183],[-71.45058,41.94957],[-71.44289,41.94766],[-71.43095,41.93464],[-71.43094,41.92699],[-71.42901,41.92406],[-71.4217,41.92215],[-71.40539,41.911],[-71.39876,41.91197],[-71.39716,41.91036],[-71.40067,41.90184],[-71.3943,41.89765],[-71.40469,41.89478],[-71.40705,41.89191],[-71.40371,41.88106],[-71.46676,41.87277],[-71.48109,41.91477],[-71.47925,41.91537],[-71.4827,41.919],[-71.49079,41.94324]]]}},{"type":"Feature","id":"02895","properties":{"zip":"02895","pop":null,"city":"Woonsocket","county":"Providence","state":"Rhode Island","area":5.78,"lat":42.00076,"lon":-71.49932},"geometry":{"type":"Polygon","coordinates":[[[-71.53985,42.00987],[-71.52966,42.00983],[-71.52912,42.01497],[-71.45412,42.01782],[-71.45822,42.01621],[-71.45989,42.00757],[-71.48736,41.97908],[-71.51807,41.9837],[-71.53175,41.98957],[-71.53985,42.00987]]]}},{"type":"Feature","id":"02892","properties":{"zip":"02892","pop":null,"city":"","county":"Washington","state":"Rhode Island","area":21.03,"lat":41.50235,"lon":-71.60174},"geometry":{"type":"Polygon","coordinates":[[[-71.66032,41.5143],[-71.6444,41.51267],[-71.63918,41.52804],[-71.63908,41.53598],[-71.64115,41.53863],[-71.65173,41.53465],[-71.65228,41.53603],[-71.64753,41.54018],[-71.64247,41.5413],[-71.64617,41.54796],[-71.64401,41.55245],[-71.64611,41.55978],[-71.6274,41.57865],[-71.62589,41.57849],[-71.62072,41.56423],[-71.61274,41.56066],[-71.61005,41.5568],[-71.60466,41.55906],[-71.60555,41.55687],[-71.6028,41.54808],[-71.60971,41.54632],[-71.6063,41.53913],[-71.60578,41.52712],[-71.60253,41.5237],[-71.60338,41.52271],[-71.53053,41.50375],[-71.52645,41.51108],[-71.51786,41.5091],[-71.5178,41.50183],[-71.51951,41.50212],[-71.52055,41.49841],[-71.53311,41.50017],[-71.53617,41.49173],[-71.541,41.48955],[-71.54293,41.48017],[-71.53834,41.4795],[-71.54035,41.47566],[-71.54533,41.46947],[-71.55461,41.4631],[-71.56431,41.464],[-71.5656,41.46594],[-71.58062,41.4667],[-71.59953,41.45268],[-71.59559,41.44874],[-71.60973,41.45238],[-71.61619,41.45029],[-71.61847,41.46219],[-71.62015,41.46167],[-71.61901,41.45446],[-71.62472,41.45285],[-71.62356,41.45132],[-71.62497,41.44698],[-71.63002,41.44695],[-71.63197,41.44721],[-71.63252,41.4488],[-71.6295,41.44965],[-71.62613,41.45927],[-71.62856,41.46778],[-71.6359,41.46956],[-71.63517,41.47879],[-71.63959,41.47863],[-71.64318,41.48675],[-71.64906,41.49119],[-71.64758,41.49514],[-71.65043,41.49877],[-71.64428,41.50099],[-71.65268,41.50225],[-71.65954,41.50042],[-71.66032,41.5143]]]}},{"type":"Feature","id":"02885","properties":{"zip":"02885","pop":null,"city":"","county":"Bristol","state":"Rhode Island","area":5.62,"lat":41.72829,"lon":-71.26288},"geometry":{"type":"Polygon","coordinates":[[[-71.29285,41.71176],[-71.28929,41.716],[-71.2876,41.72295],[-71.28729,41.7285],[-71.2898,41.73381],[-71.28659,41.7424],[-71.2844,41.76201],[-71.26139,41.7523],[-71.2248,41.7105],[-71.22787,41.7055],[-71.24099,41.69774],[-71.24369,41.69839],[-71.25153,41.71541],[-71.29138,41.70955],[-71.29404,41.71028],[-71.29285,41.71176]]]}},{"type":"Feature","id":"02840","properties":{"zip":"02840","pop":null,"city":"Newport","county":"Newport","state":"Rhode Island","area":5.94,"lat":41.47931,"lon":-71.31965},"geometry":{"type":"MultiPolygon","coordinates":[[[[-71.32757,41.45287],[-71.32635,41.45471],[-71.3243,41.45392],[-71.32565,41.45211],[-71.32757,41.45287]]],[[[-71.32883,41.49233],[-71.32696,41.49312],[-71.32537,41.4876],[-71.32782,41.48298],[-71.32883,41.49233]]],[[[-71.36291,41.46175],[-71.36119,41.46462],[-71.35827,41.46443],[-71.35277,41.46925],[-71.3479,41.47059],[-71.33644,41.48199],[-71.33438,41.4782],[-71.33599,41.46965],[-71.31652,41.47756],[-71.31807,41.48776],[-71.32115,41.48812],[-71.32282,41.49115],[-71.32207,41.50026],[-71.32321,41.50572],[-71.32526,41.50654],[-71.32452,41.51194],[-71.31947,41.51316],[-71.32185,41.51779],[-71.3127,41.5214],[-71.31178,41.5177],[-71.30996,41.51768],[-71.28567,41.48897],[-71.29739,41.48479],[-71.29685,41.46913],[-71.30141,41.46728],[-71.30398,41.46372],[-71.30276,41.45975],[-71.30439,41.4545],[-71.31017,41.45112],[-71.31205,41.45138],[-71.31098,41.45511],[-71.31256,41.4565],[-71.31691,41.45479],[-71.32033,41.45978],[-71.32375,41.46013],[-71.32691,41.45894],[-71.33476,41.44952],[-71.33804,41.44953],[-71.33793,41.45169],[-71.34418,41.45403],[-71.35361,41.44975],[-71.35616,41.45054],[-71.3588,41.45966],[-71.36291,41.46175]]]]}},{"type":"Feature","id":"02817","properties":{"zip":"02817","pop":null,"city":"","county":"Kent","state":"Rhode Island","area":38.55,"lat":41.62913,"lon":-71.66681},"geometry":{"type":"Polygon","coordinates":[[[-71.78936,41.59691],[-71.787,41.65612],[-71.54711,41.66185],[-71.54481,41.60199],[-71.78936,41.59691]]]}},{"type":"Feature","id":"02893","properties":{"zip":"02893","pop":null,"city":"","county":"Kent","state":"Rhode Island","area":6.08,"lat":41.69857,"lon":-71.51597},"geometry":{"type":"Polygon","coordinates":[[[-71.53436,41.72457],[-71.53429,41.73017],[-71.48391,41.7316],[-71.4858,41.72613],[-71.49028,41.72123],[-71.49054,41.71752],[-71.49289,41.71783],[-71.49712,41.71317],[-71.50488,41.71139],[-71.51263,41.70679],[-71.51891,41.6959],[-71.50168,41.69647],[-71.49922,41.66295],[-71.53338,41.66216],[-71.53436,41.72457]]]}}]}