{"type":"FeatureCollection","name":"zctas_66","features":[{"type":"Feature","id":"96915","properties":{"zip":"96915","pop":null,"city":"Apra Harbor","county":"Guam","state":"Guam","area":88.64,"lat":13.37536,"lon":144.70715},"geometry":{"type":"Polygon","coordinates":[[[144.61807,13.44781],[144.62657,13.45773],[144.63834,13.46479],[144.66294,13.46592],[144.67537,13.4631],[144.68625,13.4679],[144.68983,13.46363],[144.70253,13.46828],[144.70667,13.47167],[144.70932,13.46211],[144.70735,13.45972],[144.71112,13.43512],[144.71706,13.44011],[144.72463,13.44343],[144.72817,13.44271],[144.72842,13.44447],[144.73307,13.44022],[144.73776,13.44013],[144.73687,13.43827],[144.74049,13.43504],[144.74349,13.43645],[144.75163,13.43472],[144.75655,13.43718],[144.76492,13.42994],[144.76565,13.42647],[144.7691,13.42653],[144.76949,13.42421],[144.77513,13.42369],[144.77875,13.42004],[144.78191,13.42296],[144.78395,13.42163],[144.78522,13.41653],[144.78891,13.41352],[144.7852,13.41091],[144.7808,13.39932],[144.77674,13.39576],[144.77268,13.39534],[144.77156,13.39305],[144.77596,13.38711],[144.77016,13.36638],[144.77246,13.34348],[144.77126,13.3356],[144.76186,13.32914],[144.75807,13.32269],[144.75545,13.31394],[144.75768,13.30796],[144.75654,13.30265],[144.75161,13.29923],[144.75516,13.29179],[144.75405,13.28727],[144.73981,13.28971],[144.73772,13.28661],[144.73752,13.27887],[144.73615,13.27857],[144.72298,13.28298],[144.72126,13.28001],[144.71389,13.28247],[144.71113,13.27967],[144.70018,13.28437],[144.69399,13.28339],[144.692,13.28186],[144.69276,13.27886],[144.67882,13.28387],[144.67889,13.28683],[144.67318,13.28356],[144.66854,13.28647],[144.66268,13.28542],[144.6622,13.2837],[144.65924,13.28683],[144.65751,13.29319],[144.66289,13.29818],[144.65672,13.3025],[144.65824,13.30553],[144.65493,13.3073],[144.65307,13.3132],[144.65752,13.31495],[144.65741,13.31645],[144.65197,13.31906],[144.65026,13.32222],[144.65201,13.32861],[144.64961,13.32884],[144.64591,13.33641],[144.63609,13.34116],[144.67093,13.32992],[144.66397,13.33976],[144.66608,13.34144],[144.66938,13.33923],[144.67202,13.34518],[144.66849,13.34955],[144.66856,13.35596],[144.65848,13.356],[144.6577,13.35767],[144.65452,13.35721],[144.65456,13.36226],[144.64961,13.3615],[144.65254,13.37282],[144.65418,13.36961],[144.6687,13.36938],[144.66954,13.3812],[144.66808,13.38432],[144.66277,13.38291],[144.66051,13.38753],[144.66173,13.3931],[144.66479,13.39416],[144.66303,13.39516],[144.66415,13.39793],[144.66133,13.40827],[144.65845,13.41246],[144.65567,13.41461],[144.64876,13.41536],[144.6478,13.41777],[144.63983,13.42103],[144.63852,13.42928],[144.63289,13.43443],[144.62424,13.43774],[144.61807,13.44781]]]}},{"type":"Feature","id":"96917","properties":{"zip":"96917","pop":null,"city":"Malojloj","county":"Guam","state":"Guam","area":8.43,"lat":13.28447,"lon":144.73977},"geometry":{"type":"Polygon","coordinates":[[[144.692,13.28186],[144.70018,13.28437],[144.71113,13.27967],[144.71389,13.28247],[144.72126,13.28001],[144.72298,13.28298],[144.73615,13.27857],[144.73752,13.27887],[144.73772,13.28661],[144.73981,13.28971],[144.75405,13.28727],[144.75516,13.29179],[144.75161,13.29923],[144.75654,13.30265],[144.75768,13.30796],[144.75545,13.31394],[144.75807,13.32269],[144.76186,13.32914],[144.77126,13.3356],[144.77239,13.30645],[144.76907,13.29583],[144.76446,13.29043],[144.76308,13.28452],[144.76138,13.28279],[144.7581,13.28316],[144.75902,13.27937],[144.75443,13.27558],[144.74862,13.27917],[144.74743,13.2766],[144.75017,13.27268],[144.73755,13.26816],[144.74194,13.26606],[144.74208,13.26424],[144.73787,13.26264],[144.73301,13.25336],[144.72601,13.24757],[144.72312,13.24706],[144.71781,13.25188],[144.71714,13.25792],[144.71223,13.26196],[144.70941,13.26998],[144.70561,13.26943],[144.69913,13.27609],[144.69411,13.27715],[144.692,13.28186]]]}},{"type":"Feature","id":"96913","properties":{"zip":"96913","pop":null,"city":"Pagat","county":"Guam","state":"Guam","area":24.09,"lat":13.47843,"lon":144.81519},"geometry":{"type":"Polygon","coordinates":[[[144.7676,13.47998],[144.77477,13.48887],[144.77452,13.49424],[144.77005,13.49516],[144.76912,13.49966],[144.77235,13.50448],[144.78136,13.50798],[144.78974,13.50397],[144.79767,13.50633],[144.8049,13.51544],[144.80634,13.51953],[144.80322,13.52225],[144.80212,13.53579],[144.80668,13.54078],[144.80756,13.53939],[144.81085,13.54077],[144.81796,13.51428],[144.82247,13.51438],[144.82426,13.5108],[144.81975,13.50926],[144.8213,13.50513],[144.82019,13.49848],[144.82351,13.50119],[144.82508,13.49924],[144.83463,13.49975],[144.83462,13.49793],[144.87083,13.49969],[144.87084,13.49229],[144.86901,13.49055],[144.87087,13.48605],[144.86987,13.48267],[144.8506,13.46327],[144.84598,13.46279],[144.83578,13.45449],[144.83006,13.44591],[144.82593,13.44276],[144.81812,13.44169],[144.81005,13.43305],[144.8076,13.42744],[144.80514,13.42643],[144.79675,13.42835],[144.79279,13.42651],[144.79255,13.43791],[144.78959,13.44068],[144.78575,13.44088],[144.78405,13.45887],[144.78132,13.46126],[144.78439,13.46171],[144.78574,13.46612],[144.77849,13.47791],[144.7729,13.47826],[144.7767,13.48106],[144.77965,13.4799],[144.77971,13.48171],[144.77339,13.48206],[144.7676,13.47998]]]}},{"type":"Feature","id":"96916","properties":{"zip":"96916","pop":null,"city":"Malesso'","county":"Guam","state":"Guam","area":5.85,"lat":13.26608,"lon":144.68903},"geometry":{"type":"Polygon","coordinates":[[[144.66249,13.27348],[144.66268,13.28542],[144.66854,13.28647],[144.67318,13.28356],[144.67889,13.28683],[144.67882,13.28387],[144.69913,13.27609],[144.70561,13.26943],[144.70941,13.26998],[144.71223,13.26196],[144.71714,13.25792],[144.71907,13.25112],[144.7062,13.24626],[144.68905,13.25101],[144.68672,13.25647],[144.67732,13.25459],[144.67434,13.25794],[144.67339,13.26262],[144.66461,13.26766],[144.66189,13.27143],[144.66249,13.27348]]]}},{"type":"Feature","id":"96928","properties":{"zip":"96928","pop":null,"city":"H\u00e5gat","county":"Guam","state":"Guam","area":4.0,"lat":13.35627,"lon":144.65738},"geometry":{"type":"Polygon","coordinates":[[[144.6361,13.34161],[144.63934,13.3431],[144.64309,13.34867],[144.65236,13.37281],[144.65192,13.37817],[144.65589,13.3862],[144.65945,13.3893],[144.66289,13.39845],[144.66415,13.39793],[144.66303,13.39516],[144.66479,13.39416],[144.66173,13.3931],[144.66051,13.38753],[144.66277,13.38291],[144.66808,13.38432],[144.66954,13.3812],[144.6687,13.36938],[144.65418,13.36961],[144.65254,13.37282],[144.64961,13.3615],[144.65456,13.36226],[144.65452,13.35721],[144.6577,13.35767],[144.65848,13.356],[144.66856,13.35596],[144.66849,13.34955],[144.67202,13.34518],[144.66938,13.33923],[144.66608,13.34144],[144.66397,13.33976],[144.67093,13.32992],[144.6361,13.34161]]]}},{"type":"Feature","id":"96929","properties":{"zip":"96929","pop":null,"city":"Anao","county":"Guam","state":"Guam","area":64.6,"lat":13.5652,"lon":144.87648},"geometry":{"type":"Polygon","coordinates":[[[144.80668,13.54078],[144.81094,13.54811],[144.81197,13.55473],[144.81724,13.55829],[144.82161,13.56929],[144.83182,13.57859],[144.831,13.58214],[144.83653,13.59447],[144.83669,13.62414],[144.84655,13.63681],[144.85166,13.64827],[144.85853,13.65397],[144.86825,13.6526],[144.8788,13.64573],[144.89941,13.62199],[144.90554,13.60696],[144.90785,13.60532],[144.92827,13.60017],[144.93131,13.60178],[144.93705,13.60016],[144.95113,13.60099],[144.95671,13.59817],[144.94875,13.57524],[144.94034,13.56805],[144.93837,13.56086],[144.94017,13.55262],[144.93235,13.53889],[144.93221,13.53394],[144.92669,13.52205],[144.9153,13.51625],[144.90156,13.51235],[144.89597,13.50699],[144.89181,13.50625],[144.89199,13.49827],[144.88373,13.49071],[144.87686,13.48969],[144.87087,13.48605],[144.86901,13.49055],[144.87084,13.49229],[144.87083,13.49969],[144.83462,13.49793],[144.83463,13.49975],[144.82508,13.49924],[144.82351,13.50119],[144.82019,13.49848],[144.8213,13.50513],[144.81975,13.50926],[144.82426,13.5108],[144.82247,13.51438],[144.81796,13.51428],[144.81085,13.54077],[144.80756,13.53939],[144.80668,13.54078]]]}},{"type":"Feature","id":"96910","properties":{"zip":"96910","pop":null,"city":"Ordot","county":"Guam","state":"Guam","area":15.41,"lat":13.45466,"lon":144.75156},"geometry":{"type":"Polygon","coordinates":[[[144.70678,13.47613],[144.71713,13.47343],[144.72864,13.47896],[144.72927,13.48092],[144.73126,13.47863],[144.74382,13.47762],[144.75077,13.47773],[144.75411,13.48085],[144.75461,13.47771],[144.76925,13.47954],[144.77339,13.48206],[144.77971,13.48171],[144.77965,13.4799],[144.7767,13.48106],[144.7729,13.47826],[144.77849,13.47791],[144.78574,13.46612],[144.78439,13.46171],[144.78132,13.46126],[144.78405,13.45887],[144.78575,13.44088],[144.78959,13.44068],[144.79255,13.43791],[144.79279,13.42651],[144.77788,13.4202],[144.77824,13.42188],[144.77513,13.42369],[144.76565,13.42647],[144.76492,13.42994],[144.75655,13.43718],[144.75163,13.43472],[144.74349,13.43645],[144.74049,13.43504],[144.73687,13.43827],[144.73776,13.44013],[144.73307,13.44022],[144.72842,13.44447],[144.72817,13.44271],[144.72463,13.44343],[144.71706,13.44011],[144.71112,13.43512],[144.70678,13.47613]]]}}]}