{"type":"FeatureCollection","name":"zctas_69","features":[{"type":"Feature","id":"96951","properties":{"zip":"96951","pop":null,"city":"Sinapalo","county":"Rota","state":"Commonwealth of the Northern Mariana Islands","area":31.96,"lat":14.15718,"lon":145.21451},"geometry":{"type":"Polygon","coordinates":[[[145.12116,14.12064],[145.12309,14.12719],[145.14236,14.1442],[145.14561,14.15167],[145.15758,14.16361],[145.15967,14.16808],[145.17382,14.16701],[145.19644,14.17409],[145.22112,14.19051],[145.24127,14.20024],[145.27559,14.19631],[145.28824,14.19235],[145.29,14.19],[145.29004,14.18628],[145.28434,14.17536],[145.28335,14.16067],[145.26988,14.15216],[145.26054,14.15472],[145.24108,14.15137],[145.23012,14.14096],[145.22888,14.13515],[145.23085,14.13132],[145.22151,14.12601],[145.21876,14.12011],[145.21247,14.11529],[145.2047,14.11588],[145.1986,14.11274],[145.19526,14.11519],[145.18415,14.11618],[145.17894,14.1147],[145.17569,14.11106],[145.16989,14.11057],[145.16714,14.11224],[145.16936,14.11903],[145.16458,14.13024],[145.1518,14.13781],[145.14423,14.13958],[145.13745,14.13456],[145.12819,14.12079],[145.12276,14.11744],[145.12116,14.12064]]]}},{"type":"Feature","id":"96950","properties":{"zip":"96950","pop":null,"city":"Talafofo","county":"Saipan","state":"Commonwealth of the Northern Mariana Islands","area":44.33,"lat":15.18878,"lon":145.75338},"geometry":{"type":"MultiPolygon","coordinates":[[[[145.81307,15.25791],[145.81449,15.25819],[145.81433,15.2566],[145.81344,15.25646],[145.81307,15.25791]]],[[[145.79001,15.15063],[145.79094,15.15151],[145.7926,15.14951],[145.79011,15.14932],[145.79001,15.15063]]],[[[145.71158,15.24227],[145.71373,15.24111],[145.71306,15.24001],[145.71153,15.24066],[145.71158,15.24227]]],[[[145.69014,15.12021],[145.69402,15.12421],[145.69237,15.13046],[145.70049,15.14782],[145.70024,15.15677],[145.70814,15.16432],[145.71413,15.18293],[145.71703,15.19599],[145.7155,15.21425],[145.71709,15.21924],[145.72026,15.21943],[145.7219,15.21688],[145.72958,15.21862],[145.73146,15.21987],[145.73051,15.22236],[145.73226,15.22498],[145.73505,15.22711],[145.73846,15.22629],[145.74047,15.22898],[145.73985,15.23132],[145.74482,15.23303],[145.74714,15.23724],[145.75356,15.24229],[145.76258,15.24464],[145.76952,15.25009],[145.7775,15.25291],[145.78178,15.25709],[145.78652,15.26669],[145.8102,15.28968],[145.81887,15.28649],[145.83042,15.27163],[145.82816,15.26153],[145.82462,15.25908],[145.81484,15.26141],[145.8107,15.25869],[145.81165,15.25271],[145.80735,15.24412],[145.80983,15.24077],[145.80642,15.23706],[145.80249,15.23642],[145.7984,15.22907],[145.79268,15.22796],[145.78226,15.21582],[145.77874,15.2089],[145.7817,15.20355],[145.78128,15.19829],[145.77752,15.19418],[145.77811,15.18936],[145.78163,15.18286],[145.78454,15.18199],[145.78676,15.17339],[145.79612,15.16686],[145.79207,15.16352],[145.78828,15.15048],[145.77457,15.15151],[145.77035,15.15548],[145.76748,15.1619],[145.76154,15.16363],[145.74954,15.15899],[145.74085,15.13924],[145.74567,15.12791],[145.75659,15.12085],[145.7563,15.11274],[145.75266,15.10661],[145.75048,15.0934],[145.74881,15.09192],[145.74685,15.09291],[145.74516,15.09993],[145.74065,15.1051],[145.71739,15.10783],[145.70808,15.10603],[145.70502,15.11234],[145.69014,15.12021]]]]}},{"type":"Feature","id":"96952","properties":{"zip":"96952","pop":null,"city":"Northern Tinian","county":"Tinian","state":"Commonwealth of the Northern Mariana Islands","area":37.48,"lat":15.01339,"lon":145.63148},"geometry":{"type":"Polygon","coordinates":[[[145.58241,15.01778],[145.58893,15.03686],[145.59202,15.03674],[145.59685,15.04063],[145.59899,15.05042],[145.59682,15.05348],[145.60261,15.0574],[145.61804,15.07639],[145.63264,15.08758],[145.6418,15.09915],[145.64526,15.10078],[145.65633,15.08571],[145.65493,15.06757],[145.65646,15.06163],[145.65461,15.0606],[145.65801,15.06105],[145.65883,15.05784],[145.64778,15.0468],[145.64861,15.03361],[145.6558,15.02034],[145.65934,15.01798],[145.66598,15.01803],[145.67357,15.00653],[145.66774,14.98261],[145.66381,14.97699],[145.66538,14.97067],[145.66152,14.96496],[145.66124,14.95842],[145.66545,14.94984],[145.66483,14.94828],[145.65995,14.94877],[145.6541,14.94558],[145.65136,14.94147],[145.65231,14.9377],[145.64225,14.92426],[145.63436,14.9232],[145.63092,14.92797],[145.62854,14.94337],[145.63175,14.9541],[145.62593,14.96509],[145.6223,14.96454],[145.61343,14.97137],[145.61301,14.98132],[145.60894,14.98594],[145.60831,14.99108],[145.6031,14.99232],[145.59258,14.99001],[145.58489,14.9959],[145.58874,15.00952],[145.58241,15.01778]]]}}]}