{"type":"FeatureCollection","name":"zctas_78","features":[{"type":"Feature","id":"00802","properties":{"zip":"00802","pop":null,"city":"Charlotte Amalie West","county":"St. Thomas","state":"United States Virgin Islands","area":28.2,"lat":18.34356,"lon":-64.92842},"geometry":{"type":"MultiPolygon","coordinates":[[[[-64.81765,18.29649],[-64.81456,18.2962],[-64.81423,18.29528],[-64.81654,18.29459],[-64.81765,18.29649]]],[[[-64.82878,18.29965],[-64.82897,18.30122],[-64.82403,18.30323],[-64.82174,18.29805],[-64.82818,18.29753],[-64.82878,18.29965]]],[[[-64.83298,18.30721],[-64.83065,18.30922],[-64.83228,18.31448],[-64.83092,18.31541],[-64.82623,18.31254],[-64.82269,18.31294],[-64.82965,18.30565],[-64.83208,18.30496],[-64.83298,18.30721]]],[[[-64.86558,18.31394],[-64.86409,18.31429],[-64.86374,18.31367],[-64.86544,18.31296],[-64.86558,18.31394]]],[[[-64.8688,18.3157],[-64.86741,18.31597],[-64.86676,18.31516],[-64.86856,18.31461],[-64.8688,18.3157]]],[[[-64.8692,18.30849],[-64.86829,18.30904],[-64.86219,18.30725],[-64.8655,18.30559],[-64.8692,18.30849]]],[[[-64.87462,18.36082],[-64.86904,18.3617],[-64.85701,18.35977],[-64.85134,18.36112],[-64.84814,18.35763],[-64.85136,18.35553],[-64.87454,18.35924],[-64.87462,18.36082]]],[[[-64.93912,18.33419],[-64.93615,18.3359],[-64.93491,18.33035],[-64.9318,18.32885],[-64.93035,18.32593],[-64.93285,18.32309],[-64.93912,18.33419]]],[[[-64.96089,18.31373],[-64.95642,18.31623],[-64.95818,18.31929],[-64.95224,18.32268],[-64.94682,18.32901],[-64.94267,18.32785],[-64.94026,18.31814],[-64.9424,18.31799],[-64.94468,18.32129],[-64.95135,18.31966],[-64.95294,18.30989],[-64.95555,18.30661],[-64.9601,18.30775],[-64.96009,18.30983],[-64.95548,18.31132],[-64.95574,18.31269],[-64.96089,18.31373]]],[[[-64.97464,18.40106],[-64.96865,18.39497],[-64.96825,18.39261],[-64.97094,18.3916],[-64.97412,18.39333],[-64.97464,18.40106]]],[[[-64.97571,18.38615],[-64.96773,18.38421],[-64.96579,18.37669],[-64.97319,18.38084],[-64.97571,18.38615]]],[[[-65.04158,18.35336],[-65.03489,18.35285],[-65.03189,18.35754],[-65.03304,18.3598],[-65.02786,18.36],[-65.02701,18.36182],[-65.01798,18.3603],[-65.00656,18.36253],[-65.00601,18.3678],[-64.99439,18.36132],[-64.9899,18.37162],[-64.97411,18.37191],[-64.96718,18.36866],[-64.96343,18.37077],[-64.95192,18.36918],[-64.95206,18.37621],[-64.94855,18.37238],[-64.94247,18.36969],[-64.9398,18.3641],[-64.92729,18.35882],[-64.92206,18.36634],[-64.93482,18.37648],[-64.93837,18.38022],[-64.93726,18.3815],[-64.92599,18.37501],[-64.92132,18.3701],[-64.91516,18.36785],[-64.91406,18.3656],[-64.90299,18.36475],[-64.89698,18.36059],[-64.89158,18.3625],[-64.88938,18.35422],[-64.88403,18.35565],[-64.87776,18.35087],[-64.87298,18.35201],[-64.86792,18.34979],[-64.86347,18.35032],[-64.86332,18.34865],[-64.86773,18.34763],[-64.86786,18.34619],[-64.86223,18.34404],[-64.85681,18.33844],[-64.85083,18.33968],[-64.85116,18.33548],[-64.84498,18.33057],[-64.84614,18.32833],[-64.85435,18.32425],[-64.85409,18.32234],[-64.84831,18.32453],[-64.84601,18.32326],[-64.83837,18.32683],[-64.83184,18.32477],[-64.84238,18.32296],[-64.84288,18.32112],[-64.83821,18.31879],[-64.83682,18.31598],[-64.84483,18.31726],[-64.84375,18.31322],[-64.84527,18.31176],[-64.85536,18.31964],[-64.86554,18.31591],[-64.86664,18.32138],[-64.87277,18.31339],[-64.87619,18.31678],[-64.88243,18.31654],[-64.88135,18.31332],[-64.87691,18.31194],[-64.87657,18.30978],[-64.8718,18.30959],[-64.8704,18.30682],[-64.87037,18.30443],[-64.87338,18.30579],[-64.878,18.30281],[-64.87998,18.3074],[-64.88647,18.30914],[-64.89,18.31345],[-64.8939,18.31192],[-64.89605,18.31311],[-64.89863,18.30976],[-64.90241,18.31203],[-64.90586,18.31108],[-64.90774,18.31479],[-64.91752,18.31957],[-64.92289,18.31978],[-64.92139,18.32499],[-64.92413,18.3275],[-64.92455,18.33137],[-64.91938,18.3348],[-64.92741,18.34028],[-64.93833,18.33918],[-64.94084,18.33471],[-64.94301,18.33423],[-64.9471,18.33606],[-64.95233,18.33485],[-64.95679,18.32729],[-64.96119,18.33015],[-64.96236,18.32457],[-64.96495,18.32531],[-64.96553,18.32766],[-64.96389,18.33508],[-64.96869,18.33581],[-64.97214,18.33018],[-64.97507,18.33548],[-64.98372,18.33543],[-64.98406,18.3377],[-64.9759,18.33814],[-64.97575,18.33943],[-64.97745,18.34389],[-64.98567,18.34631],[-64.98766,18.35007],[-64.99574,18.35153],[-65.00164,18.34629],[-65.01154,18.34227],[-65.01566,18.34548],[-65.02189,18.34384],[-65.02254,18.3415],[-65.02646,18.3413],[-65.04158,18.35336]]],[[[-65.04815,18.3603],[-65.04332,18.35925],[-65.04425,18.35661],[-65.04603,18.35666],[-65.04815,18.3603]]],[[[-65.05599,18.36313],[-65.05008,18.36277],[-65.05079,18.35908],[-65.05201,18.3593],[-65.05599,18.36313]]]]}},{"type":"Feature","id":"00830","properties":{"zip":"00830","pop":null,"city":"Cruz Bay","county":"St. John","state":"United States Virgin Islands","area":18.4,"lat":18.33865,"lon":-64.73812},"geometry":{"type":"MultiPolygon","coordinates":[[[[-64.6903,18.31676],[-64.68932,18.31758],[-64.68648,18.31561],[-64.68778,18.31483],[-64.6903,18.31676]]],[[[-64.75741,18.35727],[-64.75579,18.35729],[-64.75589,18.35571],[-64.757,18.3558],[-64.75741,18.35727]]],[[[-64.79864,18.32825],[-64.79862,18.33088],[-64.794,18.33293],[-64.79815,18.33467],[-64.798,18.33694],[-64.78661,18.34264],[-64.78866,18.34569],[-64.78624,18.35312],[-64.78453,18.35271],[-64.78447,18.34763],[-64.78046,18.34602],[-64.77715,18.34774],[-64.7777,18.35356],[-64.77438,18.35322],[-64.77323,18.3511],[-64.76958,18.35168],[-64.76903,18.35555],[-64.76549,18.3559],[-64.75969,18.35243],[-64.7536,18.3548],[-64.75133,18.35767],[-64.74661,18.35568],[-64.74455,18.35751],[-64.7445,18.36696],[-64.75091,18.36831],[-64.75227,18.37042],[-64.74884,18.3729],[-64.73396,18.36987],[-64.73486,18.36671],[-64.73981,18.36635],[-64.73759,18.36425],[-64.72665,18.36427],[-64.72248,18.36226],[-64.7201,18.36314],[-64.72022,18.36715],[-64.71442,18.36728],[-64.70795,18.3651],[-64.70449,18.36067],[-64.69126,18.36111],[-64.68741,18.35862],[-64.68731,18.35495],[-64.68039,18.35227],[-64.67853,18.34774],[-64.67201,18.34978],[-64.66951,18.34815],[-64.66976,18.34473],[-64.66301,18.34496],[-64.66088,18.34293],[-64.66112,18.34025],[-64.66353,18.33871],[-64.66209,18.33399],[-64.66615,18.33773],[-64.66865,18.33139],[-64.67094,18.33012],[-64.67672,18.33219],[-64.67432,18.34215],[-64.67969,18.34414],[-64.68117,18.34676],[-64.68653,18.34679],[-64.69074,18.33992],[-64.69277,18.34015],[-64.69181,18.34306],[-64.69326,18.3451],[-64.6886,18.34996],[-64.69333,18.35184],[-64.69015,18.35582],[-64.69133,18.35667],[-64.69833,18.35327],[-64.70204,18.35523],[-64.70411,18.354],[-64.7052,18.34798],[-64.70209,18.34487],[-64.70516,18.3407],[-64.70833,18.34102],[-64.7103,18.34651],[-64.71543,18.3461],[-64.71227,18.33578],[-64.70857,18.33488],[-64.7054,18.33034],[-64.70004,18.33015],[-64.70038,18.32357],[-64.69738,18.32203],[-64.70213,18.31788],[-64.70073,18.3133],[-64.70262,18.31119],[-64.70019,18.30312],[-64.70312,18.2982],[-64.7031,18.30325],[-64.70692,18.30629],[-64.70532,18.30906],[-64.71178,18.3068],[-64.71754,18.31201],[-64.72131,18.30758],[-64.72255,18.31256],[-64.7208,18.31371],[-64.72072,18.31889],[-64.72806,18.31974],[-64.73391,18.31499],[-64.74804,18.32458],[-64.75962,18.31624],[-64.76268,18.31806],[-64.76209,18.32097],[-64.76569,18.32269],[-64.76539,18.31156],[-64.76788,18.31229],[-64.76858,18.31986],[-64.77294,18.3209],[-64.77559,18.3166],[-64.77985,18.31652],[-64.78135,18.31456],[-64.77961,18.31265],[-64.78048,18.31088],[-64.7846,18.31366],[-64.78388,18.31796],[-64.78866,18.3143],[-64.79096,18.31496],[-64.79179,18.31774],[-64.78651,18.32071],[-64.78715,18.32261],[-64.78857,18.32359],[-64.79391,18.32119],[-64.79612,18.32592],[-64.79949,18.32685],[-64.79864,18.32825]]],[[[-64.81278,18.36205],[-64.8012,18.3654],[-64.79835,18.36356],[-64.80152,18.36036],[-64.80659,18.36082],[-64.80917,18.3587],[-64.81278,18.36205]]]]}},{"type":"Feature","id":"00851","properties":{"zip":"00851","pop":null,"city":"","county":"St. Croix","state":"United States Virgin Islands","area":0.35,"lat":17.74755,"lon":-64.78749},"geometry":{"type":"Polygon","coordinates":[[[-64.79346,17.7495],[-64.78223,17.75323],[-64.78052,17.7482],[-64.78616,17.75001],[-64.78268,17.74729],[-64.78577,17.74529],[-64.78505,17.74309],[-64.79076,17.74134],[-64.79346,17.7495]]]}},{"type":"Feature","id":"00820","properties":{"zip":"00820","pop":null,"city":"","county":"St. Croix","state":"United States Virgin Islands","area":41.28,"lat":17.73875,"lon":-64.70673},"geometry":{"type":"MultiPolygon","coordinates":[[[[-64.70362,17.75062],[-64.70163,17.7503],[-64.70194,17.74891],[-64.70383,17.74926],[-64.70362,17.75062]]],[[[-64.76289,17.6845],[-64.76046,17.68505],[-64.75935,17.68359],[-64.76195,17.68246],[-64.76289,17.6845]]],[[[-64.79879,17.77698],[-64.78212,17.78364],[-64.76701,17.78009],[-64.76123,17.78111],[-64.75883,17.77907],[-64.76085,17.77541],[-64.7589,17.76808],[-64.75685,17.77464],[-64.75509,17.77498],[-64.75354,17.77095],[-64.75199,17.77129],[-64.75347,17.78098],[-64.74834,17.78331],[-64.73136,17.76233],[-64.72455,17.75935],[-64.72006,17.75411],[-64.70959,17.74711],[-64.7019,17.74738],[-64.69947,17.74544],[-64.69347,17.7549],[-64.68505,17.75442],[-64.67996,17.76057],[-64.65934,17.75959],[-64.65562,17.76346],[-64.6393,17.75872],[-64.63261,17.75868],[-64.63035,17.76055],[-64.61976,17.75914],[-64.61501,17.76106],[-64.61171,17.76047],[-64.60841,17.75607],[-64.60178,17.75436],[-64.59928,17.75651],[-64.59254,17.75597],[-64.58511,17.75887],[-64.5832,17.76208],[-64.5795,17.75909],[-64.57441,17.75981],[-64.56559,17.75521],[-64.57721,17.74584],[-64.58,17.74735],[-64.58577,17.74502],[-64.58872,17.74686],[-64.60239,17.74579],[-64.60909,17.73688],[-64.60963,17.73317],[-64.61696,17.73487],[-64.62126,17.73164],[-64.63073,17.72882],[-64.63783,17.72208],[-64.65275,17.72299],[-64.66216,17.71915],[-64.66665,17.71338],[-64.67512,17.71381],[-64.68433,17.71079],[-64.68626,17.70707],[-64.69209,17.70554],[-64.69823,17.70619],[-64.70112,17.70378],[-64.70714,17.70539],[-64.71776,17.69907],[-64.733,17.70446],[-64.74018,17.70064],[-64.74191,17.69578],[-64.74589,17.7018],[-64.76332,17.69663],[-64.77115,17.70902],[-64.77235,17.70267],[-64.76469,17.69288],[-64.76677,17.69005],[-64.77853,17.69564],[-64.78345,17.71066],[-64.78105,17.71385],[-64.77574,17.71563],[-64.77674,17.71858],[-64.76101,17.72366],[-64.76172,17.72555],[-64.76855,17.72625],[-64.77013,17.72896],[-64.77285,17.72883],[-64.76817,17.73028],[-64.76739,17.72799],[-64.76507,17.72857],[-64.76573,17.73051],[-64.76417,17.73094],[-64.76809,17.73936],[-64.77056,17.73857],[-64.76495,17.74825],[-64.77942,17.74494],[-64.78223,17.75323],[-64.78799,17.7512],[-64.79329,17.75431],[-64.79696,17.76163],[-64.79505,17.76152],[-64.79783,17.76678],[-64.79663,17.76913],[-64.79879,17.77698]]]]}},{"type":"Feature","id":"00850","properties":{"zip":"00850","pop":null,"city":"","county":"St. Croix","state":"United States Virgin Islands","area":8.22,"lat":17.72761,"lon":-64.79116},"geometry":{"type":"Polygon","coordinates":[[[-64.81907,17.7327],[-64.80773,17.73619],[-64.80654,17.73265],[-64.80557,17.7369],[-64.80376,17.73745],[-64.80741,17.74513],[-64.81041,17.74419],[-64.81322,17.75252],[-64.79495,17.75812],[-64.79329,17.75431],[-64.78882,17.75095],[-64.79346,17.7495],[-64.79076,17.74134],[-64.78505,17.74309],[-64.78577,17.74529],[-64.78268,17.74729],[-64.78616,17.75001],[-64.78052,17.7482],[-64.77942,17.74494],[-64.76495,17.74825],[-64.77056,17.73857],[-64.76809,17.73936],[-64.76417,17.73094],[-64.76573,17.73051],[-64.76507,17.72857],[-64.76739,17.72799],[-64.76817,17.73028],[-64.77285,17.72883],[-64.77013,17.72896],[-64.76855,17.72625],[-64.76172,17.72555],[-64.76101,17.72366],[-64.77674,17.71858],[-64.77574,17.71563],[-64.78105,17.71385],[-64.78345,17.71066],[-64.77853,17.69564],[-64.7887,17.69612],[-64.79742,17.69334],[-64.80131,17.70764],[-64.79965,17.7123],[-64.80219,17.71976],[-64.81355,17.71632],[-64.81907,17.7327]]]}},{"type":"Feature","id":"00840","properties":{"zip":"00840","pop":null,"city":"Frederiksted Southeast","county":"St. Croix","state":"United States Virgin Islands","area":29.78,"lat":17.72643,"lon":-64.84727},"geometry":{"type":"Polygon","coordinates":[[[-64.90356,17.68042],[-64.89144,17.69341],[-64.88364,17.708],[-64.88379,17.71677],[-64.89429,17.74566],[-64.89117,17.75047],[-64.88892,17.75999],[-64.88234,17.76362],[-64.88149,17.7673],[-64.87236,17.77104],[-64.85666,17.76459],[-64.83652,17.76155],[-64.81915,17.7674],[-64.81062,17.77253],[-64.80829,17.77748],[-64.80476,17.77904],[-64.79767,17.77828],[-64.79783,17.76678],[-64.79563,17.76442],[-64.79505,17.76152],[-64.79696,17.76163],[-64.79553,17.75794],[-64.81322,17.75252],[-64.81041,17.74419],[-64.80741,17.74513],[-64.80376,17.73745],[-64.80557,17.7369],[-64.80654,17.73265],[-64.80773,17.73619],[-64.81907,17.7327],[-64.81355,17.71632],[-64.80219,17.71976],[-64.79965,17.7123],[-64.80131,17.70764],[-64.79742,17.69334],[-64.80361,17.69391],[-64.82616,17.6867],[-64.83899,17.67999],[-64.83946,17.68469],[-64.84352,17.68736],[-64.86053,17.68539],[-64.86895,17.68659],[-64.8785,17.68419],[-64.88504,17.68572],[-64.9006,17.67468],[-64.90356,17.68042]]]}}]}