{"type":"FeatureCollection","name":"zctas_?","features":[{"type":"Feature","id":"04570","properties":{"zip":"04570","pop":null,"city":"","county":"","state":"","area":0.15,"lat":43.80831,"lon":-69.6311},"geometry":{"type":"Polygon","coordinates":[[[-69.63567,43.80544],[-69.63306,43.8075],[-69.63551,43.80925],[-69.633,43.81258],[-69.62879,43.81372],[-69.62673,43.80516],[-69.63413,43.80349],[-69.63567,43.80544]]]}},{"type":"Feature","id":"14166","properties":{"zip":"14166","pop":null,"city":"","county":"","state":"","area":0.06,"lat":42.45078,"lon":-79.41575},"geometry":{"type":"Polygon","coordinates":[[[-79.41998,42.44763],[-79.41773,42.45337],[-79.41152,42.45159],[-79.41152,42.44928],[-79.41538,42.44993],[-79.41998,42.44763]]]}},{"type":"Feature","id":"49686","properties":{"zip":"49686","pop":null,"city":"Traverse City","county":"Grand Traverse","state":"","area":34.08,"lat":44.82798,"lon":-85.53628},"geometry":{"type":"MultiPolygon","coordinates":[[[[-85.58321,44.86373],[-85.58121,44.86994],[-85.56989,44.87232],[-85.57212,44.86959],[-85.57064,44.86452],[-85.58185,44.86024],[-85.58375,44.86145],[-85.58321,44.86373]]],[[[-85.61875,44.71801],[-85.61479,44.75749],[-85.61675,44.75938],[-85.61585,44.76405],[-85.61814,44.7654],[-85.59926,44.76592],[-85.59357,44.76878],[-85.59436,44.77481],[-85.58535,44.79758],[-85.58215,44.80174],[-85.57909,44.81773],[-85.56849,44.82536],[-85.56416,44.83126],[-85.55391,44.85701],[-85.54891,44.86321],[-85.53293,44.87319],[-85.53131,44.88182],[-85.52904,44.88459],[-85.53065,44.88976],[-85.52475,44.89612],[-85.53477,44.90162],[-85.54644,44.90155],[-85.54954,44.89888],[-85.54967,44.89518],[-85.55714,44.88756],[-85.55963,44.88775],[-85.56451,44.89525],[-85.54575,44.91317],[-85.5397,44.91678],[-85.53834,44.92204],[-85.53355,44.92576],[-85.53436,44.92752],[-85.52907,44.93558],[-85.52903,44.94692],[-85.52435,44.95075],[-85.52021,44.96035],[-85.5221,44.96673],[-85.52003,44.974],[-85.50008,44.98105],[-85.4926,44.98983],[-85.47494,44.99172],[-85.46494,44.96106],[-85.46665,44.95884],[-85.48211,44.96222],[-85.48746,44.95894],[-85.48461,44.95255],[-85.49129,44.92759],[-85.48888,44.91602],[-85.49249,44.90822],[-85.48862,44.90171],[-85.49303,44.89051],[-85.49338,44.88413],[-85.49991,44.87232],[-85.49755,44.86935],[-85.50078,44.86217],[-85.49975,44.85609],[-85.50705,44.85251],[-85.50862,44.84787],[-85.51899,44.84555],[-85.52215,44.84196],[-85.52869,44.84074],[-85.53496,44.83564],[-85.53992,44.83417],[-85.55589,44.81826],[-85.56023,44.81007],[-85.55809,44.80408],[-85.56038,44.80066],[-85.56146,44.79212],[-85.55964,44.78594],[-85.56494,44.77667],[-85.57023,44.77277],[-85.57247,44.76566],[-85.57657,44.76021],[-85.5713,44.75529],[-85.55433,44.74874],[-85.53829,44.74682],[-85.52643,44.7482],[-85.52635,44.74643],[-85.52257,44.74666],[-85.52169,44.74878],[-85.51951,44.74867],[-85.52158,44.74982],[-85.52087,44.75193],[-85.51804,44.75188],[-85.51795,44.75371],[-85.52074,44.75376],[-85.51316,44.75634],[-85.5033,44.75082],[-85.50115,44.74394],[-85.47371,44.74357],[-85.47434,44.7415],[-85.47073,44.73828],[-85.46535,44.73714],[-85.47536,44.73296],[-85.47543,44.72946],[-85.47226,44.72545],[-85.47355,44.72227],[-85.46924,44.72276],[-85.46598,44.72057],[-85.47473,44.71468],[-85.49099,44.715],[-85.49099,44.71064],[-85.49591,44.71194],[-85.49603,44.71434],[-85.50624,44.71511],[-85.61464,44.715],[-85.61969,44.71536],[-85.61875,44.71801]]]]}},{"type":"Feature","id":"96799","properties":{"zip":"96799","pop":null,"city":"Si'ufaga","county":"Western","state":"","area":75.92,"lat":-14.22415,"lon":-170.3691},"geometry":{"type":"MultiPolygon","coordinates":[[[[-169.5191,-14.22088],[-169.51183,-14.22001],[-169.50736,-14.2124],[-169.4986,-14.21743],[-169.48863,-14.21521],[-169.46805,-14.21586],[-169.45398,-14.21171],[-169.44,-14.21402],[-169.42731,-14.21157],[-169.4188,-14.21839],[-169.42294,-14.25502],[-169.42777,-14.25726],[-169.43848,-14.25507],[-169.45079,-14.24847],[-169.46154,-14.24885],[-169.47071,-14.25383],[-169.48117,-14.26774],[-169.48308,-14.26759],[-169.48407,-14.27156],[-169.49053,-14.27184],[-169.49771,-14.26327],[-169.50453,-14.24495],[-169.51188,-14.24028],[-169.5191,-14.22088]]],[[[-169.63186,-14.16873],[-169.62072,-14.16434],[-169.61501,-14.15559],[-169.61026,-14.1566],[-169.60974,-14.17223],[-169.60624,-14.17995],[-169.61268,-14.19333],[-169.63186,-14.16873]]],[[[-169.68213,-14.16163],[-169.68028,-14.15886],[-169.65323,-14.16665],[-169.63538,-14.16652],[-169.63284,-14.16831],[-169.64601,-14.17172],[-169.66055,-14.18278],[-169.66987,-14.18564],[-169.67329,-14.18416],[-169.67776,-14.17836],[-169.67729,-14.17522],[-169.68213,-14.16163]]],[[[-169.68727,-14.1643],[-169.68304,-14.16752],[-169.68442,-14.17232],[-169.68617,-14.1696],[-169.68727,-14.1643]]],[[[-170.56101,-14.28377],[-170.55849,-14.27971],[-170.55347,-14.27826],[-170.54897,-14.27964],[-170.54573,-14.28322],[-170.54592,-14.28569],[-170.55058,-14.28918],[-170.55867,-14.28805],[-170.56171,-14.28571],[-170.56101,-14.28377]]],[[[-170.847,-14.32085],[-170.83653,-14.31925],[-170.83322,-14.31102],[-170.82709,-14.30759],[-170.82169,-14.30065],[-170.81623,-14.30381],[-170.81537,-14.3004],[-170.80997,-14.29716],[-170.81119,-14.29504],[-170.79946,-14.29163],[-170.79836,-14.2894],[-170.79703,-14.29124],[-170.7856,-14.29013],[-170.78499,-14.28763],[-170.78291,-14.28741],[-170.78067,-14.29505],[-170.77801,-14.29197],[-170.77533,-14.29102],[-170.77396,-14.29315],[-170.76143,-14.28742],[-170.76142,-14.2913],[-170.75528,-14.29145],[-170.75339,-14.29611],[-170.74854,-14.29116],[-170.73922,-14.29119],[-170.74029,-14.28759],[-170.73137,-14.28164],[-170.72501,-14.28538],[-170.72344,-14.28861],[-170.72065,-14.28476],[-170.72401,-14.28165],[-170.72239,-14.27893],[-170.72308,-14.27535],[-170.71588,-14.26651],[-170.71359,-14.26673],[-170.71244,-14.26189],[-170.70936,-14.26071],[-170.7046,-14.26202],[-170.70173,-14.25404],[-170.69532,-14.25315],[-170.69421,-14.25101],[-170.68869,-14.25362],[-170.69028,-14.24821],[-170.68779,-14.24666],[-170.68377,-14.24741],[-170.6827,-14.24404],[-170.67844,-14.24446],[-170.67176,-14.23888],[-170.67078,-14.24153],[-170.67512,-14.25037],[-170.67039,-14.25026],[-170.66097,-14.24539],[-170.65874,-14.25272],[-170.65249,-14.24854],[-170.65391,-14.25617],[-170.65242,-14.25898],[-170.65047,-14.25857],[-170.649,-14.25502],[-170.64608,-14.25542],[-170.64542,-14.2492],[-170.64301,-14.25051],[-170.64304,-14.25299],[-170.6413,-14.25295],[-170.63978,-14.24709],[-170.63847,-14.24933],[-170.63327,-14.24765],[-170.6306,-14.25111],[-170.62815,-14.24855],[-170.62438,-14.24976],[-170.62233,-14.24851],[-170.62147,-14.25018],[-170.62978,-14.25293],[-170.63207,-14.25567],[-170.62799,-14.25852],[-170.62057,-14.25702],[-170.6132,-14.25144],[-170.61235,-14.25419],[-170.6085,-14.25419],[-170.60631,-14.25893],[-170.60418,-14.25392],[-170.59332,-14.25831],[-170.59166,-14.25751],[-170.59115,-14.26124],[-170.58891,-14.26197],[-170.58478,-14.26009],[-170.58635,-14.25424],[-170.58451,-14.25095],[-170.58054,-14.25069],[-170.57773,-14.24628],[-170.57185,-14.24849],[-170.56148,-14.2461],[-170.56448,-14.2483],[-170.56409,-14.25504],[-170.56181,-14.25807],[-170.56449,-14.26982],[-170.57337,-14.27105],[-170.57859,-14.27482],[-170.5849,-14.27387],[-170.59107,-14.27966],[-170.59564,-14.28015],[-170.60228,-14.28409],[-170.60718,-14.28036],[-170.6036,-14.27727],[-170.60488,-14.27253],[-170.61465,-14.26808],[-170.62392,-14.27315],[-170.62947,-14.28044],[-170.63817,-14.28025],[-170.64016,-14.28652],[-170.64549,-14.28667],[-170.65164,-14.28994],[-170.65228,-14.28797],[-170.65669,-14.28981],[-170.65986,-14.28904],[-170.66326,-14.29105],[-170.66517,-14.27092],[-170.67848,-14.26763],[-170.68584,-14.27147],[-170.69946,-14.27107],[-170.69958,-14.2738],[-170.68874,-14.27773],[-170.68075,-14.27626],[-170.68235,-14.2794],[-170.68118,-14.28285],[-170.67526,-14.28542],[-170.68284,-14.29142],[-170.67744,-14.29417],[-170.6778,-14.29828],[-170.68917,-14.30182],[-170.68984,-14.30489],[-170.69472,-14.3073],[-170.69795,-14.31148],[-170.70285,-14.32206],[-170.70209,-14.31355],[-170.706,-14.3112],[-170.71084,-14.31376],[-170.71018,-14.31588],[-170.71219,-14.31617],[-170.71298,-14.31391],[-170.71497,-14.31478],[-170.71271,-14.31628],[-170.71636,-14.31809],[-170.71283,-14.32445],[-170.70017,-14.32558],[-170.69968,-14.32701],[-170.72185,-14.34005],[-170.72197,-14.34553],[-170.72751,-14.34824],[-170.74042,-14.36482],[-170.74195,-14.36551],[-170.74791,-14.35982],[-170.75251,-14.35888],[-170.75306,-14.36561],[-170.75977,-14.37374],[-170.76252,-14.36766],[-170.75999,-14.36548],[-170.76023,-14.36257],[-170.76796,-14.36223],[-170.76927,-14.36541],[-170.77024,-14.36354],[-170.78547,-14.35729],[-170.78534,-14.35022],[-170.78817,-14.34594],[-170.78579,-14.33963],[-170.79032,-14.33457],[-170.79362,-14.33509],[-170.79498,-14.33154],[-170.79939,-14.33406],[-170.80153,-14.33188],[-170.8053,-14.33197],[-170.809,-14.32564],[-170.81832,-14.33236],[-170.82692,-14.32902],[-170.82933,-14.33037],[-170.83244,-14.32467],[-170.83602,-14.32604],[-170.83927,-14.32372],[-170.84475,-14.32375],[-170.847,-14.32085]]],[[[-171.08987,-11.05259],[-171.08694,-11.04931],[-171.07363,-11.04693],[-171.06882,-11.04869],[-171.0658,-11.05386],[-171.07686,-11.06381],[-171.08086,-11.0646],[-171.0872,-11.05971],[-171.08987,-11.05259]]]]}},{"type":"Feature","id":"78382","properties":{"zip":"78382","pop":null,"city":"Rockport","county":"Aransas","state":"","area":74.72,"lat":28.11486,"lon":-97.06346},"geometry":{"type":"MultiPolygon","coordinates":[[[[-97.1256,28.25371],[-97.1238,28.25623],[-97.11935,28.25632],[-97.11756,28.25913],[-97.12085,28.26419],[-97.12091,28.26988],[-97.12425,28.27144],[-97.12307,28.27282],[-97.05651,28.28187],[-97.01488,28.21552],[-97.00974,28.21295],[-96.98955,28.20989],[-96.98697,28.21837],[-96.98394,28.21256],[-96.96676,28.2167],[-96.96401,28.21454],[-96.94593,28.1965],[-96.94973,28.18602],[-96.96043,28.17901],[-96.96659,28.17244],[-96.9724,28.17306],[-96.96626,28.16487],[-96.96637,28.16162],[-96.97291,28.1547],[-96.97302,28.14674],[-96.97766,28.1393],[-96.97553,28.13259],[-96.98539,28.12808],[-96.97968,28.12536],[-96.98337,28.12494],[-96.98955,28.12756],[-96.99485,28.13551],[-97.00041,28.13761],[-97.00963,28.13469],[-97.00916,28.13909],[-97.02538,28.14963],[-97.02576,28.15102],[-97.02325,28.15178],[-97.01711,28.15058],[-97.00883,28.15826],[-97.0192,28.16318],[-97.01736,28.17168],[-97.01831,28.18351],[-97.01094,28.18508],[-97.00726,28.19053],[-97.0088,28.20268],[-97.02851,28.20322],[-97.03742,28.2013],[-97.03915,28.20727],[-97.0432,28.209],[-97.05424,28.20385],[-97.06228,28.20648],[-97.06515,28.21106],[-97.06503,28.21455],[-97.06987,28.21412],[-97.07605,28.21978],[-97.08796,28.22069],[-97.10216,28.22649],[-97.09786,28.23204],[-97.10143,28.23402],[-97.10318,28.23299],[-97.10439,28.2361],[-97.10774,28.23646],[-97.10893,28.24059],[-97.11217,28.24217],[-97.11289,28.24636],[-97.1175,28.24661],[-97.11851,28.24984],[-97.1256,28.25371]]],[[[-97.16946,27.99767],[-97.16541,28.00375],[-97.15726,28.00439],[-97.16023,28.02111],[-97.15445,28.02118],[-97.15316,28.03269],[-97.13893,28.0269],[-97.12895,28.02921],[-97.12193,28.02092],[-97.11992,28.02155],[-97.12265,28.02879],[-97.10851,28.03309],[-97.10589,28.03802],[-97.10874,28.03938],[-97.11088,28.0375],[-97.11243,28.04201],[-97.12871,28.0398],[-97.1274,28.04169],[-97.13525,28.04788],[-97.13263,28.04998],[-97.12205,28.05166],[-97.11742,28.05889],[-97.11183,28.05942],[-97.11207,28.06875],[-97.10756,28.07085],[-97.10304,28.0763],[-97.09959,28.07808],[-97.08616,28.07903],[-97.0542,28.09276],[-97.04695,28.10199],[-97.04707,28.11467],[-97.05336,28.11834],[-97.04089,28.11834],[-97.0296,28.11278],[-97.02496,28.11331],[-97.02349,28.10941],[-97.02539,28.10749],[-97.02524,28.10467],[-97.02162,28.10584],[-97.02456,28.10768],[-97.02316,28.10853],[-97.02057,28.10482],[-97.02912,28.09926],[-97.03245,28.09454],[-97.03685,28.07588],[-97.03542,28.06728],[-97.03292,28.06466],[-97.03316,28.05396],[-97.02586,28.04194],[-97.0252,28.03215],[-97.04374,28.02806],[-97.04588,28.02585],[-97.06441,27.99224],[-97.07004,27.99065],[-97.07491,27.98658],[-97.0981,27.95536],[-97.09728,27.95713],[-97.10562,27.95687],[-97.16528,27.99216],[-97.16946,27.99767]],[[-97.05343,28.06813],[-97.04956,28.06751],[-97.05039,28.0653],[-97.04703,28.06441],[-97.04641,28.06135],[-97.04115,28.06147],[-97.04316,28.06277],[-97.04127,28.06658],[-97.0402,28.06019],[-97.03446,28.06027],[-97.03673,28.07373],[-97.05009,28.07624],[-97.05343,28.06813]]]]}},{"type":"Feature","id":"00680","properties":{"zip":"00680","pop":null,"city":"Mayag\u00fcez","county":"Mayag\u00fcez","state":"","area":60.64,"lat":18.16351,"lon":-67.35865},"geometry":{"type":"MultiPolygon","coordinates":[[[[-67.1514,18.17928],[-67.15045,18.19331],[-67.14459,18.20777],[-67.14618,18.21172],[-67.14096,18.21401],[-67.1361,18.20954],[-67.13243,18.21174],[-67.12962,18.21101],[-67.1294,18.21777],[-67.12175,18.22082],[-67.11904,18.21724],[-67.11386,18.21833],[-67.11925,18.2243],[-67.12035,18.23006],[-67.11952,18.23388],[-67.12109,18.23625],[-67.11909,18.23923],[-67.12037,18.24191],[-67.11877,18.24837],[-67.12305,18.24281],[-67.12589,18.24512],[-67.13136,18.24471],[-67.1365,18.24704],[-67.13456,18.24991],[-67.13835,18.255],[-67.13903,18.25932],[-67.13536,18.26102],[-67.13612,18.26277],[-67.13397,18.26444],[-67.12646,18.2616],[-67.12299,18.25695],[-67.11418,18.25634],[-67.1078,18.25194],[-67.09669,18.25253],[-67.09449,18.24969],[-67.08696,18.24914],[-67.08105,18.25485],[-67.07417,18.24786],[-67.07112,18.2489],[-67.06182,18.24486],[-67.05736,18.24614],[-67.05661,18.24001],[-67.05288,18.2371],[-67.05035,18.22748],[-67.03297,18.21809],[-67.03316,18.2083],[-67.02778,18.20851],[-67.0245,18.20538],[-67.03007,18.20034],[-67.02443,18.19877],[-67.01999,18.19968],[-67.02072,18.19766],[-67.01739,18.1899],[-67.02437,18.18467],[-67.03452,18.18552],[-67.03555,18.18325],[-67.03364,18.18131],[-67.04173,18.1806],[-67.04129,18.1777],[-67.04538,18.1763],[-67.05118,18.1775],[-67.04883,18.16465],[-67.05806,18.16695],[-67.06018,18.1615],[-67.06345,18.16127],[-67.07015,18.15488],[-67.07314,18.14661],[-67.07939,18.14603],[-67.08312,18.1431],[-67.08452,18.14929],[-67.09271,18.15201],[-67.09799,18.15865],[-67.10084,18.15673],[-67.11244,18.16033],[-67.12082,18.15596],[-67.12386,18.15803],[-67.12923,18.15814],[-67.13729,18.1521],[-67.14344,18.1556],[-67.14489,18.15428],[-67.1514,18.17928]],[[-67.08604,18.15642],[-67.0799,18.15625],[-67.07871,18.16503],[-67.07103,18.16682],[-67.07582,18.16873],[-67.07311,18.17087],[-67.07277,18.17285],[-67.07849,18.16755],[-67.08214,18.16807],[-67.08571,18.16298],[-67.08407,18.15943],[-67.08604,18.15642]]],[[[-67.94469,18.08459],[-67.93768,18.09013],[-67.93387,18.10369],[-67.93592,18.10782],[-67.93302,18.11254],[-67.90911,18.11953],[-67.90087,18.1153],[-67.8875,18.11252],[-67.87571,18.11392],[-67.86983,18.11854],[-67.86103,18.12187],[-67.85639,18.11532],[-67.84879,18.11029],[-67.8438,18.09612],[-67.84579,18.08218],[-67.85342,18.07928],[-67.87196,18.05827],[-67.88218,18.05477],[-67.89727,18.05358],[-67.90391,18.05929],[-67.92033,18.06414],[-67.92877,18.07002],[-67.93469,18.07824],[-67.93962,18.08078],[-67.94362,18.0803],[-67.94469,18.08459]]]]}},{"type":"Feature","id":"99841","properties":{"zip":"99841","pop":null,"city":"Tenakee Springs","county":"Hoonah-Angoon","state":"","area":271.13,"lat":58.00869,"lon":-135.57401},"geometry":{"type":"MultiPolygon","coordinates":[[[[-135.49839,58.15207],[-135.4966,58.15319],[-135.49126,58.15069],[-135.49506,58.14874],[-135.49886,58.15075],[-135.49839,58.15207]]],[[[-136.13317,58.0807],[-136.12746,58.08254],[-136.03763,58.07278],[-136.02305,58.07381],[-136.01329,58.07785],[-136.00271,58.07851],[-135.97467,58.09351],[-135.96919,58.09921],[-135.95833,58.10026],[-135.93306,58.11138],[-135.92807,58.11936],[-135.92162,58.12338],[-135.91639,58.12958],[-135.91873,58.13224],[-135.91735,58.13492],[-135.91392,58.13608],[-135.91579,58.13788],[-135.91286,58.14104],[-135.91221,58.14439],[-135.91451,58.14612],[-135.91196,58.15136],[-135.93146,58.16226],[-135.94685,58.16457],[-135.95398,58.16765],[-135.96572,58.18016],[-135.98281,58.18473],[-135.99105,58.18398],[-135.99336,58.18525],[-135.99114,58.18808],[-135.99407,58.18957],[-135.97886,58.19343],[-135.9741,58.19982],[-135.97422,58.20564],[-135.97078,58.21002],[-135.95782,58.21315],[-135.95723,58.21653],[-135.9438,58.21966],[-135.9419,58.22154],[-135.94368,58.22511],[-135.93156,58.22993],[-135.92978,58.23418],[-135.91528,58.23925],[-135.91326,58.24381],[-135.89888,58.24819],[-135.88996,58.24675],[-135.87048,58.25107],[-135.86703,58.25494],[-135.85431,58.26195],[-135.83411,58.26914],[-135.8334,58.27645],[-135.82543,58.28238],[-135.79727,58.28801],[-135.78384,58.28657],[-135.77944,58.28438],[-135.77136,58.26757],[-135.75496,58.26714],[-135.74914,58.2542],[-135.7426,58.25088],[-135.74118,58.24579],[-135.73405,58.23981],[-135.72839,58.23814],[-135.71361,58.2385],[-135.70707,58.23262],[-135.68247,58.22805],[-135.67962,58.22536],[-135.66672,58.22486],[-135.64307,58.23101],[-135.63481,58.22402],[-135.62852,58.22173],[-135.62246,58.21228],[-135.58502,58.20314],[-135.58062,58.20545],[-135.59049,58.21096],[-135.58966,58.21422],[-135.58728,58.21472],[-135.57278,58.20808],[-135.57207,58.2067],[-135.57492,58.20458],[-135.56945,58.20314],[-135.56672,58.19806],[-135.55579,58.19487],[-135.54711,58.19005],[-135.54248,58.18516],[-135.53487,58.18516],[-135.53487,58.18823],[-135.53273,58.18867],[-135.52762,58.1876],[-135.51396,58.18102],[-135.51015,58.1762],[-135.49554,58.17125],[-135.49506,58.17],[-135.49886,58.16768],[-135.50481,58.16586],[-135.50207,58.16134],[-135.50742,58.16078],[-135.51122,58.15507],[-135.52025,58.15351],[-135.52394,58.14981],[-135.52346,58.14454],[-135.52073,58.14103],[-135.51907,58.1266],[-135.52144,58.12509],[-135.52132,58.12007],[-135.53951,58.10764],[-135.53772,58.10431],[-135.53903,58.10042],[-135.55971,58.09313],[-135.56411,58.09068],[-135.56839,58.08484],[-135.583,58.08208],[-135.58443,58.07937],[-135.59393,58.07473],[-135.59215,58.07014],[-135.5937,58.06882],[-135.60534,58.06762],[-135.61069,58.06215],[-135.61461,58.06077],[-135.61081,58.05385],[-135.62186,58.05279],[-135.62519,58.04908],[-135.65264,58.05191],[-135.66785,58.05549],[-135.67189,58.05436],[-135.66548,58.04411],[-135.65038,58.03675],[-135.64311,58.03634],[-135.64493,58.034],[-135.66072,58.03624],[-135.67653,58.04285],[-135.69067,58.04197],[-135.68889,58.03863],[-135.68342,58.03668],[-135.67914,58.03184],[-135.66655,58.03215],[-135.66358,58.02857],[-135.65407,58.02687],[-135.65751,58.02385],[-135.64123,58.02624],[-135.62602,58.02221],[-135.62246,58.01743],[-135.63434,58.0122],[-135.63149,58.00471],[-135.63696,57.9981],[-135.63315,57.98701],[-135.59596,57.98922],[-135.5893,57.993],[-135.58752,57.99577],[-135.58859,57.99885],[-135.58003,58.00194],[-135.57658,58.00685],[-135.57052,58.00817],[-135.56969,58.01189],[-135.5628,58.01755],[-135.56173,58.01976],[-135.5647,58.02209],[-135.56304,58.0309],[-135.55911,58.03499],[-135.56244,58.04184],[-135.56018,58.04505],[-135.54913,58.04316],[-135.54703,58.04698],[-135.5392,58.04595],[-135.52757,58.03677],[-135.51522,58.03121],[-135.48285,58.03264],[-135.48466,58.03475],[-135.48234,58.03525],[-135.48451,58.0363],[-135.48417,58.03877],[-135.49059,58.04288],[-135.48872,58.04524],[-135.4917,58.04516],[-135.48931,58.05774],[-135.48603,58.06051],[-135.48743,58.06337],[-135.48322,58.06685],[-135.4671,58.06627],[-135.47493,58.06321],[-135.47895,58.05836],[-135.47602,58.05339],[-135.47483,58.04616],[-135.47672,58.0436],[-135.47427,58.03975],[-135.47821,58.03709],[-135.47755,58.02763],[-135.47988,58.02564],[-135.47874,58.02168],[-135.48135,58.01208],[-135.47891,58.00981],[-135.48058,58.00643],[-135.47814,58.00095],[-135.47316,57.99568],[-135.46354,57.99302],[-135.42815,57.99599],[-135.42227,57.9908],[-135.40581,57.98864],[-135.38798,57.98939],[-135.3572,57.98396],[-135.34344,57.97944],[-135.33105,57.97779],[-135.32434,57.9736],[-135.32398,57.96899],[-135.32075,57.96382],[-135.30528,57.95891],[-135.29994,57.95538],[-135.29099,57.95253],[-135.28995,57.95459],[-135.28575,57.95255],[-135.27586,57.9535],[-135.24157,57.94215],[-135.21326,57.93935],[-135.21349,57.94185],[-135.20705,57.9431],[-135.20691,57.94777],[-135.20495,57.94728],[-135.19891,57.94284],[-135.20557,57.93507],[-135.19344,57.93115],[-135.18869,57.92547],[-135.16552,57.91777],[-135.17182,57.91676],[-135.16885,57.91152],[-135.16421,57.90881],[-135.1635,57.90546],[-135.15539,57.90172],[-135.1533,57.90273],[-135.15161,57.89827],[-135.14175,57.89214],[-135.13165,57.8869],[-135.11703,57.88266],[-135.07437,57.87849],[-135.06771,57.87476],[-135.06391,57.86908],[-135.05483,57.86503],[-135.05084,57.85994],[-135.04381,57.86011],[-135.04219,57.86266],[-135.03527,57.85972],[-135.03301,57.85441],[-135.03491,57.85137],[-135.0298,57.8491],[-135.03408,57.8429],[-135.02529,57.84056],[-135.02279,57.84144],[-135.02077,57.84638],[-135.01899,57.84631],[-135.01519,57.84271],[-134.997,57.84037],[-134.99011,57.83588],[-134.99035,57.83366],[-135.00247,57.83562],[-135.00865,57.83411],[-135.00912,57.82885],[-134.97823,57.82455],[-134.96943,57.8186],[-134.95755,57.81639],[-134.95541,57.81474],[-134.95648,57.8098],[-134.94816,57.80537],[-134.95565,57.80493],[-134.96349,57.8017],[-134.9812,57.80233],[-134.9913,57.79803],[-134.99629,57.79232],[-135.0014,57.79239],[-135.01911,57.77947],[-135.02398,57.77832],[-135.03396,57.78099],[-135.04062,57.77858],[-135.0443,57.78035],[-135.05512,57.77864],[-135.05844,57.78295],[-135.06367,57.78054],[-135.06842,57.77459],[-135.07639,57.77611],[-135.08221,57.7839],[-135.091,57.78586],[-135.11014,57.78232],[-135.1181,57.77775],[-135.1118,57.76691],[-135.12256,57.76256],[-135.17642,57.75768],[-135.21799,57.75879],[-135.23813,57.76171],[-135.27588,57.77329],[-135.35107,57.80545],[-135.37942,57.82304],[-135.42673,57.84399],[-135.52853,57.88047],[-135.57025,57.89257],[-135.60803,57.90067],[-135.6485,57.91333],[-135.71515,57.92941],[-135.75702,57.94272],[-135.79239,57.95777],[-135.81891,57.97414],[-135.87875,57.99742],[-135.89409,58.00088],[-135.97369,58.00607],[-135.99363,58.02083],[-136.01845,58.03084],[-136.02527,58.0376],[-136.03975,58.04106],[-136.04713,58.04685],[-136.05846,58.04937],[-136.07262,58.0562],[-136.10162,58.06083],[-136.10541,58.06258],[-136.11058,58.06941],[-136.12985,58.07448],[-136.1295,58.07813],[-136.13317,58.0807]]]]}},{"type":"Feature","id":"48157","properties":{"zip":"48157","pop":null,"city":"Luna Pier","county":"Monroe","state":"","area":0.7,"lat":41.81509,"lon":-83.4373},"geometry":{"type":"Polygon","coordinates":[[[-83.45245,41.80693],[-83.43475,41.82504],[-83.41313,41.82557],[-83.41958,41.8213],[-83.4342,41.81856],[-83.43961,41.81316],[-83.4422,41.80126],[-83.45239,41.80286],[-83.45245,41.80693]]]}},{"type":"Feature","id":"02872","properties":{"zip":"02872","pop":null,"city":"","county":"Newport","state":"","area":4.61,"lat":41.61756,"lon":-71.32911},"geometry":{"type":"MultiPolygon","coordinates":[[[[-71.35382,41.64747],[-71.34763,41.65282],[-71.34327,41.65377],[-71.35157,41.6586],[-71.34693,41.66333],[-71.3489,41.66532],[-71.34482,41.66701],[-71.34402,41.6615],[-71.33765,41.65797],[-71.33934,41.65503],[-71.33807,41.65083],[-71.33245,41.64379],[-71.33343,41.64179],[-71.33652,41.6419],[-71.33498,41.64421],[-71.33709,41.64673],[-71.34468,41.64253],[-71.34367,41.6399],[-71.3406,41.63969],[-71.3347,41.63444],[-71.32682,41.6317],[-71.31712,41.63139],[-71.31403,41.62792],[-71.30812,41.62624],[-71.30405,41.61878],[-71.30433,41.60795],[-71.30264,41.60553],[-71.30489,41.60448],[-71.3167,41.58313],[-71.3261,41.57858],[-71.3312,41.58032],[-71.33595,41.5859],[-71.33705,41.59469],[-71.33375,41.60586],[-71.32956,41.6091],[-71.33006,41.6111],[-71.32661,41.61611],[-71.32556,41.62414],[-71.33737,41.63128],[-71.34735,41.63128],[-71.35073,41.63391],[-71.35382,41.64747]]],[[[-71.36704,41.6607],[-71.36071,41.66112],[-71.35466,41.65976],[-71.3534,41.65787],[-71.35635,41.65209],[-71.36001,41.64988],[-71.36254,41.65114],[-71.36704,41.6607]]],[[[-71.37224,41.59985],[-71.36732,41.60595],[-71.36338,41.60669],[-71.36479,41.60143],[-71.37336,41.59744],[-71.37224,41.59985]]]]}},{"type":"Feature","id":"27950","properties":{"zip":"27950","pop":null,"city":"","county":"Currituck","state":"","area":29.37,"lat":36.52602,"lon":-76.00076},"geometry":{"type":"Polygon","coordinates":[[[-76.152,36.54213],[-76.15174,36.55048],[-75.90688,36.55065],[-75.90844,36.54608],[-75.90511,36.54201],[-75.90458,36.5319],[-75.90738,36.52329],[-75.90708,36.51201],[-75.89466,36.49998],[-75.89416,36.49647],[-75.8961,36.48977],[-75.9015,36.48292],[-75.91307,36.48634],[-75.92413,36.48212],[-75.92733,36.48282],[-75.93547,36.4906],[-75.95462,36.49146],[-75.96115,36.49479],[-75.97255,36.49467],[-75.97689,36.48756],[-75.9891,36.49514],[-75.98242,36.50426],[-75.981,36.51133],[-75.98623,36.52566],[-75.99621,36.52814],[-75.99882,36.53444],[-76.00263,36.53711],[-76.03067,36.53883],[-76.03186,36.53253],[-76.02616,36.52374],[-76.02639,36.51649],[-76.04256,36.51056],[-76.04014,36.50463],[-76.07233,36.50392],[-76.07282,36.50825],[-76.07623,36.51264],[-76.08687,36.51298],[-76.09471,36.5181],[-76.09189,36.52488],[-76.10059,36.52596],[-76.10397,36.53196],[-76.1126,36.53147],[-76.11779,36.52711],[-76.12263,36.52656],[-76.12478,36.5293],[-76.12175,36.5324],[-76.12462,36.53512],[-76.13156,36.53738],[-76.1359,36.53272],[-76.1399,36.53581],[-76.14747,36.53487],[-76.15451,36.53994],[-76.152,36.54213]]]}},{"type":"Feature","id":"07735","properties":{"zip":"07735","pop":null,"city":"Union Beach","county":"Monmouth","state":"","area":3.82,"lat":40.44089,"lon":-74.2028},"geometry":{"type":"Polygon","coordinates":[[[-74.24484,40.45],[-74.23947,40.45334],[-74.23973,40.45584],[-74.23712,40.45534],[-74.23696,40.45737],[-74.23141,40.4524],[-74.22429,40.45251],[-74.20979,40.44741],[-74.20592,40.43928],[-74.20239,40.43937],[-74.19391,40.441],[-74.18779,40.44741],[-74.18556,40.45292],[-74.18067,40.45798],[-74.17789,40.458],[-74.16505,40.44826],[-74.1583,40.44666],[-74.1616,40.44326],[-74.15552,40.44385],[-74.15563,40.43903],[-74.17354,40.43739],[-74.18822,40.43933],[-74.19102,40.43661],[-74.18857,40.43284],[-74.19387,40.42464],[-74.21185,40.42261],[-74.21703,40.4334],[-74.22339,40.42597],[-74.23,40.42769],[-74.22876,40.43383],[-74.22063,40.43544],[-74.22975,40.44297],[-74.23417,40.4405],[-74.23434,40.44381],[-74.24043,40.43907],[-74.2466,40.44624],[-74.24484,40.45]]]}},{"type":"Feature","id":"33606","properties":{"zip":"33606","pop":null,"city":"Tampa","county":"Hillsborough","state":"","area":3.14,"lat":27.93256,"lon":-82.46502},"geometry":{"type":"Polygon","coordinates":[[[-82.48508,27.95064],[-82.48299,27.95061],[-82.48298,27.9528],[-82.46846,27.95197],[-82.46841,27.95556],[-82.46501,27.95451],[-82.46497,27.95006],[-82.45942,27.94466],[-82.44388,27.91552],[-82.44624,27.91238],[-82.44559,27.90996],[-82.44902,27.90712],[-82.4618,27.90972],[-82.46025,27.93705],[-82.46189,27.9386],[-82.46641,27.93617],[-82.46761,27.93324],[-82.48398,27.92601],[-82.48299,27.94843],[-82.48506,27.94845],[-82.48508,27.95064]]]}},{"type":"Feature","id":"20674","properties":{"zip":"20674","pop":null,"city":"Piney Point","county":"St. Mary's","state":"","area":2.34,"lat":38.13328,"lon":-76.50047},"geometry":{"type":"MultiPolygon","coordinates":[[[[-76.49995,38.1362],[-76.48893,38.13666],[-76.46935,38.12004],[-76.46974,38.11553],[-76.4664,38.11139],[-76.46548,38.1066],[-76.47031,38.10368],[-76.4754,38.10422],[-76.48104,38.11587],[-76.49995,38.1362]]],[[[-76.53574,38.1511],[-76.53343,38.14907],[-76.53378,38.1512],[-76.53182,38.15229],[-76.53353,38.15442],[-76.53139,38.15454],[-76.53294,38.15642],[-76.5299,38.15451],[-76.52392,38.15899],[-76.51448,38.15136],[-76.51194,38.14688],[-76.50608,38.14849],[-76.50586,38.14662],[-76.51009,38.1461],[-76.50771,38.14507],[-76.51023,38.14455],[-76.50385,38.13935],[-76.51849,38.14095],[-76.52987,38.13408],[-76.53297,38.14662],[-76.5354,38.14643],[-76.53574,38.1511]]]]}},{"type":"Feature","id":"99571","properties":{"zip":"99571","pop":null,"city":"Cold Bay","county":"Aleutians East","state":"","area":35.96,"lat":55.29564,"lon":-162.58832},"geometry":{"type":"MultiPolygon","coordinates":[[[[-161.37909,55.96732],[-161.29139,55.9839],[-161.18343,56.00911],[-161.11986,56.01353],[-161.11294,56.01151],[-161.1141,56.00942],[-161.12216,56.0104],[-161.12811,56.0084],[-161.13642,56.00986],[-161.14023,56.00774],[-161.15687,56.00521],[-161.16518,56.00628],[-161.18016,56.00322],[-161.19252,56.00309],[-161.19727,56.00163],[-161.19751,55.9999],[-161.20927,55.99795],[-161.22128,55.99844],[-161.23221,55.9947],[-161.26237,55.98908],[-161.27499,55.98461],[-161.28521,55.97118],[-161.28008,55.9589],[-161.33214,55.96079],[-161.34338,55.95625],[-161.3579,55.95355],[-161.36634,55.94893],[-161.3751,55.94843],[-161.37439,55.9519],[-161.37651,55.94938],[-161.37909,55.96732]]],[[[-162.9107,55.2495],[-162.90595,55.25288],[-162.89845,55.25387],[-162.88955,55.26033],[-162.88884,55.26318],[-162.89216,55.26656],[-162.89938,55.26778],[-162.89929,55.26995],[-162.89231,55.27082],[-162.88812,55.27361],[-162.8722,55.27239],[-162.86489,55.27769],[-162.85271,55.28051],[-162.84772,55.27455],[-162.84748,55.27117],[-162.84439,55.26995],[-162.84677,55.26751],[-162.84415,55.26535],[-162.83916,55.26521],[-162.82346,55.28002],[-162.70047,55.28002],[-162.70048,55.26147],[-162.7094,55.25288],[-162.72378,55.22653],[-162.72485,55.2209],[-162.72283,55.21459],[-162.71915,55.21059],[-162.70465,55.20652],[-162.69954,55.20022],[-162.7012,55.19778],[-162.69728,55.19581],[-162.64713,55.19635],[-162.63845,55.18285],[-162.62859,55.18048],[-162.62027,55.17186],[-162.6173,55.17104],[-162.6179,55.16378],[-162.61195,55.15978],[-162.61053,55.15427],[-162.60019,55.15156],[-162.59627,55.14518],[-162.58807,55.1413],[-162.58783,55.13274],[-162.59983,55.12445],[-162.61374,55.12921],[-162.62398,55.12101],[-162.65072,55.121],[-162.65076,55.13546],[-162.70046,55.13547],[-162.70047,55.16437],[-162.75097,55.16437],[-162.75101,55.19328],[-162.8511,55.19328],[-162.85111,55.21958],[-162.84392,55.22253],[-162.85033,55.2415],[-162.85722,55.24543],[-162.86816,55.24679],[-162.87319,55.24531],[-162.88244,55.23665],[-162.88509,55.23665],[-162.89478,55.23988],[-162.90001,55.23893],[-162.9012,55.24327],[-162.90975,55.24408],[-162.9107,55.2495]]]]}},{"type":"Feature","id":"21665","properties":{"zip":"21665","pop":null,"city":"Tilghman Island","county":"Talbot","state":"","area":5.37,"lat":38.75171,"lon":-76.3445},"geometry":{"type":"MultiPolygon","coordinates":[[[[-76.34245,38.7509],[-76.33726,38.76073],[-76.33003,38.76344],[-76.32931,38.76841],[-76.32593,38.76713],[-76.32883,38.76599],[-76.32202,38.76299],[-76.319,38.77347],[-76.31426,38.76903],[-76.31517,38.76514],[-76.31076,38.76503],[-76.29648,38.77091],[-76.29422,38.76951],[-76.30724,38.7613],[-76.31114,38.75391],[-76.31059,38.74938],[-76.31339,38.74908],[-76.3128,38.74584],[-76.32492,38.74009],[-76.32361,38.73833],[-76.3147,38.73759],[-76.31276,38.73071],[-76.31933,38.72915],[-76.32644,38.71742],[-76.329,38.7231],[-76.33262,38.71978],[-76.33865,38.7243],[-76.34054,38.73034],[-76.34072,38.73665],[-76.33912,38.73824],[-76.34245,38.7509]]],[[[-76.39069,38.76628],[-76.37982,38.7802],[-76.37524,38.78258],[-76.36989,38.77864],[-76.37234,38.77405],[-76.37084,38.76564],[-76.36421,38.75431],[-76.36326,38.74661],[-76.37736,38.7428],[-76.38362,38.74547],[-76.38434,38.75017],[-76.39035,38.757],[-76.39069,38.76628]]]]}},{"type":"Feature","id":"98225","properties":{"zip":"98225","pop":null,"city":"Bellingham","county":"Whatcom","state":"","area":8.4,"lat":48.75438,"lon":-122.50309},"geometry":{"type":"Polygon","coordinates":[[[-122.58374,48.79011],[-122.58055,48.79025],[-122.58258,48.78971],[-122.58063,48.78705],[-122.57437,48.7833],[-122.57541,48.78598],[-122.58046,48.78823],[-122.5777,48.79203],[-122.56909,48.79666],[-122.55758,48.79637],[-122.55541,48.80041],[-122.55151,48.80203],[-122.55169,48.78967],[-122.54897,48.78967],[-122.54896,48.78514],[-122.54075,48.78512],[-122.54033,48.77983],[-122.53181,48.78139],[-122.52421,48.78599],[-122.51923,48.78605],[-122.51981,48.78876],[-122.5029,48.78393],[-122.4861,48.78286],[-122.47182,48.7791],[-122.46339,48.77107],[-122.46168,48.75508],[-122.46716,48.74299],[-122.46773,48.73332],[-122.47313,48.72728],[-122.47371,48.71596],[-122.47677,48.70706],[-122.47582,48.70477],[-122.47831,48.70472],[-122.47546,48.70207],[-122.48579,48.70236],[-122.48587,48.71017],[-122.49179,48.71024],[-122.49187,48.71299],[-122.50222,48.7165],[-122.4999,48.71441],[-122.49898,48.7091],[-122.50265,48.70876],[-122.50243,48.70522],[-122.50881,48.70326],[-122.50451,48.69144],[-122.50457,48.68899],[-122.50718,48.68993],[-122.5156,48.70154],[-122.51432,48.70421],[-122.51917,48.7131],[-122.51925,48.71716],[-122.51331,48.72249],[-122.5076,48.72171],[-122.50568,48.72452],[-122.50613,48.72805],[-122.50261,48.73253],[-122.49973,48.73284],[-122.4912,48.7424],[-122.49453,48.74554],[-122.49049,48.74789],[-122.4904,48.75113],[-122.51235,48.75713],[-122.51415,48.7632],[-122.5282,48.76843],[-122.5358,48.77613],[-122.5635,48.77853],[-122.57004,48.77441],[-122.56951,48.77669],[-122.57328,48.77873],[-122.57386,48.78199],[-122.58142,48.7865],[-122.58374,48.79011]]]}},{"type":"Feature","id":"98368","properties":{"zip":"98368","pop":null,"city":"Port Townsend","county":"Jefferson","state":"","area":35.2,"lat":48.0392,"lon":-122.84393},"geometry":{"type":"Polygon","coordinates":[[[-122.95149,47.95429],[-122.94917,47.99263],[-122.94322,47.99188],[-122.91232,47.97835],[-122.92082,47.98648],[-122.92004,47.99124],[-122.91781,47.99374],[-122.91179,47.9939],[-122.90853,47.99632],[-122.90436,47.99477],[-122.90576,48.00242],[-122.90299,47.99919],[-122.8804,48.0108],[-122.87864,48.02254],[-122.88243,48.02875],[-122.87811,48.03607],[-122.87781,48.03884],[-122.88008,48.04111],[-122.87535,48.04546],[-122.87112,48.03819],[-122.86802,48.0378],[-122.8622,48.02102],[-122.85843,48.01767],[-122.86065,48.01553],[-122.86201,48.00861],[-122.86755,48.00294],[-122.88671,47.99486],[-122.88842,47.9923],[-122.88459,47.98975],[-122.87668,47.99361],[-122.86981,47.99294],[-122.84917,47.99639],[-122.83946,48.00177],[-122.83745,48.0069],[-122.83347,48.00957],[-122.83404,48.01439],[-122.83017,48.02192],[-122.82707,48.03607],[-122.82688,48.04614],[-122.82916,48.04836],[-122.84989,48.05432],[-122.85242,48.05846],[-122.85679,48.06104],[-122.85773,48.06577],[-122.87445,48.07485],[-122.88919,48.07707],[-122.89007,48.07818],[-122.88062,48.08707],[-122.8787,48.09174],[-122.88009,48.09911],[-122.88493,48.10511],[-122.88173,48.10831],[-122.84818,48.12692],[-122.83795,48.13648],[-122.83317,48.13441],[-122.78419,48.14285],[-122.75451,48.14434],[-122.76179,48.13637],[-122.76245,48.13117],[-122.74891,48.11703],[-122.7812,48.10528],[-122.79418,48.09674],[-122.79385,48.0944],[-122.79846,48.09245],[-122.8014,48.08756],[-122.78807,48.07813],[-122.78442,48.06867],[-122.77422,48.06033],[-122.7653,48.05756],[-122.77056,48.05343],[-122.7705,48.04824],[-122.78393,48.0507],[-122.78898,48.04924],[-122.789,48.04381],[-122.79169,48.04254],[-122.79981,48.04563],[-122.79985,48.02463],[-122.81082,48.02425],[-122.81103,47.9991],[-122.82182,47.99893],[-122.82175,47.9259],[-122.85448,47.94099],[-122.88085,47.94434],[-122.88459,47.94776],[-122.8835,47.95756],[-122.88822,47.9544],[-122.94325,47.95432],[-122.94517,47.95118],[-122.9495,47.95176],[-122.95149,47.95429]]]}},{"type":"Feature","id":"99693","properties":{"zip":"99693","pop":null,"city":"Whittier","county":"Chugach","state":"","area":32.13,"lat":60.83748,"lon":-148.15156},"geometry":{"type":"MultiPolygon","coordinates":[[[[-148.1516,60.81812],[-148.14703,60.82827],[-148.13467,60.8343],[-148.13134,60.84206],[-148.12611,60.8446],[-148.12421,60.84761],[-148.12635,60.85074],[-148.12682,60.85849],[-148.1296,60.86111],[-148.12386,60.86886],[-148.11899,60.87076],[-148.11812,60.87478],[-148.1059,60.87884],[-148.1062,60.88581],[-148.09616,60.8917],[-148.10686,60.90048],[-148.10329,60.90557],[-148.10543,60.90765],[-148.10401,60.91181],[-148.0993,60.9141],[-148.09065,60.91386],[-148.09327,60.91551],[-148.08485,60.9165],[-148.08355,60.91731],[-148.0856,60.91871],[-148.07484,60.92154],[-148.07761,60.92291],[-148.07476,60.92757],[-148.0658,60.92425],[-148.05476,60.92521],[-148.04857,60.92941],[-148.03743,60.92764],[-148.03582,60.92508],[-148.02533,60.92253],[-148.0214,60.9183],[-148.01624,60.9179],[-148.00367,60.90996],[-147.99984,60.90868],[-147.99219,60.91049],[-147.97744,60.90612],[-147.96773,60.89958],[-147.96278,60.90107],[-147.95177,60.89546],[-147.95058,60.88803],[-147.93354,60.87891],[-147.93084,60.87571],[-147.93265,60.87281],[-147.94066,60.87172],[-147.93537,60.86724],[-147.9371,60.86294],[-147.94869,60.85352],[-147.94952,60.84881],[-147.94306,60.84355],[-147.93627,60.84309],[-147.92407,60.83683],[-147.92498,60.83536],[-147.91438,60.82475],[-147.91656,60.81488],[-147.91952,60.81102],[-147.94247,60.80468],[-147.96145,60.80277],[-147.96463,60.80358],[-147.9644,60.80623],[-147.95841,60.80873],[-147.9598,60.81071],[-147.96959,60.81153],[-147.97234,60.82031],[-147.97042,60.82417],[-147.97468,60.82587],[-147.98111,60.82508],[-147.98633,60.82285],[-147.98788,60.81432],[-147.98517,60.81267],[-147.99031,60.80128],[-147.98788,60.79607],[-147.99067,60.79198],[-148.03389,60.78213],[-148.07002,60.78874],[-148.07929,60.78863],[-148.08381,60.78581],[-148.0926,60.787],[-148.09902,60.78538],[-148.12944,60.78967],[-148.14435,60.79709],[-148.14299,60.80347],[-148.13966,60.80788],[-148.14108,60.81298],[-148.15086,60.81599],[-148.1516,60.81812]]],[[[-148.74582,60.80522],[-148.65406,60.8052],[-148.71841,60.78607],[-148.71461,60.77517],[-148.69512,60.7783],[-148.68204,60.77656],[-148.66588,60.77784],[-148.6105,60.79257],[-148.59149,60.80115],[-148.572,60.80637],[-148.55964,60.80718],[-148.55221,60.80566],[-148.54989,60.80115],[-148.56796,60.78793],[-148.56677,60.78329],[-148.56368,60.78329],[-148.55322,60.79048],[-148.53326,60.79466],[-148.53587,60.79814],[-148.51111,60.80301],[-148.51108,60.78076],[-148.52494,60.78375],[-148.55311,60.7763],[-148.65712,60.77631],[-148.65712,60.76187],[-148.7457,60.7619],[-148.74582,60.80522]]]]}},{"type":"Feature","id":"98282","properties":{"zip":"98282","pop":null,"city":"Camano","county":"Island","state":"","area":27.35,"lat":48.18762,"lon":-122.4698},"geometry":{"type":"Polygon","coordinates":[[[-122.53892,48.20968],[-122.53443,48.22301],[-122.53521,48.24021],[-122.531,48.24982],[-122.50379,48.25704],[-122.49965,48.25661],[-122.49773,48.25339],[-122.49345,48.25204],[-122.48092,48.25171],[-122.47449,48.25523],[-122.4668,48.2696],[-122.46396,48.27054],[-122.4584,48.26951],[-122.45602,48.26635],[-122.45121,48.2666],[-122.40547,48.25198],[-122.39915,48.2421],[-122.39554,48.23987],[-122.38351,48.2404],[-122.37705,48.23821],[-122.37642,48.23361],[-122.38741,48.22602],[-122.39233,48.23061],[-122.41527,48.22658],[-122.42405,48.2282],[-122.42557,48.23289],[-122.43058,48.23624],[-122.44961,48.2326],[-122.45371,48.22886],[-122.45362,48.22683],[-122.45084,48.22259],[-122.44951,48.21474],[-122.44451,48.21452],[-122.44173,48.21178],[-122.44205,48.20935],[-122.45493,48.19664],[-122.46189,48.19314],[-122.4648,48.19477],[-122.47025,48.19401],[-122.47853,48.18809],[-122.47901,48.1757],[-122.47448,48.17133],[-122.4758,48.16679],[-122.46592,48.16229],[-122.46202,48.15241],[-122.45588,48.146],[-122.45,48.14295],[-122.44238,48.13084],[-122.42314,48.12233],[-122.42147,48.11582],[-122.41165,48.11321],[-122.37948,48.08738],[-122.36388,48.06631],[-122.35944,48.06279],[-122.35682,48.05676],[-122.36311,48.05455],[-122.37239,48.05601],[-122.38499,48.06337],[-122.38844,48.06359],[-122.38769,48.06519],[-122.39341,48.07847],[-122.40069,48.08525],[-122.41559,48.09266],[-122.4237,48.10294],[-122.44679,48.1092],[-122.44966,48.11404],[-122.4675,48.13035],[-122.47798,48.12905],[-122.48674,48.12095],[-122.48999,48.12062],[-122.50471,48.1303],[-122.51056,48.13221],[-122.51573,48.14192],[-122.51354,48.14836],[-122.52398,48.16249],[-122.52272,48.16562],[-122.53009,48.17022],[-122.53053,48.17453],[-122.53722,48.18375],[-122.53318,48.18686],[-122.53192,48.1906],[-122.53294,48.19542],[-122.53846,48.20271],[-122.53892,48.20968]]]}},{"type":"Feature","id":"93042","properties":{"zip":"93042","pop":null,"city":"","county":"Ventura","state":"","area":23.23,"lat":33.40535,"lon":-119.43461},"geometry":{"type":"MultiPolygon","coordinates":[[[[-119.15962,34.1197],[-119.15493,34.1241],[-119.13896,34.11428],[-119.1312,34.1144],[-119.12665,34.11837],[-119.12678,34.12521],[-119.11899,34.12509],[-119.11402,34.12947],[-119.11182,34.12406],[-119.10162,34.1168],[-119.10249,34.11243],[-119.09306,34.11034],[-119.09051,34.11301],[-119.08228,34.11283],[-119.07929,34.10682],[-119.08094,34.10111],[-119.06796,34.0932],[-119.06163,34.08563],[-119.08599,34.09927],[-119.09812,34.09986],[-119.10881,34.09592],[-119.12925,34.10084],[-119.15962,34.1197]]],[[[-119.57727,33.27858],[-119.56215,33.27122],[-119.5548,33.27509],[-119.55128,33.28061],[-119.5466,33.27939],[-119.53971,33.28083],[-119.53464,33.28539],[-119.53141,33.28375],[-119.52878,33.28542],[-119.50972,33.2737],[-119.50514,33.27265],[-119.4986,33.26655],[-119.48923,33.26579],[-119.48698,33.26754],[-119.48573,33.26481],[-119.46059,33.25666],[-119.43852,33.23654],[-119.43479,33.23142],[-119.4344,33.22702],[-119.43888,33.2201],[-119.4703,33.21473],[-119.49108,33.21984],[-119.49814,33.21884],[-119.50229,33.22156],[-119.51293,33.223],[-119.52021,33.22871],[-119.53086,33.23146],[-119.54621,33.23256],[-119.54612,33.23413],[-119.5603,33.2438],[-119.56019,33.2453],[-119.56598,33.24706],[-119.56667,33.25007],[-119.56476,33.25027],[-119.56725,33.25472],[-119.57514,33.25806],[-119.57387,33.26449],[-119.57884,33.27819],[-119.57727,33.27858]]]]}},{"type":"Feature","id":"04003","properties":{"zip":"04003","pop":null,"city":"","county":"Cumberland","state":"","area":1.03,"lat":43.73321,"lon":-69.98735},"geometry":{"type":"MultiPolygon","coordinates":[[[[-69.94153,43.73007],[-69.93734,43.73083],[-69.93116,43.72413],[-69.93901,43.72382],[-69.9416,43.72684],[-69.94153,43.73007]]],[[[-70.00532,43.72025],[-69.99625,43.72994],[-69.99812,43.73079],[-70.00526,43.72443],[-69.99926,43.73334],[-69.99783,43.73283],[-69.9989,43.73554],[-69.99252,43.74878],[-69.99112,43.75046],[-69.9919,43.74809],[-69.98975,43.74791],[-69.98463,43.75193],[-69.98227,43.75094],[-69.97875,43.75764],[-69.97351,43.76062],[-69.9752,43.75361],[-69.97988,43.75384],[-69.98368,43.74439],[-69.99448,43.72845],[-69.99262,43.72479],[-70.00011,43.71529],[-69.99866,43.71142],[-70.00626,43.71022],[-70.00531,43.71365],[-70.00721,43.71763],[-70.00532,43.72025]]]]}},{"type":"Feature","id":"27978","properties":{"zip":"27978","pop":null,"city":"","county":"Dare","state":"","area":22.07,"lat":35.67156,"lon":-75.76526},"geometry":{"type":"MultiPolygon","coordinates":[[[[-75.7942,35.72897],[-75.76895,35.73241],[-75.76908,35.74632],[-75.75975,35.74676],[-75.75996,35.76917],[-75.74085,35.76951],[-75.73547,35.76388],[-75.73476,35.75848],[-75.73856,35.75308],[-75.73856,35.74942],[-75.7262,35.73919],[-75.72953,35.73032],[-75.72573,35.71449],[-75.71812,35.7089],[-75.71717,35.69365],[-75.73286,35.68149],[-75.73813,35.68202],[-75.73962,35.68406],[-75.73714,35.6894],[-75.73809,35.69462],[-75.7426,35.69963],[-75.75782,35.706],[-75.76732,35.70562],[-75.77432,35.69681],[-75.79091,35.69671],[-75.7942,35.72897]]],[[[-75.83351,35.57347],[-75.82489,35.57499],[-75.82285,35.5791],[-75.812,35.5833],[-75.81099,35.58582],[-75.81584,35.59467],[-75.81804,35.59465],[-75.81947,35.601],[-75.81676,35.60406],[-75.81726,35.60708],[-75.79924,35.6093],[-75.78706,35.62212],[-75.78087,35.63149],[-75.77708,35.64396],[-75.78038,35.68409],[-75.76645,35.67706],[-75.76981,35.66547],[-75.76491,35.65636],[-75.75422,35.64836],[-75.74826,35.64719],[-75.74348,35.64925],[-75.73992,35.64462],[-75.73491,35.63017],[-75.73607,35.6255],[-75.74416,35.62255],[-75.74873,35.61849],[-75.75197,35.61279],[-75.75217,35.60799],[-75.76175,35.60582],[-75.77101,35.59999],[-75.77679,35.60058],[-75.78183,35.59873],[-75.7851,35.59555],[-75.78439,35.58881],[-75.77712,35.58149],[-75.77797,35.57976],[-75.82693,35.57102],[-75.83339,35.57153],[-75.83351,35.57347]]]]}},{"type":"Feature","id":"49630","properties":{"zip":"49630","pop":null,"city":"","county":"Leelanau","state":"","area":45.2,"lat":44.92248,"lon":-86.00077},"geometry":{"type":"MultiPolygon","coordinates":[[[[-86.06448,45.1396],[-86.05939,45.15229],[-86.05047,45.15842],[-86.04443,45.15958],[-86.00595,45.15575],[-85.98941,45.15107],[-85.98462,45.14386],[-85.9768,45.13836],[-85.97687,45.12628],[-85.97468,45.12259],[-85.98043,45.11305],[-85.98409,45.08707],[-85.9828,45.08079],[-85.97708,45.07299],[-85.96088,45.06051],[-85.97688,45.06266],[-85.99951,45.05406],[-86.00753,45.05717],[-86.01669,45.06903],[-86.03271,45.08115],[-86.04117,45.0904],[-86.05242,45.09531],[-86.05865,45.10078],[-86.0604,45.10829],[-86.05842,45.11788],[-86.06448,45.1396]]],[[[-86.07175,44.80472],[-86.06651,44.81987],[-86.06653,44.83492],[-86.07076,44.86309],[-86.03672,44.86407],[-86.04424,44.8676],[-86.04454,44.87724],[-86.04087,44.87811],[-86.0347,44.88867],[-86.02432,44.88874],[-86.02079,44.89249],[-86.02189,44.89473],[-86.01894,44.89597],[-86.00262,44.89633],[-86.00223,44.89493],[-85.99474,44.8948],[-85.99249,44.88909],[-85.99011,44.89018],[-85.98838,44.88331],[-85.99759,44.87518],[-85.99415,44.87348],[-85.99418,44.86944],[-85.99603,44.86893],[-85.99545,44.86212],[-85.99813,44.85764],[-85.99853,44.82956],[-85.98756,44.82951],[-85.98456,44.82721],[-85.97766,44.82884],[-85.97782,44.82236],[-85.93207,44.82093],[-85.9322,44.8166],[-85.92847,44.8165],[-85.92851,44.81424],[-85.91589,44.81383],[-85.91605,44.80663],[-85.89574,44.80609],[-85.89562,44.80971],[-85.88544,44.8094],[-85.88565,44.7989],[-85.88069,44.79872],[-85.88078,44.78993],[-85.88198,44.78772],[-85.88594,44.78782],[-85.88621,44.77689],[-85.89637,44.77718],[-85.89641,44.7754],[-85.90027,44.77354],[-85.90668,44.77229],[-85.90673,44.76913],[-85.9142,44.76917],[-85.91519,44.76658],[-85.91911,44.76862],[-85.92129,44.76723],[-85.91826,44.76523],[-85.92784,44.76737],[-85.92641,44.76378],[-85.92243,44.76461],[-85.92577,44.75631],[-85.92351,44.75633],[-85.92248,44.75085],[-85.9203,44.75022],[-85.92555,44.74642],[-85.93747,44.74724],[-85.93708,44.77835],[-86.04947,44.77845],[-86.04973,44.79448],[-86.05845,44.79949],[-86.06005,44.80419],[-86.07175,44.80472]]]]}},{"type":"Feature","id":"49654","properties":{"zip":"49654","pop":null,"city":"Leland","county":"Leelanau","state":"","area":8.47,"lat":45.02691,"lon":-86.00828},"geometry":{"type":"MultiPolygon","coordinates":[[[[-85.78004,45.00962],[-85.76295,45.0226],[-85.76346,45.02433],[-85.76035,45.02632],[-85.75362,45.04096],[-85.74458,45.05339],[-85.71226,45.06562],[-85.69846,45.07461],[-85.69946,45.0608],[-85.70182,45.06004],[-85.70191,45.05743],[-85.71562,45.05461],[-85.72387,45.05517],[-85.72204,45.05237],[-85.73323,45.05512],[-85.7377,45.04468],[-85.7391,45.0377],[-85.73762,45.03672],[-85.7486,45.03213],[-85.74835,45.026],[-85.75022,45.02455],[-85.74664,45.02095],[-85.74555,45.01628],[-85.76021,45.01493],[-85.7635,45.01273],[-85.7681,45.00377],[-85.77159,45.00152],[-85.77117,44.99672],[-85.77266,44.99686],[-85.77295,45.00135],[-85.77662,45.00147],[-85.78004,45.00962]]],[[[-86.15565,45.01439],[-86.14164,45.04025],[-86.1381,45.04304],[-86.11791,45.04848],[-86.11314,45.04571],[-86.08525,45.03954],[-86.07781,45.03241],[-86.07762,45.0308],[-86.08769,45.03212],[-86.09709,45.03013],[-86.10189,45.02281],[-86.10121,45.0181],[-86.09224,45.01013],[-86.09354,45.00784],[-86.1157,44.99909],[-86.12488,44.99958],[-86.13483,44.99696],[-86.15433,45.00273],[-86.15584,45.00492],[-86.15565,45.01439]]]]}}]}